,location_type,location_code,departmentID,department_name,full_address,lon,lat,n
1,CENSVCS,CENSVCS1,2301,RECOVERY ROOM,"140 E Jefferson, Boise, ID, 83712",-116.1923872,43.6136281,1
2,CENSVCS,CENSVCS1,5203,LOGISTICS OPERATIONS,"140 E Jefferson, Boise, ID, 83712",-116.1923872,43.6136281,20
3,CENSVCS,CENSVCS1,5302,ENVIRONMENTAL SERVICES,"140 E Jefferson, Boise, ID, 83712",-116.1923872,43.6136281,60
4,CENSVCS,CENSVCS1,5321,SECURITY,"140 E Jefferson, Boise, ID, 83712",-116.1923872,43.6136281,27
5,CENSVCS,CENSVCS1,5333,BUILDING SERVICES,"140 E Jefferson, Boise, ID, 83712",-116.1923872,43.6136281,53
6,CENSVCS,CENSVCS1,5399,BUILDING SERVICES ADMIN,"140 E Jefferson, Boise, ID, 83712",-116.1923872,43.6136281,3
7,CENSVCS,CENSVCS1,6553,QUALITY & PATIENT SAFETY,"140 E Jefferson, Boise, ID, 83712",-116.1923872,43.6136281,8
8,CENSVCS,CENSVCS1,6601,ADMINISTRATION,"140 E Jefferson, Boise, ID, 83712",-116.1923872,43.6136281,1
9,CENSVCS,CENSVCS1,6751,CLINICAL SUPPORT,"140 E Jefferson, Boise, ID, 83712",-116.1923872,43.6136281,1
10,CENSVCS,CENSVCS1,6771,ACCREDITATION,"140 E Jefferson, Boise, ID, 83712",-116.1923872,43.6136281,6
11,CENSVCS,CENSVCS1,6915,EMPLOYEE HEALTH SOLUTIONS,"140 E Jefferson, Boise, ID, 83712",-116.1923872,43.6136281,3
12,CENSVCS,CENSVCS1,8502,SBO CUSTOMER SERVICE,"140 E Jefferson, Boise, ID, 83712",-116.1923872,43.6136281,2
13,CENSVCS,CENSVCS1,8704,PAYROLL,"140 E Jefferson, Boise, ID, 83712",-116.1923872,43.6136281,1
14,CLINIC,CLINIC002,1152,INPATIENT REHAB UNIT-ROBBINS,"100 E Idaho, Boise, ID, 83712",-116.1935105,43.6120865,1
15,CLINIC,CLINIC002,1201,MEDICAL / SURGICAL,"100 E Idaho, Boise, ID, 83712",-116.1935105,43.6120865,1
16,CLINIC,CLINIC002,1341,SL OB HOSPITALISTS,"100 E Idaho, Boise, ID, 83712",-116.1935105,43.6120865,2
17,CLINIC,CLINIC002,1349,WOMEN'S SERVICES ADMIN,"100 E Idaho, Boise, ID, 83712",-116.1935105,43.6120865,2
18,CLINIC,CLINIC002,1351,PEDIATRICS,"100 E Idaho, Boise, ID, 83712",-116.1935105,43.6120865,1
19,CLINIC,CLINIC002,1381,PEDIATRIC HOSPITALIST,"100 E Idaho, Boise, ID, 83712",-116.1935105,43.6120865,1
20,CLINIC,CLINIC002,1399,CHILDRENS SERVICES ADMIN,"100 E Idaho, Boise, ID, 83712",-116.1935105,43.6120865,2
21,CLINIC,CLINIC002,2002,SURGICAL SERVICES - MSTI,"100 E Idaho, Boise, ID, 83712",-116.1935105,43.6120865,5
22,CLINIC,CLINIC002,2009,HEME MALIGNANCIES,"100 E Idaho, Boise, ID, 83712",-116.1935105,43.6120865,7
23,CLINIC,CLINIC002,2201,PRE-ADMISSION TESTING,"100 E Idaho, Boise, ID, 83712",-116.1935105,43.6120865,1
24,CLINIC,CLINIC002,2301,RECOVERY ROOM,"100 E Idaho, Boise, ID, 83712",-116.1935105,43.6120865,1
25,CLINIC,CLINIC002,2651,HOSPICE,"100 E Idaho, Boise, ID, 83712",-116.1935105,43.6120865,1
26,CLINIC,CLINIC002,3002,PEDIATRIC MENTAL HEALTH,"100 E Idaho, Boise, ID, 83712",-116.1935105,43.6120865,2
27,CLINIC,CLINIC002,3004,PEDIATRIC NEURO PSYCHOLOGY,"100 E Idaho, Boise, ID, 83712",-116.1935105,43.6120865,4
28,CLINIC,CLINIC002,3005,SL DEVELOPMENTAL PEDIATRICS,"100 E Idaho, Boise, ID, 83712",-116.1935105,43.6120865,1
29,CLINIC,CLINIC002,3051,RADIATION ONCOLOGY-BOISE,"100 E Idaho, Boise, ID, 83712",-116.1935105,43.6120865,19
30,CLINIC,CLINIC002,3081,CLINICAL ONCOLOGY-BOISE,"100 E Idaho, Boise, ID, 83712",-116.1935105,43.6120865,38
31,CLINIC,CLINIC002,3086,PEDIATRIC ONCOLOGY,"100 E Idaho, Boise, ID, 83712",-116.1935105,43.6120865,24
32,CLINIC,CLINIC002,3101,PHYSICS-BOISE,"100 E Idaho, Boise, ID, 83712",-116.1935105,43.6120865,9
33,CLINIC,CLINIC002,3102,PHYSICS-MERIDIAN,"100 E Idaho, Boise, ID, 83712",-116.1935105,43.6120865,1
34,CLINIC,CLINIC002,3121,CHEMO INFUSION-BOISE,"100 E Idaho, Boise, ID, 83712",-116.1935105,43.6120865,25
35,CLINIC,CLINIC002,3199,MSTI PHYSICIAN PROF SERVICES,"100 E Idaho, Boise, ID, 83712",-116.1935105,43.6120865,1
36,CLINIC,CLINIC002,3201,PEDIATRIC CARDIOLOGY - BOISE,"100 E Idaho, Boise, ID, 83712",-116.1935105,43.6120865,11
37,CLINIC,CLINIC002,3203,SL ID CARD ASSOC-BOISE,"100 E Idaho, Boise, ID, 83712",-116.1935105,43.6120865,3
38,CLINIC,CLINIC002,3207,SL CARDIOTHORACIC & VASC ASSOC,"100 E Idaho, Boise, ID, 83712",-116.1935105,43.6120865,1
39,CLINIC,CLINIC002,3251,PEDIATRIC OTOLARYNGOLOGY,"100 E Idaho, Boise, ID, 83712",-116.1935105,43.6120865,9
40,CLINIC,CLINIC002,3304,SL SYRINGA FAMILY MEDICINE,"100 E Idaho, Boise, ID, 83712",-116.1935105,43.6120865,1
41,CLINIC,CLINIC002,3306,SL FAMILY HLTH-BOI HOSPITALITY,"100 E Idaho, Boise, ID, 83712",-116.1935105,43.6120865,1
42,CLINIC,CLINIC002,3317,SL ADA MEDICAL ASSOCIATES,"100 E Idaho, Boise, ID, 83712",-116.1935105,43.6120865,1
43,CLINIC,CLINIC002,3351,SL TV PEDIATRICS-MERIDIAN,"100 E Idaho, Boise, ID, 83712",-116.1935105,43.6120865,2
44,CLINIC,CLINIC002,3352,SL TV PEDIATRICS-BOISE,"100 E Idaho, Boise, ID, 83712",-116.1935105,43.6120865,15
45,CLINIC,CLINIC002,3421,PEDIATRIC NEPHROLOGY,"100 E Idaho, Boise, ID, 83712",-116.1935105,43.6120865,2
46,CLINIC,CLINIC002,3431,PEDIATRIC ENDOCRINOLOGY,"100 E Idaho, Boise, ID, 83712",-116.1935105,43.6120865,6
47,CLINIC,CLINIC002,3453,PEDIATRIC NEUROLOGY,"100 E Idaho, Boise, ID, 83712",-116.1935105,43.6120865,8
48,CLINIC,CLINIC002,3502,PEDIATRIC PULMONOLOGY,"100 E Idaho, Boise, ID, 83712",-116.1935105,43.6120865,3
49,CLINIC,CLINIC002,3551,PEDIATRIC PHYSIATRY,"100 E Idaho, Boise, ID, 83712",-116.1935105,43.6120865,1
50,CLINIC,CLINIC002,3655,PEDIATRIC SURGERY,"100 E Idaho, Boise, ID, 83712",-116.1935105,43.6120865,8
51,CLINIC,CLINIC002,3674,PEDIATRIC NEUROSURGERY,"100 E Idaho, Boise, ID, 83712",-116.1935105,43.6120865,3
52,CLINIC,CLINIC002,3687,SL ORTHOPEDICS,"100 E Idaho, Boise, ID, 83712",-116.1935105,43.6120865,1
53,CLINIC,CLINIC002,3752,MOUNTAIN STATES UROLOGY CTR,"100 E Idaho, Boise, ID, 83712",-116.1935105,43.6120865,1
54,CLINIC,CLINIC002,3753,MOUNTAIN STATES UROLOGY-MERID,"100 E Idaho, Boise, ID, 83712",-116.1935105,43.6120865,1
55,CLINIC,CLINIC002,3754,SL UROLOGIC ONCOLOGY,"100 E Idaho, Boise, ID, 83712",-116.1935105,43.6120865,5
56,CLINIC,CLINIC002,3801,GYN ONC CLINIC,"100 E Idaho, Boise, ID, 83712",-116.1935105,43.6120865,7
57,CLINIC,CLINIC002,3803,SL OBSTETRICS & GYNECOLOGY,"100 E Idaho, Boise, ID, 83712",-116.1935105,43.6120865,37
58,CLINIC,CLINIC002,3804,SL WOMAN'S CLINIC-BOI,"100 E Idaho, Boise, ID, 83712",-116.1935105,43.6120865,57
59,CLINIC,CLINIC002,3821,SL NURSE MIDWIVES,"100 E Idaho, Boise, ID, 83712",-116.1935105,43.6120865,1
60,CLINIC,CLINIC002,3851,SL HUMPHREYS DIABETES-BOI,"100 E Idaho, Boise, ID, 83712",-116.1935105,43.6120865,1
61,CLINIC,CLINIC002,3873,WOUNDCARE-LOUISE,"100 E Idaho, Boise, ID, 83712",-116.1935105,43.6120865,1
62,CLINIC,CLINIC002,3903,ID PEDIATRIC GASTROENTEROLOGY,"100 E Idaho, Boise, ID, 83712",-116.1935105,43.6120865,15
63,CLINIC,CLINIC002,3905,PEDIATRIC INFECTIOUS DISEASE,"100 E Idaho, Boise, ID, 83712",-116.1935105,43.6120865,5
64,CLINIC,CLINIC002,3907,SL CTR FOR PANCREATIC DISEASES,"100 E Idaho, Boise, ID, 83712",-116.1935105,43.6120865,3
65,CLINIC,CLINIC002,3908,CYSTIC FIBROSIS CLINIC,"100 E Idaho, Boise, ID, 83712",-116.1935105,43.6120865,3
66,CLINIC,CLINIC002,3909,HEMOPHILIA CENTER,"100 E Idaho, Boise, ID, 83712",-116.1935105,43.6120865,3
67,CLINIC,CLINIC002,3911,PEDIATRIC OPTHALMOLOGY,"100 E Idaho, Boise, ID, 83712",-116.1935105,43.6120865,1
68,CLINIC,CLINIC002,3951,PEDIATRIC GENETICS CLINIC,"100 E Idaho, Boise, ID, 83712",-116.1935105,43.6120865,3
69,CLINIC,CLINIC002,3952,INTEGRATIVE MEDICINE-MSTI,"100 E Idaho, Boise, ID, 83712",-116.1935105,43.6120865,5
70,CLINIC,CLINIC002,3954,SL PAIN MANAGEMENT,"100 E Idaho, Boise, ID, 83712",-116.1935105,43.6120865,1
71,CLINIC,CLINIC002,4098,BREAST CARE SERVICES ADMIN,"100 E Idaho, Boise, ID, 83712",-116.1935105,43.6120865,5
72,CLINIC,CLINIC002,4202,LABORATORY - MSTI BOISE,"100 E Idaho, Boise, ID, 83712",-116.1935105,43.6120865,3
73,CLINIC,CLINIC002,4831,GENETIC COUNSELING,"100 E Idaho, Boise, ID, 83712",-116.1935105,43.6120865,3
74,CLINIC,CLINIC002,5071,ANTICOAGULATION CLINIC,"100 E Idaho, Boise, ID, 83712",-116.1935105,43.6120865,1
75,CLINIC,CLINIC002,5097,ONCOLOGY PHARMACY RESIDENCY,"100 E Idaho, Boise, ID, 83712",-116.1935105,43.6120865,4
76,CLINIC,CLINIC002,5251,FOOD & NUTRITION,"100 E Idaho, Boise, ID, 83712",-116.1935105,43.6120865,3
77,CLINIC,CLINIC002,5261,CLINICAL NUTRITIONAL SERVICES,"100 E Idaho, Boise, ID, 83712",-116.1935105,43.6120865,3
78,CLINIC,CLINIC002,5401,IHT INFRA & OPERATIONS,"100 E Idaho, Boise, ID, 83712",-116.1935105,43.6120865,1
79,CLINIC,CLINIC002,5404,IT ACUTE CARE SERVICES,"100 E Idaho, Boise, ID, 83712",-116.1935105,43.6120865,1
80,CLINIC,CLINIC002,5405,IHT EHR SERVICES,"100 E Idaho, Boise, ID, 83712",-116.1935105,43.6120865,1
81,CLINIC,CLINIC002,5451,MSTI BUSINESS OPERATIONS,"100 E Idaho, Boise, ID, 83712",-116.1935105,43.6120865,4
82,CLINIC,CLINIC002,6003,SLR RHEUM/ONS/WOUND STUDIES,"100 E Idaho, Boise, ID, 83712",-116.1935105,43.6120865,1
83,CLINIC,CLINIC002,6011,SLR CHILDREN SPECIALTY STUDIES,"100 E Idaho, Boise, ID, 83712",-116.1935105,43.6120865,1
84,CLINIC,CLINIC002,6015,RESEARCH VARIED STUDIES,"100 E Idaho, Boise, ID, 83712",-116.1935105,43.6120865,1
85,CLINIC,CLINIC002,6491,RESEARCH IRB OFFICE,"100 E Idaho, Boise, ID, 83712",-116.1935105,43.6120865,1
86,CLINIC,CLINIC002,6493,MSTI RESEARCH ADMINISTRATION,"100 E Idaho, Boise, ID, 83712",-116.1935105,43.6120865,8
87,CLINIC,CLINIC002,6501,MEDICAL TRANSCRIPTION,"100 E Idaho, Boise, ID, 83712",-116.1935105,43.6120865,1
88,CLINIC,CLINIC002,6513,HEALTH INFO MGMT SERVICES,"100 E Idaho, Boise, ID, 83712",-116.1935105,43.6120865,1
89,CLINIC,CLINIC002,6513,HIM-MSTI-BOISE,"100 E Idaho, Boise, ID, 83712",-116.1935105,43.6120865,5
90,CLINIC,CLINIC002,6516,TUMOR REGISTRY / MED RECORDS,"100 E Idaho, Boise, ID, 83712",-116.1935105,43.6120865,3
91,CLINIC,CLINIC002,6601,ADMINISTRATION,"100 E Idaho, Boise, ID, 83712",-116.1935105,43.6120865,4
92,CLINIC,CLINIC002,6601,EXECUTIVE OFFICE,"100 E Idaho, Boise, ID, 83712",-116.1935105,43.6120865,1
93,CLINIC,CLINIC002,6602,CSC ADMIN,"100 E Idaho, Boise, ID, 83712",-116.1935105,43.6120865,14
94,CLINIC,CLINIC002,6606,MSTI ADMIN-BOISE,"100 E Idaho, Boise, ID, 83712",-116.1935105,43.6120865,4
95,CLINIC,CLINIC002,6751,CLINICAL SUPPORT,"100 E Idaho, Boise, ID, 83712",-116.1935105,43.6120865,1
96,CLINIC,CLINIC002,6751,MSTI CLINICAL SUPPORT SERVICES,"100 E Idaho, Boise, ID, 83712",-116.1935105,43.6120865,3
97,CLINIC,CLINIC002,6791,CENTER FOR NURSING EXCELLENCE,"100 E Idaho, Boise, ID, 83712",-116.1935105,43.6120865,1
98,CLINIC,CLINIC002,6801,CLINICAL EDUCATION,"100 E Idaho, Boise, ID, 83712",-116.1935105,43.6120865,4
99,CLINIC,CLINIC002,6804,MEDICAL LIBRARY,"100 E Idaho, Boise, ID, 83712",-116.1935105,43.6120865,3
100,CLINIC,CLINIC002,6817,BIRTH AND PARENTING EDUCATION,"100 E Idaho, Boise, ID, 83712",-116.1935105,43.6120865,5
101,CLINIC,CLINIC002,6890,ACADEMIC AND CAREER PLANNING,"100 E Idaho, Boise, ID, 83712",-116.1935105,43.6120865,3
102,CLINIC,CLINIC002,6891,CONFERENCE & MEETING SERVICES,"100 E Idaho, Boise, ID, 83712",-116.1935105,43.6120865,8
103,CLINIC,CLINIC002,6892,ORGANIZATIONAL DEVELOPMENT,"100 E Idaho, Boise, ID, 83712",-116.1935105,43.6120865,3
104,CLINIC,CLINIC002,6893,LEARNING SOLUTIONS,"100 E Idaho, Boise, ID, 83712",-116.1935105,43.6120865,1
105,CLINIC,CLINIC002,6894,EDUCATION,"100 E Idaho, Boise, ID, 83712",-116.1935105,43.6120865,4
106,CLINIC,CLINIC002,6901,HUMAN RESOURCES,"100 E Idaho, Boise, ID, 83712",-116.1935105,43.6120865,1
107,CLINIC,CLINIC002,6915,EMPLOYEE HEALTH SOLUTIONS,"100 E Idaho, Boise, ID, 83712",-116.1935105,43.6120865,1
108,CLINIC,CLINIC002,6953,CARES PROGRAM,"100 E Idaho, Boise, ID, 83712",-116.1935105,43.6120865,3
109,CLINIC,CLINIC002,7509,IDAHO HEALTH DATA EXCHANGE,"100 E Idaho, Boise, ID, 83712",-116.1935105,43.6120865,1
110,CLINIC,CLINIC002,8001,VOLUNTEERS,"100 E Idaho, Boise, ID, 83712",-116.1935105,43.6120865,1
111,CLINIC,CLINIC002,8101,PATIENT SUPPORT-MSTI MER,"100 E Idaho, Boise, ID, 83712",-116.1935105,43.6120865,2
112,CLINIC,CLINIC002,8102,PATIENT SUPPORT-MSTI BOISE,"100 E Idaho, Boise, ID, 83712",-116.1935105,43.6120865,15
113,CLINIC,CLINIC002,8505,HB INSURANCE RECOVERY,"100 E Idaho, Boise, ID, 83712",-116.1935105,43.6120865,1
114,CLINIC,CLINIC002,8506,HB BILLING,"100 E Idaho, Boise, ID, 83712",-116.1935105,43.6120865,1
115,CLINIC,CLINIC002,8509,MSTI PT FIN ADVOCATES-BOISE,"100 E Idaho, Boise, ID, 83712",-116.1935105,43.6120865,7
116,CLINIC,CLINIC002,8510,CMS INNOV CONTRACT-BILLABLE,"100 E Idaho, Boise, ID, 83712",-116.1935105,43.6120865,4
117,CLINIC,CLINIC002,8651,MSTI REGISTRATION POOL,"100 E Idaho, Boise, ID, 83712",-116.1935105,43.6120865,10
118,CLINIC,CLINIC002,8699,PATIENT ACCESS ADMINISTRATION,"100 E Idaho, Boise, ID, 83712",-116.1935105,43.6120865,1
119,CLINIC,CLINIC003,2481,SURGICALIST,"100 E Warm Springs, Boise, ID, 83712",-116.1944876,43.6118643,4
120,CLINIC,CLINIC003,3661,SL BARIATRICS & GEN SURGERY,"100 E Warm Springs, Boise, ID, 83712",-116.1944876,43.6118643,2
121,CLINIC,CLINIC003,3691,SL COLO-RECTAL SURGERY,"100 E Warm Springs, Boise, ID, 83712",-116.1944876,43.6118643,4
122,CLINIC,CLINIC006,6817,BIRTH AND PARENTING EDUCATION,"103 W State, Boise, ID, 83702",-116.1926104,43.6145353,2
123,CLINIC,CLINIC006,6951,FITONE,"103 W State, Boise, ID, 83702",-116.1926104,43.6145353,1
124,CLINIC,CLINIC006,6952,WOMEN'S LIFE,"103 W State, Boise, ID, 83702",-116.1926104,43.6145353,1
125,CLINIC,CLINIC006,6954,IDAHO PERINATAL PROJECT,"103 W State, Boise, ID, 83702",-116.1926104,43.6145353,2
126,CLINIC,CLINIC006,6955,PEDS EDUC PARTNER PROG (PEPP),"103 W State, Boise, ID, 83702",-116.1926104,43.6145353,4
127,CLINIC,CLINIC007,2601,HOME CARE,"1109 W Myrtle, Boise, ID, 83702",-116.210752,43.615187,1
128,CLINIC,CLINIC007,3573,SL REHAB ADULT - MYRTLE,"1109 W Myrtle, Boise, ID, 83702",-116.210752,43.615187,10
129,CLINIC,CLINIC007,3604,SL REHAB CHILDREN'S - MYRTLE,"1109 W Myrtle, Boise, ID, 83702",-116.210752,43.615187,1
130,CLINIC,CLINIC007,3687,SL ORTHOPEDICS,"1109 W Myrtle, Boise, ID, 83702",-116.210752,43.615187,10
131,CLINIC,CLINIC007,4072,ST LUKE'S IMAGING CENTER,"1109 W Myrtle, Boise, ID, 83702",-116.210752,43.615187,3
132,CLINIC,CLINIC007,4306,SPORTS MED OUTREACH RESIDENCY,"1109 W Myrtle, Boise, ID, 83702",-116.210752,43.615187,2
133,CLINIC,CLINIC007,6601,ADMINISTRATION,"1109 W Myrtle, Boise, ID, 83702",-116.210752,43.615187,1
134,CLINIC,CLINIC007,6904,PHYSICIAN RECRUITING,"1109 W Myrtle, Boise, ID, 83702",-116.210752,43.615187,2
135,CLINIC,CLINIC009,3308,SL FAMILY HEALTH-BOIMCMILLAN,"12080 W McMillan, Boise, ID, 83713",-116.3475458,43.6484069,22
136,CLINIC,CLINIC011,3851,SL HUMPHREYS DIABETES-BOI,"1226 River, Boise, ID, 83702",-116.2139743,43.6144581,12
137,CLINIC,CLINIC011,6002,SLR PRIMARY CARE STUDIES,"1226 River, Boise, ID, 83702",-116.2139743,43.6144581,1
138,CLINIC,CLINIC011,6981,CONSUMER ENGAGEMENT & WELLNESS,"1226 River, Boise, ID, 83702",-116.2139743,43.6144581,1
139,CLINIC,CLINIC012,3302,IDAHO FAMILY PHYSICIANS,"130 E Boise, Boise, ID, 83706",-116.182265,43.585785,22
140,CLINIC,CLINIC012,3306,SL FAMILY HLTH-BOI HOSPITALITY,"130 E Boise, Boise, ID, 83706",-116.182265,43.585785,1
141,CLINIC,CLINIC012,3755,CALDWELL UROLOGY,"130 E Boise, Boise, ID, 83706",-116.182265,43.585785,1
142,CLINIC,CLINIC012,6799,NURSING  ADMINISTRATION,"130 E Boise, Boise, ID, 83706",-116.182265,43.585785,1
143,CLINIC,CLINIC012,8004,ST LUKES CONNECT,"130 E Boise, Boise, ID, 83706",-116.182265,43.585785,1
144,CLINIC,CLINIC013,3301,CAPITAL CITY FAMILY MEDICINE,"1520 W State, Boise, ID, 83702",-116.209111,43.6233714,38
145,CLINIC,CLINIC013,3303,SL FAMILY MEDICINE-BOISE,"1520 W State, Boise, ID, 83702",-116.209111,43.6233714,1
146,CLINIC,CLINIC013,3311,SL FAMILY HEALTH-MERID TEN MIL,"1520 W State, Boise, ID, 83702",-116.209111,43.6233714,1
147,CLINIC,CLINIC013,3401,SL INTERNAL MED-BOI JEFFERSON,"1520 W State, Boise, ID, 83702",-116.209111,43.6233714,1
148,CLINIC,CLINIC013,5405,IHT EHR SERVICES,"1520 W State, Boise, ID, 83702",-116.209111,43.6233714,2
149,CLINIC,CLINIC013,6601,ADMINISTRATION,"1520 W State, Boise, ID, 83702",-116.209111,43.6233714,1
150,CLINIC,CLINIC013,8004,ST LUKES CONNECT,"1520 W State, Boise, ID, 83702",-116.209111,43.6233714,1
151,CLINIC,CLINIC015,4061,DIAGNOSTIC BREAST IMAGING,"247 W Washington, Boise, ID, 83702",-116.1938402,43.6161301,2
152,CLINIC,CLINIC015,4062,BCDC MAMMOGRAPHY,"247 W Washington, Boise, ID, 83702",-116.1938402,43.6161301,5
153,CLINIC,CLINIC015,4098,BREAST CARE SERVICES ADMIN,"247 W Washington, Boise, ID, 83702",-116.1938402,43.6161301,5
154,CLINIC,CLINIC016,1051,MEDICAL INTENSIVE CARE UNIT,"300 E Jefferson, Boise, ID, 83712",-116.1902849,43.6127171,1
155,CLINIC,CLINIC016,3203,SL ID CARD ASSOC-BOISE,"300 E Jefferson, Boise, ID, 83712",-116.1902849,43.6127171,22
156,CLINIC,CLINIC016,3206,SL BOISE HEART CLINIC,"300 E Jefferson, Boise, ID, 83712",-116.1902849,43.6127171,4
157,CLINIC,CLINIC016,3207,SL CARDIOTHORACIC & VASC ASSOC,"300 E Jefferson, Boise, ID, 83712",-116.1902849,43.6127171,1
158,CLINIC,CLINIC016,3401,SL INTERNAL MED-BOI JEFFERSON,"300 E Jefferson, Boise, ID, 83712",-116.1902849,43.6127171,33
159,CLINIC,CLINIC016,3404,SL INTERNAL MED-BOI CLOVERDALE,"300 E Jefferson, Boise, ID, 83712",-116.1902849,43.6127171,1
160,CLINIC,CLINIC016,3405,SL INTERNAL MEDICINE-EAGLE,"300 E Jefferson, Boise, ID, 83712",-116.1902849,43.6127171,2
161,CLINIC,CLINIC016,3422,SL NEPHROLOGY,"300 E Jefferson, Boise, ID, 83712",-116.1902849,43.6127171,1
162,CLINIC,CLINIC016,3501,SL IDAHO PULMONARY-MERID,"300 E Jefferson, Boise, ID, 83712",-116.1902849,43.6127171,1
163,CLINIC,CLINIC016,3661,SL BARIATRICS & GEN SURGERY,"300 E Jefferson, Boise, ID, 83712",-116.1902849,43.6127171,1
164,CLINIC,CLINIC016,4011,NUCLEAR MEDICINE,"300 E Jefferson, Boise, ID, 83712",-116.1902849,43.6127171,1
165,CLINIC,CLINIC016,4012,NUCLEAR MEDICINE-MERID SLICA,"300 E Jefferson, Boise, ID, 83712",-116.1902849,43.6127171,2
166,CLINIC,CLINIC016,4321,CARDIAC REHABILITATION,"300 E Jefferson, Boise, ID, 83712",-116.1902849,43.6127171,2
167,CLINIC,CLINIC016,5071,ANTICOAGULATION CLINIC,"300 E Jefferson, Boise, ID, 83712",-116.1902849,43.6127171,5
168,CLINIC,CLINIC016,5203,LOGISTICS OPERATIONS,"300 E Jefferson, Boise, ID, 83712",-116.1902849,43.6127171,1
169,CLINIC,CLINIC016,5401,IHT INFRA & OPERATIONS,"300 E Jefferson, Boise, ID, 83712",-116.1902849,43.6127171,1
170,CLINIC,CLINIC016,6001,SLR CARDIOLOGY STUDIES,"300 E Jefferson, Boise, ID, 83712",-116.1902849,43.6127171,3
171,CLINIC,CLINIC016,6601,ADMINISTRATION,"300 E Jefferson, Boise, ID, 83712",-116.1902849,43.6127171,2
172,CLINIC,CLINIC016,8601,PATIENT REGISTRATION,"300 E Jefferson, Boise, ID, 83712",-116.1902849,43.6127171,1
173,CLINIC,CLINIC017,2498,BARIATRIC SERVICES ADMIN,"305 E Jefferson, Boise, ID, 83702",-116.1959134,43.6148136,1
174,CLINIC,CLINIC017,6553,QUALITY & PATIENT SAFETY,"305 E Jefferson, Boise, ID, 83702",-116.1959134,43.6148136,1
175,CLINIC,CLINIC018,3206,SL BOISE HEART CLINIC,"3301 N Sawgrass, Boise, ID, 83704",-116.2815024,43.6347892,1
176,CLINIC,CLINIC018,3305,SL MOUNTAIN VIEW MEDICAL,"3301 N Sawgrass, Boise, ID, 83704",-116.2815024,43.6347892,16
177,CLINIC,CLINIC018,3405,SL INTERNAL MEDICINE-EAGLE,"3301 N Sawgrass, Boise, ID, 83704",-116.2815024,43.6347892,1
178,CLINIC,CLINIC018,3851,SL HUMPHREYS DIABETES-BOI,"3301 N Sawgrass, Boise, ID, 83704",-116.2815024,43.6347892,1
179,CLINIC,CLINIC018,5405,IHT EHR SERVICES,"3301 N Sawgrass, Boise, ID, 83704",-116.2815024,43.6347892,1
180,CLINIC,CLINIC018,6601,ADMINISTRATION,"3301 N Sawgrass, Boise, ID, 83704",-116.2815024,43.6347892,1
181,CLINIC,CLINIC018,8004,ST LUKES CONNECT,"3301 N Sawgrass, Boise, ID, 83704",-116.2815024,43.6347892,2
182,CLINIC,CLINIC019,1349,WOMEN'S SERVICES ADMIN,"333 N 1st, Boise, ID, 83702",-116.193883,43.613541,1
183,CLINIC,CLINIC019,2005,SURGERY CENTER,"333 N 1st, Boise, ID, 83702",-116.193883,43.613541,18
184,CLINIC,CLINIC019,3207,SL CARDIOTHORACIC & VASC ASSOC,"333 N 1st, Boise, ID, 83702",-116.193883,43.613541,26
185,CLINIC,CLINIC019,3303,SL FAMILY MEDICINE-BOISE,"333 N 1st, Boise, ID, 83702",-116.193883,43.613541,1
186,CLINIC,CLINIC019,3422,SL NEPHROLOGY,"333 N 1st, Boise, ID, 83702",-116.193883,43.613541,11
187,CLINIC,CLINIC019,3661,SL BARIATRICS & GEN SURGERY,"333 N 1st, Boise, ID, 83702",-116.193883,43.613541,1
188,CLINIC,CLINIC019,3831,MATERNAL FETAL MEDICINE-BOISE,"333 N 1st, Boise, ID, 83702",-116.193883,43.613541,16
189,CLINIC,CLINIC019,4098,BREAST CARE SERVICES ADMIN,"333 N 1st, Boise, ID, 83702",-116.193883,43.613541,1
190,CLINIC,CLINIC019,4802,PERIPHERAL VASCULAR LAB,"333 N 1st, Boise, ID, 83702",-116.193883,43.613541,2
191,CLINIC,CLINIC019,4821,ENDOSCOPY,"333 N 1st, Boise, ID, 83702",-116.193883,43.613541,1
192,CLINIC,CLINIC019,4831,GENETIC COUNSELING,"333 N 1st, Boise, ID, 83702",-116.193883,43.613541,1
193,CLINIC,CLINIC019,5302,ENVIRONMENTAL SERVICES,"333 N 1st, Boise, ID, 83702",-116.193883,43.613541,1
194,CLINIC,CLINIC019,6601,ADMINISTRATION,"333 N 1st, Boise, ID, 83702",-116.193883,43.613541,2
195,CLINIC,CLINIC019,8004,ST LUKES CONNECT,"333 N 1st, Boise, ID, 83702",-116.193883,43.613541,1
196,CLINIC,CLINIC019,8005,CULTURAL AND LANGUAGE SERVICES,"333 N 1st, Boise, ID, 83702",-116.193883,43.613541,3
197,CLINIC,CLINIC019,8601,PATIENT ACCESS,"333 N 1st, Boise, ID, 83702",-116.193883,43.613541,2
198,CLINIC,CLINIC019,8699,PATIENT ACCESS ADMINISTRATION,"333 N 1st, Boise, ID, 83702",-116.193883,43.613541,1
199,CLINIC,CLINIC020,3405,SL INTERNAL MEDICINE-EAGLE,"403 S 11th, Boise, ID, 83702",-116.2100176,43.6147066,1
200,CLINIC,CLINIC020,3432,SL ENDOCRINOLOGY-BOISE,"403 S 11th, Boise, ID, 83702",-116.2100176,43.6147066,17
201,CLINIC,CLINIC020,8513,PB BILLING/INS RECOVERY,"403 S 11th, Boise, ID, 83702",-116.2100176,43.6147066,1
202,CLINIC,CLINIC021,3352,SL TV PEDIATRICS-BOISE,"417 S 6th, Boise, ID, 83702",-116.204004,43.611929,1
203,CLINIC,CLINIC021,5001,SOCIAL SERVICES,"417 S 6th, Boise, ID, 83702",-116.204004,43.611929,1
204,CLINIC,CLINIC021,6953,CARES PROGRAM,"417 S 6th, Boise, ID, 83702",-116.204004,43.611929,7
205,CLINIC,CLINIC022,1241,SL INTERNAL MED HOSPITALISTS,"510 N 2nd, Boise, ID, 83702",-116.1927531,43.6150599,2
206,CLINIC,CLINIC022,3752,MOUNTAIN STATES UROLOGY CTR,"510 N 2nd, Boise, ID, 83702",-116.1927531,43.6150599,9
207,CLINIC,CLINIC022,3753,MOUNTAIN STATES UROLOGY-MERID,"510 N 2nd, Boise, ID, 83702",-116.1927531,43.6150599,2
208,CLINIC,CLINIC022,3907,SL CTR FOR PANCREATIC DISEASES,"510 N 2nd, Boise, ID, 83702",-116.1927531,43.6150599,1
209,CLINIC,CLINIC022,3960,HEARING & BALANCE-510N,"510 N 2nd, Boise, ID, 83702",-116.1927531,43.6150599,13
210,CLINIC,CLINIC022,4101,OCC HEALTH SERVICES BOISE,"510 N 2nd, Boise, ID, 83702",-116.1927531,43.6150599,1
211,CLINIC,CLINIC022,6601,ADMINISTRATION,"510 N 2nd, Boise, ID, 83702",-116.1927531,43.6150599,3
212,CLINIC,CLINIC024,1151,SKILLED NURSING UNIT-ROBBINS,"600 Robbins, Boise, ID, 83702",-116.1915283,43.6156981,7
213,CLINIC,CLINIC024,1152,INPATIENT REHAB UNIT-ROBBINS,"600 Robbins, Boise, ID, 83702",-116.1915283,43.6156981,85
214,CLINIC,CLINIC024,1303,LABOR AND DELIVERY,"600 Robbins, Boise, ID, 83702",-116.1915283,43.6156981,1
215,CLINIC,CLINIC024,2007,SURGERY CENTER - ROBBINS RD,"600 Robbins, Boise, ID, 83702",-116.1915283,43.6156981,16
216,CLINIC,CLINIC024,2499,SURGICAL SERVICES ADMIN,"600 Robbins, Boise, ID, 83702",-116.1915283,43.6156981,1
217,CLINIC,CLINIC024,3303,SL FAMILY MEDICINE-BOISE,"600 Robbins, Boise, ID, 83702",-116.1915283,43.6156981,1
218,CLINIC,CLINIC024,3407,SL INTERNAL MEDICINE-ROBBINS,"600 Robbins, Boise, ID, 83702",-116.1915283,43.6156981,8
219,CLINIC,CLINIC024,3432,SL ENDOCRINOLOGY-BOISE,"600 Robbins, Boise, ID, 83702",-116.1915283,43.6156981,1
220,CLINIC,CLINIC024,3441,SL RHEUMATOLOGY-BOISE,"600 Robbins, Boise, ID, 83702",-116.1915283,43.6156981,5
221,CLINIC,CLINIC024,3442,SL RHEUMATOLOGY-MERIDIAN,"600 Robbins, Boise, ID, 83702",-116.1915283,43.6156981,2
222,CLINIC,CLINIC024,3454,SL REHAB NEURO ADULT-ROBBINS,"600 Robbins, Boise, ID, 83702",-116.1915283,43.6156981,59
223,CLINIC,CLINIC024,3570,SL REHAB ADULT-ROBBINS,"600 Robbins, Boise, ID, 83702",-116.1915283,43.6156981,14
224,CLINIC,CLINIC024,3590,SL REHAB ADULT HAND-ROBBINS,"600 Robbins, Boise, ID, 83702",-116.1915283,43.6156981,3
225,CLINIC,CLINIC024,3687,SL ORTHOPEDICS,"600 Robbins, Boise, ID, 83702",-116.1915283,43.6156981,62
226,CLINIC,CLINIC024,3872,WOUNDCARE-ROBBINS,"600 Robbins, Boise, ID, 83702",-116.1915283,43.6156981,11
227,CLINIC,CLINIC024,3873,WOUNDCARE-LOUISE,"600 Robbins, Boise, ID, 83702",-116.1915283,43.6156981,3
228,CLINIC,CLINIC024,4072,ST LUKE'S IMAGING CENTER,"600 Robbins, Boise, ID, 83702",-116.1915283,43.6156981,2
229,CLINIC,CLINIC024,4101,OCC HEALTH SERVICES BOISE,"600 Robbins, Boise, ID, 83702",-116.1915283,43.6156981,1
230,CLINIC,CLINIC024,4306,SPORTS MED OUTREACH RESIDENCY,"600 Robbins, Boise, ID, 83702",-116.1915283,43.6156981,1
231,CLINIC,CLINIC024,4321,CARDIAC REHABILITATION,"600 Robbins, Boise, ID, 83702",-116.1915283,43.6156981,1
232,CLINIC,CLINIC024,4331,SL REHAB OUTPATIENT ADMIN,"600 Robbins, Boise, ID, 83702",-116.1915283,43.6156981,3
233,CLINIC,CLINIC024,5001,SOCIAL SERVICES,"600 Robbins, Boise, ID, 83702",-116.1915283,43.6156981,3
234,CLINIC,CLINIC024,5054,IP PHARMACY-ROBBINS,"600 Robbins, Boise, ID, 83702",-116.1915283,43.6156981,7
235,CLINIC,CLINIC024,5253,FOOD AND NUTRITION-ROBBINS,"600 Robbins, Boise, ID, 83702",-116.1915283,43.6156981,16
236,CLINIC,CLINIC024,5302,ENVIRONMENTAL SERVICES,"600 Robbins, Boise, ID, 83702",-116.1915283,43.6156981,7
237,CLINIC,CLINIC024,5333,BUILDING SERVICES,"600 Robbins, Boise, ID, 83702",-116.1915283,43.6156981,6
238,CLINIC,CLINIC024,5401,IHT INFRA & OPERATIONS,"600 Robbins, Boise, ID, 83702",-116.1915283,43.6156981,1
239,CLINIC,CLINIC024,5403,IHT CLINICAL SUPPORT SERVICES,"600 Robbins, Boise, ID, 83702",-116.1915283,43.6156981,6
240,CLINIC,CLINIC024,5405,IHT EHR SERVICES,"600 Robbins, Boise, ID, 83702",-116.1915283,43.6156981,1
241,CLINIC,CLINIC024,6002,SLR PRIMARY CARE STUDIES,"600 Robbins, Boise, ID, 83702",-116.1915283,43.6156981,1
242,CLINIC,CLINIC024,6003,SLR RHEUM/ONS/WOUND STUDIES,"600 Robbins, Boise, ID, 83702",-116.1915283,43.6156981,1
243,CLINIC,CLINIC024,6513,HEALTH INFO MGMT SERVICES,"600 Robbins, Boise, ID, 83702",-116.1915283,43.6156981,1
244,CLINIC,CLINIC024,6553,QUALITY & PATIENT SAFETY,"600 Robbins, Boise, ID, 83702",-116.1915283,43.6156981,1
245,CLINIC,CLINIC024,6605,SL OUTPATIENT REHAB ADMIN,"600 Robbins, Boise, ID, 83702",-116.1915283,43.6156981,7
246,CLINIC,CLINIC024,6612,SLHP ADMIN,"600 Robbins, Boise, ID, 83702",-116.1915283,43.6156981,1
247,CLINIC,CLINIC024,8004,ST LUKES CONNECT,"600 Robbins, Boise, ID, 83702",-116.1915283,43.6156981,1
248,CLINIC,CLINIC024,8507,PFS CHARGE CAPTURE,"600 Robbins, Boise, ID, 83702",-116.1915283,43.6156981,3
249,CLINIC,CLINIC024,8513,PB BILLING/INS RECOVERY,"600 Robbins, Boise, ID, 83702",-116.1915283,43.6156981,1
250,CLINIC,CLINIC025,3002,PEDIATRIC MENTAL HEALTH,"608 W Hays, Boise, ID, 83702",-116.1961173,43.6202409,13
251,CLINIC,CLINIC025,3004,PEDIATRIC NEURO PSYCHOLOGY,"608 W Hays, Boise, ID, 83702",-116.1961173,43.6202409,1
252,CLINIC,CLINIC026,2481,SURGICALIST,"701 E Parkcenter, Boise, ID, 83706",-116.1753718,43.5894268,1
253,CLINIC,CLINIC026,2651,HOSPICE,"701 E Parkcenter, Boise, ID, 83706",-116.1753718,43.5894268,1
254,CLINIC,CLINIC026,3303,SL FAMILY MEDICINE-BOISE,"701 E Parkcenter, Boise, ID, 83706",-116.1753718,43.5894268,22
255,CLINIC,CLINIC026,3402,SL INTERNAL MED-BOI PARK CTR,"701 E Parkcenter, Boise, ID, 83706",-116.1753718,43.5894268,25
256,CLINIC,CLINIC026,3441,SL RHEUMATOLOGY-BOISE,"701 E Parkcenter, Boise, ID, 83706",-116.1753718,43.5894268,1
257,CLINIC,CLINIC026,3551,PEDIATRIC PHYSIATRY,"701 E Parkcenter, Boise, ID, 83706",-116.1753718,43.5894268,1
258,CLINIC,CLINIC026,3752,MOUNTAIN STATES UROLOGY CTR,"701 E Parkcenter, Boise, ID, 83706",-116.1753718,43.5894268,2
259,CLINIC,CLINIC026,3931,SL FACES PROGRAM,"701 E Parkcenter, Boise, ID, 83706",-116.1753718,43.5894268,1
260,CLINIC,CLINIC026,5071,ANTICOAGULATION CLINIC,"701 E Parkcenter, Boise, ID, 83706",-116.1753718,43.5894268,1
261,CLINIC,CLINIC026,5405,IHT EHR SERVICES,"701 E Parkcenter, Boise, ID, 83706",-116.1753718,43.5894268,1
262,CLINIC,CLINIC026,6513,HEALTH INFO MGMT SERVICES,"701 E Parkcenter, Boise, ID, 83706",-116.1753718,43.5894268,1
263,CLINIC,CLINIC026,6601,ADMINISTRATION,"701 E Parkcenter, Boise, ID, 83706",-116.1753718,43.5894268,2
264,CLINIC,CLINIC026,8004,ST LUKES CONNECT,"701 E Parkcenter, Boise, ID, 83706",-116.1753718,43.5894268,2
265,CLINIC,CLINIC026,8507,PFS CHARGE CAPTURE,"701 E Parkcenter, Boise, ID, 83706",-116.1753718,43.5894268,1
266,CLINIC,CLINIC027,3003,SL PSYCHIATRIC WELLNESS SRVCS,"703 S Americana, Boise, ID, 83702",-116.2193782,43.61752,16
267,CLINIC,CLINIC027,3306,SL FAMILY HLTH-BOI HOSPITALITY,"703 S Americana, Boise, ID, 83702",-116.2193782,43.61752,1
268,CLINIC,CLINIC027,3315,SL TRAVEL MEDICINE CLINIC,"703 S Americana, Boise, ID, 83702",-116.2193782,43.61752,2
269,CLINIC,CLINIC027,3571,SL REHAB ADULT -  AMERICANA,"703 S Americana, Boise, ID, 83702",-116.2193782,43.61752,5
270,CLINIC,CLINIC027,3654,SL BOISE SURGICAL GROUP-MERID,"703 S Americana, Boise, ID, 83702",-116.2193782,43.61752,1
271,CLINIC,CLINIC027,3673,SL NW NEUROSURGERY ASSOC,"703 S Americana, Boise, ID, 83702",-116.2193782,43.61752,1
272,CLINIC,CLINIC027,3687,SL ORTHOPEDICS,"703 S Americana, Boise, ID, 83702",-116.2193782,43.61752,25
273,CLINIC,CLINIC027,3701,URGENT CARE,"703 S Americana, Boise, ID, 83702",-116.2193782,43.61752,1
274,CLINIC,CLINIC027,4072,ST LUKE'S IMAGING CENTER,"703 S Americana, Boise, ID, 83702",-116.2193782,43.61752,12
275,CLINIC,CLINIC027,4072,ST LUKE'S IMAGING CTR-PORTICO,"703 S Americana, Boise, ID, 83702",-116.2193782,43.61752,1
276,CLINIC,CLINIC027,4099,IMAGING SERVICES ADMIN,"703 S Americana, Boise, ID, 83702",-116.2193782,43.61752,1
277,CLINIC,CLINIC027,4101,OCC HEALTH SERVICES BOISE,"703 S Americana, Boise, ID, 83702",-116.2193782,43.61752,10
278,CLINIC,CLINIC027,5405,IHT EHR SERVICES,"703 S Americana, Boise, ID, 83702",-116.2193782,43.61752,1
279,CLINIC,CLINIC027,6513,HIM-MSTI-BOISE,"703 S Americana, Boise, ID, 83702",-116.2193782,43.61752,1
280,CLINIC,CLINIC027,8004,ST LUKES CONNECT,"703 S Americana, Boise, ID, 83702",-116.2193782,43.61752,1
281,CLINIC,CLINIC027,8602,FINANCIAL RESOURCE CENTER,"703 S Americana, Boise, ID, 83702",-116.2193782,43.61752,1
282,CLINIC,CLINIC028,1152,INPATIENT REHAB UNIT-ROBBINS,"8050 W Rifleman, Boise, ID, 83704",-116.282472,43.6131529,1
283,CLINIC,CLINIC028,3653,SL CLINIC SURGERY,"8050 W Rifleman, Boise, ID, 83704",-116.282472,43.6131529,2
284,CLINIC,CLINIC028,3952,INTEGRATIVE MEDICINE-MSTI,"8050 W Rifleman, Boise, ID, 83704",-116.282472,43.6131529,1
285,CLINIC,CLINIC028,4062,BCDC MAMMOGRAPHY,"8050 W Rifleman, Boise, ID, 83704",-116.282472,43.6131529,23
286,CLINIC,CLINIC028,8502,SBO CUSTOMER SERVICE,"8050 W Rifleman, Boise, ID, 83704",-116.282472,43.6131529,1
287,CLINIC,CLINIC029,3204,SL ID CARD ASSOC-MERIDIAN,"4840 N Cloverdale, Boise, ID, 83713",-116.3344439,43.6489697,1
288,CLINIC,CLINIC029,3401,SL INTERNAL MED-BOI JEFFERSON,"4840 N Cloverdale, Boise, ID, 83713",-116.3344439,43.6489697,2
289,CLINIC,CLINIC029,3404,SL INTERNAL MED-BOI CLOVERDALE,"4840 N Cloverdale, Boise, ID, 83713",-116.3344439,43.6489697,27
290,CLINIC,CLINIC029,3405,SL INTERNAL MEDICINE-EAGLE,"4840 N Cloverdale, Boise, ID, 83713",-116.3344439,43.6489697,2
291,CLINIC,CLINIC029,3686,SL ORTHOPEDIC SURGERY,"4840 N Cloverdale, Boise, ID, 83713",-116.3344439,43.6489697,1
292,CLINIC,CLINIC029,6601,ADMINISTRATION,"4840 N Cloverdale, Boise, ID, 83713",-116.3344439,43.6489697,2
293,CLINIC,CLINIC029,8004,ST LUKES CONNECT,"4840 N Cloverdale, Boise, ID, 83713",-116.3344439,43.6489697,1
294,CLINIC,CLINIC031,3451,SL NEUROLOGY CLINIC-BOISE,"125 E Idaho, Boise, ID, 83712",-116.1939748,43.6114773,12
295,CLINIC,CLINIC031,3651,SL GENERAL SURGERY CLINIC,"125 E Idaho, Boise, ID, 83712",-116.1939748,43.6114773,3
296,CLINIC,CLINIC031,3664,SL ADVANCED LAPAROSCOPIC SURG,"125 E Idaho, Boise, ID, 83712",-116.1939748,43.6114773,1
297,CLINIC,CLINIC031,3675,SL NEUROSURGERY,"125 E Idaho, Boise, ID, 83712",-116.1939748,43.6114773,3
298,CLINIC,CLINIC031,3687,SL ORTHOPEDICS,"125 E Idaho, Boise, ID, 83712",-116.1939748,43.6114773,1
299,CLINIC,CLINIC033,2498,BARIATRIC SERVICES ADMIN,"115 Main, Boise, ID, 83702",-116.1954399,43.6115261,1
300,CLINIC,CLINIC033,3661,SL BARIATRICS & GEN SURGERY,"115 Main, Boise, ID, 83702",-116.1954399,43.6115261,2
301,CLINIC,CLINIC034,3251,PEDIATRIC OTOLARYNGOLOGY,"222 N 2nd, Boise, ID, 83702",-116.1949892,43.6131166,1
302,CLINIC,CLINIC034,3653,SL CLINIC SURGERY,"222 N 2nd, Boise, ID, 83702",-116.1949892,43.6131166,2
303,CLINIC,CLINIC034,3661,SL BARIATRICS & GEN SURGERY,"222 N 2nd, Boise, ID, 83702",-116.1949892,43.6131166,5
304,CLINIC,CLINIC034,3675,SL NEUROSURGERY,"222 N 2nd, Boise, ID, 83702",-116.1949892,43.6131166,5
305,CLINIC,CLINIC034,3756,PEDIATRIC UROLOGY,"222 N 2nd, Boise, ID, 83702",-116.1949892,43.6131166,4
306,CLINIC,CLINIC034,3903,ID PEDIATRIC GASTROENTEROLOGY,"222 N 2nd, Boise, ID, 83702",-116.1949892,43.6131166,1
307,CLINIC,CLINIC034,3911,PEDIATRIC OPTHALMOLOGY,"222 N 2nd, Boise, ID, 83702",-116.1949892,43.6131166,7
308,CLINIC,CLINIC034,4225,OUTPATIENT DRAW SITES,"222 N 2nd, Boise, ID, 83702",-116.1949892,43.6131166,1
309,CLINIC,CLINIC034,6601,ADMINISTRATION,"222 N 2nd, Boise, ID, 83702",-116.1949892,43.6131166,1
310,CLINIC,CLINIC034,6602,CSC ADMIN,"222 N 2nd, Boise, ID, 83702",-116.1949892,43.6131166,1
311,CLINIC,CLINIC035,2006,SURGERY CENTER - RIVER ST,"1425 W River, Boise, ID, 83702",-116.216094,43.6163385,14
312,CLINIC,CLINIC035,3201,PEDIATRIC CARDIOLOGY - BOISE,"1425 W River, Boise, ID, 83702",-116.216094,43.6163385,1
313,CLINIC,CLINIC035,4211,ANATOMIC CYTOLOGY SERVICES,"1425 W River, Boise, ID, 83702",-116.216094,43.6163385,1
314,CLINIC,CLINIC035,6553,QUALITY & PATIENT SAFETY,"1425 W River, Boise, ID, 83702",-116.216094,43.6163385,1
315,CLINIC,CLINIC036,3203,SL ID CARD ASSOC-BOISE,"2083 Hospitality, Boise, ID, 83716",-116.157426,43.5405721,1
316,CLINIC,CLINIC036,3306,SL FAMILY HLTH-BOI HOSPITALITY,"2083 Hospitality, Boise, ID, 83716",-116.157426,43.5405721,11
317,CLINIC,CLINIC036,3307,SL FAMILY MEDICINE-EAGLE,"2083 Hospitality, Boise, ID, 83716",-116.157426,43.5405721,1
318,CLINIC,CLINIC036,3310,SL FAMILY HEALTH-MERID GENTRY,"2083 Hospitality, Boise, ID, 83716",-116.157426,43.5405721,1
319,CLINIC,CLINIC036,4062,BCDC MAMMOGRAPHY,"2083 Hospitality, Boise, ID, 83716",-116.157426,43.5405721,1
320,CLINIC,CLINIC037,3203,SL ID CARD ASSOC-BOISE,"287 W Jefferson, Boise, ID, 83702",-116.195293,43.614568,1
321,CLINIC,CLINIC037,3206,SL BOISE HEART CLINIC,"287 W Jefferson, Boise, ID, 83702",-116.195293,43.614568,14
322,CLINIC,CLINIC037,3687,SL ORTHOPEDICS,"287 W Jefferson, Boise, ID, 83702",-116.195293,43.614568,1
323,CLINIC,CLINIC037,4321,CARDIAC REHABILITATION,"287 W Jefferson, Boise, ID, 83702",-116.195293,43.614568,1
324,CLINIC,CLINIC038,3572,SL REHAB ADULT - APPLE,"2475 S Apple St, Boise, ID, 83607",-116.1739994,43.5805535,3
325,CLINIC,CLINIC038,3573,SL REHAB ADULT - MYRTLE,"2475 S Apple St, Boise, ID, 83607",-116.1739994,43.5805535,1
326,CLINIC,CLINIC039,3574,SL REHAB ADULT - LAKE HARBOR,"2999 N. Lake Harbor Lane, Boise, ID, 83703",-116.2567934,43.6540982,4
327,CLINIC,CLINIC039,3592,SL REHAB ADULT HAND - EAGLE RD,"2999 N. Lake Harbor Lane, Boise, ID, 83703",-116.2567934,43.6540982,1
328,CLINIC,CLINIC040,3603,SL REHAB CHILDREN'S - LOUISE,"405 W Myrtle, Boise, ID, 83712",-116.20212,43.610042,1
329,CLINIC,CLINIC040,3604,SL REHAB CHILDREN'S - MYRTLE,"405 W Myrtle, Boise, ID, 83712",-116.20212,43.610042,8
330,CLINIC,CLINIC040,4301,REHABILITATION,"405 W Myrtle, Boise, ID, 83712",-116.20212,43.610042,1
331,CLINIC,CLINIC040,4901,PEDIATRIC ORTHOPAEDICS PROGRAM,"405 W Myrtle, Boise, ID, 83712",-116.20212,43.610042,1
332,CLINIC,CLINIC200,1303,LABOR AND DELIVERY,"1620 Celebration, Meridian, ID, 83642",-116.3653809,43.5898447,1
333,CLINIC,CLINIC200,3002,PEDIATRIC MENTAL HEALTH,"1620 Celebration, Meridian, ID, 83642",-116.3653809,43.5898447,1
334,CLINIC,CLINIC200,3301,TRINITY MOUNTAIN MEDICAL CLINI,"1620 Celebration, Meridian, ID, 83642",-116.3653809,43.5898447,1
335,CLINIC,CLINIC200,3304,SL SYRINGA FAMILY MEDICINE,"1620 Celebration, Meridian, ID, 83642",-116.3653809,43.5898447,1
336,CLINIC,CLINIC200,3351,SL TV PEDIATRICS-MERIDIAN,"1620 Celebration, Meridian, ID, 83642",-116.3653809,43.5898447,20
337,CLINIC,CLINIC200,3353,SL TV PEDIATRICS-EAGLE,"1620 Celebration, Meridian, ID, 83642",-116.3653809,43.5898447,4
338,CLINIC,CLINIC200,5405,IHT EHR SERVICES,"1620 Celebration, Meridian, ID, 83642",-116.3653809,43.5898447,1
339,CLINIC,CLINIC201,3954,SL PAIN MANAGEMENT,"2275 S Eagle, Meridian, ID, 83616",-116.3542666,43.6741591,2
340,CLINIC,CLINIC202,3304,SL SYRINGA FAMILY MEDICINE,"2347 Gala, Meridian, ID, 83642",-116.3656259,43.5883223,9
341,CLINIC,CLINIC202,3305,SL MOUNTAIN VIEW MEDICAL,"2347 Gala, Meridian, ID, 83642",-116.3656259,43.5883223,2
342,CLINIC,CLINIC202,3442,SL RHEUMATOLOGY-MERIDIAN,"2347 Gala, Meridian, ID, 83642",-116.3656259,43.5883223,1
343,CLINIC,CLINIC202,3501,SL IDAHO PULMONARY-MERID,"2347 Gala, Meridian, ID, 83642",-116.3656259,43.5883223,55
344,CLINIC,CLINIC202,3654,SL BOISE SURGICAL GROUP-MERID,"2347 Gala, Meridian, ID, 83642",-116.3656259,43.5883223,1
345,CLINIC,CLINIC202,4826,SLEEP CENTER,"2347 Gala, Meridian, ID, 83642",-116.3656259,43.5883223,1
346,CLINIC,CLINIC202,4826,SLEEP MEDICINE INSTITUTE,"2347 Gala, Meridian, ID, 83642",-116.3656259,43.5883223,23
347,CLINIC,CLINIC202,6601,EXECUTIVE OFFICE,"2347 Gala, Meridian, ID, 83642",-116.3656259,43.5883223,1
348,CLINIC,CLINIC202,6817,BIRTH AND PARENTING EDUCATION,"2347 Gala, Meridian, ID, 83642",-116.3656259,43.5883223,1
349,CLINIC,CLINIC202,8513,PB BILLING/INS RECOVERY,"2347 Gala, Meridian, ID, 83642",-116.3656259,43.5883223,1
350,CLINIC,CLINIC203,2601,HOME CARE,"3080 Gentry, Meridian, ID, 83642",-116.3567083,43.598407,1
351,CLINIC,CLINIC203,3081,CLINICAL ONCOLOGY-BOISE,"3080 Gentry, Meridian, ID, 83642",-116.3567083,43.598407,1
352,CLINIC,CLINIC203,3952,INTEGRATIVE MEDICINE-MSTI,"3080 Gentry, Meridian, ID, 83642",-116.3567083,43.598407,1
353,CLINIC,CLINIC203,5451,MSTI BUSINESS OPERATIONS,"3080 Gentry, Meridian, ID, 83642",-116.3567083,43.598407,4
354,CLINIC,CLINIC203,6020,BIOREPOSITORY,"3080 Gentry, Meridian, ID, 83642",-116.3567083,43.598407,3
355,CLINIC,CLINIC203,6493,MSTI RESEARCH ADMINISTRATION,"3080 Gentry, Meridian, ID, 83642",-116.3567083,43.598407,1
356,CLINIC,CLINIC203,6513,HIM-MSTI-BOISE,"3080 Gentry, Meridian, ID, 83642",-116.3567083,43.598407,4
357,CLINIC,CLINIC203,6516,TUMOR REGISTRY / MED RECORDS,"3080 Gentry, Meridian, ID, 83642",-116.3567083,43.598407,4
358,CLINIC,CLINIC203,6553,QUALITY & PATIENT SAFETY,"3080 Gentry, Meridian, ID, 83642",-116.3567083,43.598407,1
359,CLINIC,CLINIC203,6751,MSTI CLINICAL SUPPORT SERVICES,"3080 Gentry, Meridian, ID, 83642",-116.3567083,43.598407,4
360,CLINIC,CLINIC203,6801,CLINICAL EDUCATION,"3080 Gentry, Meridian, ID, 83642",-116.3567083,43.598407,1
361,CLINIC,CLINIC203,6811,MSTI DEVEL AND COMMUNITY RES,"3080 Gentry, Meridian, ID, 83642",-116.3567083,43.598407,1
362,CLINIC,CLINIC203,6893,LEARNING SOLUTIONS,"3080 Gentry, Meridian, ID, 83642",-116.3567083,43.598407,6
363,CLINIC,CLINIC203,8102,PATIENT SUPPORT-MSTI BOISE,"3080 Gentry, Meridian, ID, 83642",-116.3567083,43.598407,2
364,CLINIC,CLINIC203,8502,SBO CUSTOMER SERVICE,"3080 Gentry, Meridian, ID, 83642",-116.3567083,43.598407,1
365,CLINIC,CLINIC203,8702,IHT ENTERPRISE DECISION SUPP,"3080 Gentry, Meridian, ID, 83642",-116.3567083,43.598407,6
366,CLINIC,CLINIC204,3310,SL FAMILY HEALTH-MERID GENTRY,"3090 Gentry, Meridian, ID, 83642",-116.355648,43.598413,26
367,CLINIC,CLINIC204,3311,SL FAMILY HEALTH-MERID TEN MIL,"3090 Gentry, Meridian, ID, 83642",-116.355648,43.598413,1
368,CLINIC,CLINIC204,3754,SL UROLOGIC ONCOLOGY,"3090 Gentry, Meridian, ID, 83642",-116.355648,43.598413,1
369,CLINIC,CLINIC204,6513,HEALTH INFO MGMT SERVICES,"3090 Gentry, Meridian, ID, 83642",-116.355648,43.598413,1
370,CLINIC,CLINIC204,6601,ADMINISTRATION,"3090 Gentry, Meridian, ID, 83642",-116.355648,43.598413,1
371,CLINIC,CLINIC204,8602,FINANCIAL RESOURCE CENTER,"3090 Gentry, Meridian, ID, 83642",-116.355648,43.598413,1
372,CLINIC,CLINIC205,3308,SL FAMILY HEALTH-BOIMCMILLAN,"3140 W Milano, Meridian, ID, 83642",-116.4328915,43.6512177,1
373,CLINIC,CLINIC205,3311,SL FAMILY HEALTH-MERID TEN MIL,"3140 W Milano, Meridian, ID, 83642",-116.4328915,43.6512177,13
374,CLINIC,CLINIC205,3315,SL TRAVEL MEDICINE CLINIC,"3140 W Milano, Meridian, ID, 83642",-116.4328915,43.6512177,1
375,CLINIC,CLINIC206,3321,SALTZER MEDICAL GROUP,"3277 E Louise, Meridian, ID, 83642",-116.3540106,43.6015226,24
376,CLINIC,CLINIC206,3353,SL TV PEDIATRICS-EAGLE,"3277 E Louise, Meridian, ID, 83642",-116.3540106,43.6015226,1
377,CLINIC,CLINIC206,3592,SL REHAB ADULT HAND - EAGLE RD,"3277 E Louise, Meridian, ID, 83642",-116.3540106,43.6015226,5
378,CLINIC,CLINIC206,3687,SL ORTHOPEDICS,"3277 E Louise, Meridian, ID, 83642",-116.3540106,43.6015226,1
379,CLINIC,CLINIC206,3872,WOUNDCARE-ROBBINS,"3277 E Louise, Meridian, ID, 83642",-116.3540106,43.6015226,1
380,CLINIC,CLINIC206,3873,WOUNDCARE-LOUISE,"3277 E Louise, Meridian, ID, 83642",-116.3540106,43.6015226,40
381,CLINIC,CLINIC206,3921,SL VEINCARE,"3277 E Louise, Meridian, ID, 83642",-116.3540106,43.6015226,3
382,CLINIC,CLINIC206,4072,ST LUKE'S IMAGING CTR-PORTICO,"3277 E Louise, Meridian, ID, 83642",-116.3540106,43.6015226,2
383,CLINIC,CLINIC206,4225,OUTPATIENT DRAW SITES,"3277 E Louise, Meridian, ID, 83642",-116.3540106,43.6015226,2
384,CLINIC,CLINIC206,6003,SLR RHEUM/ONS/WOUND STUDIES,"3277 E Louise, Meridian, ID, 83642",-116.3540106,43.6015226,1
385,CLINIC,CLINIC206,8506,CENTRAL BILL'G OFF-PHYS SVCS,"3277 E Louise, Meridian, ID, 83642",-116.3540106,43.6015226,2
386,CLINIC,CLINIC207,3002,PEDIATRIC MENTAL HEALTH,"3525 E Louise, Meridian, ID, 83642",-116.3499193,43.6017684,1
387,CLINIC,CLINIC207,3004,PEDIATRIC NEURO PSYCHOLOGY,"3525 E Louise, Meridian, ID, 83642",-116.3499193,43.6017684,1
388,CLINIC,CLINIC207,3005,SL DEVELOPMENTAL PEDIATRICS,"3525 E Louise, Meridian, ID, 83642",-116.3499193,43.6017684,6
389,CLINIC,CLINIC207,3203,SL ID CARD ASSOC-BOISE,"3525 E Louise, Meridian, ID, 83642",-116.3499193,43.6017684,2
390,CLINIC,CLINIC207,3204,SL ID CARD ASSOC-MERIDIAN,"3525 E Louise, Meridian, ID, 83642",-116.3499193,43.6017684,31
391,CLINIC,CLINIC207,3205,SL ID CARD ASSOC-CALDWELL,"3525 E Louise, Meridian, ID, 83642",-116.3499193,43.6017684,1
392,CLINIC,CLINIC207,3305,SL MOUNTAIN VIEW MEDICAL,"3525 E Louise, Meridian, ID, 83642",-116.3499193,43.6017684,1
393,CLINIC,CLINIC207,3501,SL IDAHO PULMONARY-MERID,"3525 E Louise, Meridian, ID, 83642",-116.3499193,43.6017684,4
394,CLINIC,CLINIC207,3602,SL REHAB CHILDREN'S - GEORGIA,"3525 E Louise, Meridian, ID, 83642",-116.3499193,43.6017684,2
395,CLINIC,CLINIC207,3603,SL REHAB CHILDREN'S - LOUISE,"3525 E Louise, Meridian, ID, 83642",-116.3499193,43.6017684,11
396,CLINIC,CLINIC207,3687,SL ORTHOPEDICS,"3525 E Louise, Meridian, ID, 83642",-116.3499193,43.6017684,2
397,CLINIC,CLINIC207,3831,MATERNAL FETAL MEDICINE-BOISE,"3525 E Louise, Meridian, ID, 83642",-116.3499193,43.6017684,5
398,CLINIC,CLINIC207,3903,ID PEDIATRIC GASTROENTEROLOGY,"3525 E Louise, Meridian, ID, 83642",-116.3499193,43.6017684,2
399,CLINIC,CLINIC207,3952,INTEGRATIVE MEDICINE-MSTI,"3525 E Louise, Meridian, ID, 83642",-116.3499193,43.6017684,2
400,CLINIC,CLINIC207,4012,NUCLEAR MEDICINE-MERID SLICA,"3525 E Louise, Meridian, ID, 83642",-116.3499193,43.6017684,1
401,CLINIC,CLINIC207,4061,DIAGNOSTIC BREAST IMAGING,"3525 E Louise, Meridian, ID, 83642",-116.3499193,43.6017684,1
402,CLINIC,CLINIC207,4062,BCDC MAMMOGRAPHY,"3525 E Louise, Meridian, ID, 83642",-116.3499193,43.6017684,2
403,CLINIC,CLINIC207,4098,BREAST CARE SERVICES ADMIN,"3525 E Louise, Meridian, ID, 83642",-116.3499193,43.6017684,8
404,CLINIC,CLINIC207,4321,CARDIAC REHABILITATION,"3525 E Louise, Meridian, ID, 83642",-116.3499193,43.6017684,14
405,CLINIC,CLINIC207,5071,ANTICOAGULATION CLINIC,"3525 E Louise, Meridian, ID, 83642",-116.3499193,43.6017684,5
406,CLINIC,CLINIC207,5403,IHT CLINICAL SUPPORT SERVICES,"3525 E Louise, Meridian, ID, 83642",-116.3499193,43.6017684,1
407,CLINIC,CLINIC207,5404,IT ACUTE CARE SERVICES,"3525 E Louise, Meridian, ID, 83642",-116.3499193,43.6017684,1
408,CLINIC,CLINIC207,5405,IHT EHR SERVICES,"3525 E Louise, Meridian, ID, 83642",-116.3499193,43.6017684,52
409,CLINIC,CLINIC207,5406,IHT CYBER SECURITY,"3525 E Louise, Meridian, ID, 83642",-116.3499193,43.6017684,2
410,CLINIC,CLINIC207,5453,IT-EPIC PROJECT,"3525 E Louise, Meridian, ID, 83642",-116.3499193,43.6017684,10
411,CLINIC,CLINIC207,5498,IHT HEALTH INFORMATICS,"3525 E Louise, Meridian, ID, 83642",-116.3499193,43.6017684,2
412,CLINIC,CLINIC207,6001,SLR CARDIOLOGY STUDIES,"3525 E Louise, Meridian, ID, 83642",-116.3499193,43.6017684,1
413,CLINIC,CLINIC207,6601,ADMINISTRATION,"3525 E Louise, Meridian, ID, 83642",-116.3499193,43.6017684,1
414,CLINIC,CLINIC207,6602,CSC ADMIN,"3525 E Louise, Meridian, ID, 83642",-116.3499193,43.6017684,1
415,CLINIC,CLINIC207,8004,ST LUKES CONNECT,"3525 E Louise, Meridian, ID, 83642",-116.3499193,43.6017684,6
416,CLINIC,CLINIC207,8505,HB INSURANCE RECOVERY,"3525 E Louise, Meridian, ID, 83642",-116.3499193,43.6017684,1
417,CLINIC,CLINIC207,8507,PFS CHARGE CAPTURE,"3525 E Louise, Meridian, ID, 83642",-116.3499193,43.6017684,1
418,CLINIC,CLINIC207,9504,IDAHO CYTOGENETICS LAB,"3525 E Louise, Meridian, ID, 83642",-116.3499193,43.6017684,1
419,CLINIC,CLINIC301,3353,SL TV PEDIATRICS-EAGLE,"450 W State, Eagle, ID, 83616",-116.3593727,43.6955335,12
420,CLINIC,CLINIC301,3901,SL CHILDHOOD OBESITY,"450 W State, Eagle, ID, 83616",-116.3593727,43.6955335,1
421,CLINIC,CLINIC301,3962,HEARING & BALANCE - STATE,"450 W State, Eagle, ID, 83616",-116.3593727,43.6955335,1
422,CLINIC,CLINIC301,7509,IDAHO HEALTH DATA EXCHANGE,"450 W State, Eagle, ID, 83616",-116.3593727,43.6955335,5
423,CLINIC,CLINIC302,3576,SL REHAB ADULT - RIVERSHORE,"533 S Rivershore, Eagle, ID, 83616",-116.3562514,43.6898562,8
424,CLINIC,CLINIC400,1051,CARDIOPULMONARY UNIT,"601 Poleline, Twin Falls, ID, 83301",-114.4674693,42.5926731,1
425,CLINIC,CLINIC400,5401,IHT INFRA & OPERATIONS,"601 Poleline, Twin Falls, ID, 83301",-114.4674693,42.5926731,1
426,CLINIC,CLINIC400,6623,COMPLIANCE,"601 Poleline, Twin Falls, ID, 83301",-114.4674693,42.5926731,1
427,CLINIC,CLINIC400,6820,SAFE KIDS,"601 Poleline, Twin Falls, ID, 83301",-114.4674693,42.5926731,1
428,CLINIC,CLINIC403,1001,MEDICAL / PYSCH,"228 Shoup Ave W, Twin Falls, ID, 83301",-114.4831442,42.5661582,23
429,CLINIC,CLINIC403,1101,INTENSIVE CARE UNIT,"228 Shoup Ave W, Twin Falls, ID, 83301",-114.4831442,42.5661582,1
430,CLINIC,CLINIC403,1201,GENERAL MEDICAL IP,"228 Shoup Ave W, Twin Falls, ID, 83301",-114.4831442,42.5661582,1
431,CLINIC,CLINIC403,3001,SL BEHAVIORAL HEALTH,"228 Shoup Ave W, Twin Falls, ID, 83301",-114.4831442,42.5661582,7
432,CLINIC,CLINIC403,5001,SOCIAL SERVICES,"228 Shoup Ave W, Twin Falls, ID, 83301",-114.4831442,42.5661582,1
433,CLINIC,CLINIC403,6513,HEALTH INFO MGMT SERVICES,"228 Shoup Ave W, Twin Falls, ID, 83301",-114.4831442,42.5661582,1
434,CLINIC,CLINIC404,3209,COUMADIN CLINIC,"2550 Addison Ave E, Twin Falls, ID, 83301",-114.4317044,42.5623221,5
435,CLINIC,CLINIC404,3304,SL FAMILY MED-RENAISSANCE,"2550 Addison Ave E, Twin Falls, ID, 83301",-114.4317044,42.5623221,1
436,CLINIC,CLINIC404,3306,SL PRIMARY CARE ACCESS,"2550 Addison Ave E, Twin Falls, ID, 83301",-114.4317044,42.5623221,1
437,CLINIC,CLINIC404,3308,SL PEDS/FAMILY PRACTICE - PC,"2550 Addison Ave E, Twin Falls, ID, 83301",-114.4317044,42.5623221,1
438,CLINIC,CLINIC404,3309,SL FAMILY/PEDS PRACTICE-ADDSN,"2550 Addison Ave E, Twin Falls, ID, 83301",-114.4317044,42.5623221,17
439,CLINIC,CLINIC404,3402,SL INTERNAL MEDICINE - IMA,"2550 Addison Ave E, Twin Falls, ID, 83301",-114.4317044,42.5623221,9
440,CLINIC,CLINIC404,3442,SL RHEUMATOLOGY,"2550 Addison Ave E, Twin Falls, ID, 83301",-114.4317044,42.5623221,1
441,CLINIC,CLINIC404,4073,PC ADDISON IMAGING DEPT,"2550 Addison Ave E, Twin Falls, ID, 83301",-114.4317044,42.5623221,1
442,CLINIC,CLINIC404,4232,PHLEBOTOMY OUTREACH,"2550 Addison Ave E, Twin Falls, ID, 83301",-114.4317044,42.5623221,1
443,CLINIC,CLINIC404,6953,CARES PROGRAM,"2550 Addison Ave E, Twin Falls, ID, 83301",-114.4317044,42.5623221,5
444,CLINIC,CLINIC404,8501,PATIENT FINANCIAL SERVICES-MV,"2550 Addison Ave E, Twin Falls, ID, 83301",-114.4317044,42.5623221,1
445,CLINIC,CLINIC404,8602,PRE-ACCESS SERVICES,"2550 Addison Ave E, Twin Falls, ID, 83301",-114.4317044,42.5623221,1
446,CLINIC,CLINIC404,9533,JV-OP PEDS REHAB,"2550 Addison Ave E, Twin Falls, ID, 83301",-114.4317044,42.5623221,6
447,CLINIC,CLINIC405,3501,SL PULMONOLOGY,"450 Falls, Twin Falls, ID, 83301",-114.471872,42.577094,1
448,CLINIC,CLINIC405,4826,SLEEP CENTER,"450 Falls, Twin Falls, ID, 83301",-114.471872,42.577094,4
449,CLINIC,CLINIC405,8601,PATIENT REGISTRATION,"450 Falls, Twin Falls, ID, 83301",-114.471872,42.577094,2
450,CLINIC,CLINIC407,2601,HOME CARE,"601 Poleline, Twin Falls, ID, 83301",-114.4674693,42.5926731,1
451,CLINIC,CLINIC409,3681,SL TWIN FALLS ORTHOPEDICS,"714 N College, Twin Falls, ID, 83301",-114.464447,42.583816,3
452,CLINIC,CLINIC409,3684,SL ORTHO/PLASTIC SURG - IOC,"714 N College, Twin Falls, ID, 83301",-114.464447,42.583816,1
453,CLINIC,CLINIC409,3688,SL SPORTS MEDICINE,"714 N College, Twin Falls, ID, 83301",-114.464447,42.583816,1
454,CLINIC,CLINIC409,4076,TWIN FALLS ORTHO IMAGING,"714 N College, Twin Falls, ID, 83301",-114.464447,42.583816,1
455,CLINIC,CLINIC410,3252,SL ENT/FACIAL PLAST SURG-ENT,"730 N College, Twin Falls, ID, 83301",-114.4633859,42.5848294,8
456,CLINIC,CLINIC410,3304,SL FAMILY MED-RENAISSANCE,"730 N College, Twin Falls, ID, 83301",-114.4633859,42.5848294,5
457,CLINIC,CLINIC410,3306,SL PRIMARY CARE ACCESS,"730 N College, Twin Falls, ID, 83301",-114.4633859,42.5848294,1
458,CLINIC,CLINIC410,3309,SL FAMILY/PEDS PRACTICE-ADDSN,"730 N College, Twin Falls, ID, 83301",-114.4633859,42.5848294,1
459,CLINIC,CLINIC410,3402,SL INTERNAL MEDICINE - IMA,"730 N College, Twin Falls, ID, 83301",-114.4633859,42.5848294,1
460,CLINIC,CLINIC410,3561,SL PHYS MED & REHAB,"730 N College, Twin Falls, ID, 83301",-114.4633859,42.5848294,3
461,CLINIC,CLINIC410,4232,PHLEBOTOMY OUTREACH,"730 N College, Twin Falls, ID, 83301",-114.4633859,42.5848294,2
462,CLINIC,CLINIC410,6601,ADMINISTRATION,"730 N College, Twin Falls, ID, 83301",-114.4633859,42.5848294,1
463,CLINIC,CLINIC410,8661,PHYSICIAN CTR SHARED SVCS,"730 N College, Twin Falls, ID, 83301",-114.4633859,42.5848294,4
464,CLINIC,CLINIC411,3451,SL NEUROLOGY,"738 N College, Twin Falls, ID, 83301",-114.4634397,42.5825391,11
465,CLINIC,CLINIC411,3651,SL GENERAL SURGERY - SIGS,"738 N College, Twin Falls, ID, 83301",-114.4634397,42.5825391,1
466,CLINIC,CLINIC411,3684,SL ORTHO/PLASTIC SURG - IOC,"738 N College, Twin Falls, ID, 83301",-114.4634397,42.5825391,28
467,CLINIC,CLINIC411,4075,IOC IMAGING,"738 N College, Twin Falls, ID, 83301",-114.4634397,42.5825391,2
468,CLINIC,CLINIC412,3422,SL NEPHROLOGY - NARASIMHAN,"746 N College, Twin Falls, ID, 83301",-114.463613,42.583128,5
469,CLINIC,CLINIC412,3906,SL CHRONIC DISEASE MGMT,"746 N College, Twin Falls, ID, 83301",-114.463613,42.583128,4
470,CLINIC,CLINIC412,6002,SLR PRIMARY CARE STUDIES,"746 N College, Twin Falls, ID, 83301",-114.463613,42.583128,1
471,CLINIC,CLINIC412,6818,DIABETES MED MGMT,"746 N College, Twin Falls, ID, 83301",-114.463613,42.583128,3
472,CLINIC,CLINIC413,3803,SL OB/GYNECOLOGY - MVWH,"762 N College, Twin Falls, ID, 83301",-114.463358,42.5845037,14
473,CLINIC,CLINIC413,4042,ULTRASOUND-WOMEN'S HEALTH,"762 N College, Twin Falls, ID, 83301",-114.463358,42.5845037,1
474,CLINIC,CLINIC413,4072,RENAISSANCE IMAGING CENTER,"762 N College, Twin Falls, ID, 83301",-114.463358,42.5845037,5
475,CLINIC,CLINIC413,4074,WOMENS IMAGING,"762 N College, Twin Falls, ID, 83301",-114.463358,42.5845037,4
476,CLINIC,CLINIC413,4099,IMAGING SERVICES ADMIN,"762 N College, Twin Falls, ID, 83301",-114.463358,42.5845037,6
477,CLINIC,CLINIC414,5332,PLANT & MAINTENANCE,"267 N Canyon, Gooding, ID, 83330",-114.7109877,42.9234862,1
478,CLINIC,CLINIC414,7502,GOODING COUNTY MEM ADMIN,"267 N Canyon, Gooding, ID, 83330",-114.7109877,42.9234862,1
479,CLINIC,CLINIC415,3055,RADIATION ONCOL-MV,"725 Pole Line Rd, Twin Falls, ID, 83301",-114.4656946,42.5920262,2
480,CLINIC,CLINIC415,3090,CLINICAL ONCOLOGY-MV,"725 Pole Line Rd, Twin Falls, ID, 83301",-114.4656946,42.5920262,3
481,CLINIC,CLINIC415,3130,CHEMO INFUSION-MV,"725 Pole Line Rd, Twin Falls, ID, 83301",-114.4656946,42.5920262,3
482,CLINIC,CLINIC415,6520,MSTI HIM-MV,"725 Pole Line Rd, Twin Falls, ID, 83301",-114.4656946,42.5920262,3
483,CLINIC,CLINIC415,8110,MSTI SUPPORT-MV,"725 Pole Line Rd, Twin Falls, ID, 83301",-114.4656946,42.5920262,12
484,CLINIC,CLINIC416,3204,SL CARDIOLOGY - SICA,"775 Pole Lin Rd, Twin Falls, ID, 83301",-114.464614,42.592025,11
485,CLINIC,CLINIC416,3207,SL VASCULAR SURGERY,"775 Pole Lin Rd, Twin Falls, ID, 83301",-114.464614,42.592025,3
486,CLINIC,CLINIC416,3208,SL CONGESTIVE HEART FAILURE,"775 Pole Lin Rd, Twin Falls, ID, 83301",-114.464614,42.592025,1
487,CLINIC,CLINIC416,3308,SL PEDS/FAMILY PRACTICE - PC,"775 Pole Lin Rd, Twin Falls, ID, 83301",-114.464614,42.592025,3
488,CLINIC,CLINIC416,3442,SL RHEUMATOLOGY,"775 Pole Lin Rd, Twin Falls, ID, 83301",-114.464614,42.592025,1
489,CLINIC,CLINIC416,3751,SL UROLOGY,"775 Pole Lin Rd, Twin Falls, ID, 83301",-114.464614,42.592025,8
490,CLINIC,CLINIC416,3954,SL PAIN MANAGEMENT,"775 Pole Lin Rd, Twin Falls, ID, 83301",-114.464614,42.592025,1
491,CLINIC,CLINIC416,4232,PHLEBOTOMY OUTREACH,"775 Pole Lin Rd, Twin Falls, ID, 83301",-114.464614,42.592025,1
492,CLINIC,CLINIC416,5302,ENVIRONMENTAL SERVICES,"775 Pole Lin Rd, Twin Falls, ID, 83301",-114.464614,42.592025,2
493,CLINIC,CLINIC416,6501,MEDICAL TRANSCRIPTION,"775 Pole Lin Rd, Twin Falls, ID, 83301",-114.464614,42.592025,2
494,CLINIC,CLINIC416,6601,ADMINISTRATION,"775 Pole Lin Rd, Twin Falls, ID, 83301",-114.464614,42.592025,6
495,CLINIC,CLINIC416,6957,CHILD CARE CENTER,"775 Pole Lin Rd, Twin Falls, ID, 83301",-114.464614,42.592025,1
496,CLINIC,CLINIC500,3301,PAYETTE LAKES MEDICAL CLINIC,"203 Hewitt, McCall, ID, 83638",-116.1102344,44.9096684,2
497,CLINIC,CLINIC500,4001,RADIOLOGY,"203 Hewitt, McCall, ID, 83638",-116.1102344,44.9096684,1
498,CLINIC,CLINIC500,5251,FOOD & NUTRITION,"203 Hewitt, McCall, ID, 83638",-116.1102344,44.9096684,1
499,CLINIC,CLINIC500,6811,CENTER FOR COMMUNITY HEALTH,"203 Hewitt, McCall, ID, 83638",-116.1102344,44.9096684,4
500,CLINIC,CLINIC500,6915,EMPLOYEE HEALTH SOLUTIONS,"203 Hewitt, McCall, ID, 83638",-116.1102344,44.9096684,1
501,CLINIC,CLINIC501,1201,MEDICAL / SURGICAL,"209 Forest, McCall, ID, 83638",-116.1114178,44.9088558,1
502,CLINIC,CLINIC501,3401,INTERNAL MEDICINE,"209 Forest, McCall, ID, 83638",-116.1114178,44.9088558,3
503,CLINIC,CLINIC501,3651,GENERAL SURGERY CLINIC,"209 Forest, McCall, ID, 83638",-116.1114178,44.9088558,2
504,CLINIC,CLINIC501,3872,WOUNDCARE-MCCALL-STATE,"209 Forest, McCall, ID, 83638",-116.1114178,44.9088558,3
505,CLINIC,CLINIC501,6601,ADMINISTRATION,"209 Forest, McCall, ID, 83638",-116.1114178,44.9088558,1
506,CLINIC,CLINIC501,8506,CENTRAL BILL'G OFF-PHYS SVCS,"209 Forest, McCall, ID, 83638",-116.1114178,44.9088558,1
507,CLINIC,CLINIC502,3001,MCCALL BEHAVIORAL HEALTH,"211 Forest, McCall, ID, 83638",-116.1116918,44.9092053,1
508,CLINIC,CLINIC502,3301,PAYETTE LAKES MEDICAL CLINIC,"211 Forest, McCall, ID, 83638",-116.1116918,44.9092053,35
509,CLINIC,CLINIC502,3401,INTERNAL MEDICINE,"211 Forest, McCall, ID, 83638",-116.1116918,44.9092053,2
510,CLINIC,CLINIC502,3683,ORTHO SURGERY CLINIC,"211 Forest, McCall, ID, 83638",-116.1116918,44.9092053,6
511,CLINIC,CLINIC502,5405,IHT EHR SERVICES,"211 Forest, McCall, ID, 83638",-116.1116918,44.9092053,1
512,CLINIC,CLINIC502,8506,CENTRAL BILL'G OFF-PHYS SVCS,"211 Forest, McCall, ID, 83638",-116.1116918,44.9092053,1
513,CLINIC,CLINIC504,3301,PAYETTE LAKES MEDICAL CLINIC,"214 N Main, Riggins, ID, 83549",-116.3150122,45.4218505,4
514,CLINIC,CLINIC504,4304,MCCALL OUTPATIENT THERAPY,"214 N Main, Riggins, ID, 83549",-116.3150122,45.4218505,1
515,CLINIC,CLINIC600,7501,CHALLIS ADMINISTRATION,"611 Clinic, Challis, ID, 83226",-114.22661,44.511692,1
516,CLINIC,CLINIC601,2603,HOME CARE - WOOD RIVER,"1450 Aviation, Hailey, ID, 83333",-114.302638,43.5046815,4
517,CLINIC,CLINIC601,3002,MENTAL HEALTH CLINIC,"1450 Aviation, Hailey, ID, 83333",-114.302638,43.5046815,4
518,CLINIC,CLINIC601,3301,CAPITAL CITY FAMILY MEDICINE,"1450 Aviation, Hailey, ID, 83333",-114.302638,43.5046815,1
519,CLINIC,CLINIC601,3303,SL FAMILY MEDICINE CLINIC,"1450 Aviation, Hailey, ID, 83333",-114.302638,43.5046815,32
520,CLINIC,CLINIC601,3304,FAMILY PRACTICE ASSOCIATES,"1450 Aviation, Hailey, ID, 83333",-114.302638,43.5046815,1
521,CLINIC,CLINIC601,3451,SL NEUROLOGY CLINIC,"1450 Aviation, Hailey, ID, 83333",-114.302638,43.5046815,1
522,CLINIC,CLINIC601,3571,SL REHAB ADULT-AVIATION DRIVE,"1450 Aviation, Hailey, ID, 83333",-114.302638,43.5046815,7
523,CLINIC,CLINIC601,3684,SUN VALLEY SPORTS MEDICINE,"1450 Aviation, Hailey, ID, 83333",-114.302638,43.5046815,1
524,CLINIC,CLINIC601,3912,WOOD RIVER DERMATOLOGY,"1450 Aviation, Hailey, ID, 83333",-114.302638,43.5046815,1
525,CLINIC,CLINIC601,6601,ADMINISTRATION,"1450 Aviation, Hailey, ID, 83333",-114.302638,43.5046815,2
526,CLINIC,CLINIC601,6811,CENTER FOR COMMUNITY HEALTH,"1450 Aviation, Hailey, ID, 83333",-114.302638,43.5046815,4
527,CLINIC,CLINIC601,6817,CHILDBIRTH EDUCATION,"1450 Aviation, Hailey, ID, 83333",-114.302638,43.5046815,1
528,CLINIC,CLINIC601,6821,SCHOOL NURSE PROGRAM,"1450 Aviation, Hailey, ID, 83333",-114.302638,43.5046815,1
529,CLINIC,CLINIC602,3303,SL FAMILY MEDICINE CLINIC,"21 E Maple, Hailey, ID, 83333",-114.3100751,43.514293,1
530,CLINIC,CLINIC602,3304,FAMILY PRACTICE ASSOCIATES,"21 E Maple, Hailey, ID, 83333",-114.3100751,43.514293,5
531,CLINIC,CLINIC603,3303,SL FAMILY MEDICINE CLINIC,"191 5th W, Ketchum, ID, 83340",-114.3674131,43.6805565,2
532,CLINIC,CLINIC603,3401,INTERNAL MEDICINE,"191 5th W, Ketchum, ID, 83340",-114.3674131,43.6805565,2
533,CLINIC,CLINIC603,3684,SUN VALLEY SPORTS MEDICINE,"191 5th W, Ketchum, ID, 83340",-114.3674131,43.6805565,5
534,CLINIC,CLINIC603,3802,OBGYN,"191 5th W, Ketchum, ID, 83340",-114.3674131,43.6805565,2
535,CLINIC,CLINIC603,3912,WOOD RIVER DERMATOLOGY,"191 5th W, Ketchum, ID, 83340",-114.3674131,43.6805565,6
536,CLINIC,CLINIC700,3301,JEROME FAMILY CLINIC,"115 5th Ave W, Jerome, ID, 83338",-114.519371,42.7289061,1
537,CLINIC,CLINIC700,4101,OCCUPATIONAL HEALTH,"115 5th Ave W, Jerome, ID, 83338",-114.519371,42.7289061,1
538,CLINIC,CLINIC701,2502,ED PHYSICIANS,"132 5th Ave W, Jerome, ID, 83338",-114.5200337,42.7298052,1
539,CLINIC,CLINIC701,3301,JEROME FAMILY CLINIC,"132 5th Ave W, Jerome, ID, 83338",-114.5200337,42.7298052,26
540,CLINIC,CLINIC701,3303,SL FAMILY MEDICINE-BOISE,"132 5th Ave W, Jerome, ID, 83338",-114.5200337,42.7298052,1
541,CLINIC,CLINIC701,3309,SL FAMILY/PEDS PRACTICE-ADDSN,"132 5th Ave W, Jerome, ID, 83338",-114.5200337,42.7298052,1
542,CLINIC,CLINIC701,3851,JEROME DIABETES MGMT CTR,"132 5th Ave W, Jerome, ID, 83338",-114.5200337,42.7298052,1
543,CLINIC,CLINIC701,4101,OCCUPATIONAL HEALTH,"132 5th Ave W, Jerome, ID, 83338",-114.5200337,42.7298052,2
544,CLINIC,CLINIC701,8501,PATIENT FINANCIAL SERVICES,"132 5th Ave W, Jerome, ID, 83338",-114.5200337,42.7298052,2
545,CLINIC,CLINIC701,8501,PATIENT FINANCIAL SERVICES-MV,"132 5th Ave W, Jerome, ID, 83338",-114.5200337,42.7298052,1
546,CLINIC,CLINIC800,1201,MEDICAL / SURGICAL,"465 McKenna Dr, Mountain Home, ID, 83647",-115.694649,43.13899,1
547,CLINIC,CLINIC800,3301,TRINITY MOUNTAIN MEDICAL CLINI,"465 McKenna Dr, Mountain Home, ID, 83647",-115.694649,43.13899,21
548,CLINIC,CLINIC800,3322,SL FAMILY MEDICINE-BALDRIDGE,"465 McKenna Dr, Mountain Home, ID, 83647",-115.694649,43.13899,2
549,CLINIC,CLINIC800,3651,ELMORE GENERAL SURGERY CLINIC,"465 McKenna Dr, Mountain Home, ID, 83647",-115.694649,43.13899,1
550,CLINIC,CLINIC800,4062,BCDC MAMMOGRAPHY,"465 McKenna Dr, Mountain Home, ID, 83647",-115.694649,43.13899,1
551,CLINIC,CLINIC800,5401,IHT INFRA & OPERATIONS,"465 McKenna Dr, Mountain Home, ID, 83647",-115.694649,43.13899,1
552,CLINIC,CLINIC900,3577,SL REHAB ADULT  - FAIRVIEW,"1906 Fairview Ave Suite 350, Caldwell, ID, 83605",-116.694704,43.653037,4
553,CLINIC,CLINIC900,3601,SL REHAB CHILDREN'S - FAIRVIEW,"1906 Fairview Ave Suite 350, Caldwell, ID, 83605",-116.694704,43.653037,1
554,CLINIC,CLINIC900,3753,MOUNTAIN STATES UROLOGY-MERID,"1906 Fairview Ave Suite 350, Caldwell, ID, 83605",-116.694704,43.653037,1
555,CLINIC,CLINIC900,3755,CALDWELL UROLOGY,"1906 Fairview Ave Suite 350, Caldwell, ID, 83605",-116.694704,43.653037,21
556,CLINIC,CLINIC900,4101,OCC HEALTH SERVICES BOISE,"1906 Fairview Ave Suite 350, Caldwell, ID, 83605",-116.694704,43.653037,1
557,CLINIC,CLINIC900,6601,ADMINISTRATION,"1906 Fairview Ave Suite 350, Caldwell, ID, 83605",-116.694704,43.653037,1
558,CLINIC,CLINIC900,8505,HB INSURANCE RECOVERY,"1906 Fairview Ave Suite 350, Caldwell, ID, 83605",-116.694704,43.653037,1
559,CLINIC,CLINIC902,4062,BCDC MAMMOGRAPHY,"229 E Logan, Caldwell, ID, 83605",-116.6958615,43.6553362,1
560,CLINIC,CLINIC903,3204,SL ID CARD ASSOC-MERIDIAN,"315 E Elm, Caldwell, ID, 83605",-116.694786,43.653882,1
561,CLINIC,CLINIC903,3205,SL ID CARD ASSOC-CALDWELL,"315 E Elm, Caldwell, ID, 83605",-116.694786,43.653882,18
562,CLINIC,CLINIC903,3206,SL BOISE HEART CLINIC,"315 E Elm, Caldwell, ID, 83605",-116.694786,43.653882,1
563,CLINIC,CLINIC903,5071,ANTICOAGULATION CLINIC,"315 E Elm, Caldwell, ID, 83605",-116.694786,43.653882,1
564,CLINIC,CLINIC904,2501,EMERGENCY DEPARTMENT,"1107 NW 11th, Fruitland, ID, 83619",-116.9253292,44.0218203,1
565,CLINIC,CLINIC904,3323,FRUITLAND MEDICAL GROUP,"1107 NW 11th, Fruitland, ID, 83619",-116.9253292,44.0218203,1
566,CLINIC,CLINIC904,4072,IMAGING CENTER,"1107 NW 11th, Fruitland, ID, 83619",-116.9253292,44.0218203,1
567,CLINIC,CLINIC904,6512,HIM-MSTI-FRUITLAND,"1107 NW 11th, Fruitland, ID, 83619",-116.9253292,44.0218203,2
568,CLINIC,CLINIC905,3053,RADIATION ONCOLOGY-FRUITLAND,"1118 NW 16th, Fruitland, ID, 83619",-116.9282628,44.0249742,6
569,CLINIC,CLINIC905,3081,CLINICAL ONCOLOGY-BOISE,"1118 NW 16th, Fruitland, ID, 83619",-116.9282628,44.0249742,1
570,CLINIC,CLINIC905,3083,CLINICAL ONCOLOGY-FRUITLAND,"1118 NW 16th, Fruitland, ID, 83619",-116.9282628,44.0249742,5
571,CLINIC,CLINIC905,3085,CLINICAL ONCOLOGY-BAKER CITY,"1118 NW 16th, Fruitland, ID, 83619",-116.9282628,44.0249742,1
572,CLINIC,CLINIC905,3123,CHEMO INFUSION-FRUITLAND,"1118 NW 16th, Fruitland, ID, 83619",-116.9282628,44.0249742,10
573,CLINIC,CLINIC905,3203,SL ID CARD ASSOC-BOISE,"1118 NW 16th, Fruitland, ID, 83619",-116.9282628,44.0249742,1
574,CLINIC,CLINIC905,6493,MSTI RESEARCH ADMINISTRATION,"1118 NW 16th, Fruitland, ID, 83619",-116.9282628,44.0249742,1
575,CLINIC,CLINIC905,6609,MSTI ADMIN-FRUITLAND,"1118 NW 16th, Fruitland, ID, 83619",-116.9282628,44.0249742,3
576,CLINIC,CLINIC905,8101,PATIENT SUPPORT-MSTI MER,"1118 NW 16th, Fruitland, ID, 83619",-116.9282628,44.0249742,1
577,CLINIC,CLINIC905,8104,PATIENT SUPPORT-MSTI FRUITLAND,"1118 NW 16th, Fruitland, ID, 83619",-116.9282628,44.0249742,8
578,CLINIC,CLINIC906,2501,EMERGENCY DEPARTMENT,"1210 NW 16th, Fruitland, ID, 83619",-116.9290768,44.0248559,14
579,CLINIC,CLINIC906,3323,FRUITLAND MEDICAL GROUP,"1210 NW 16th, Fruitland, ID, 83619",-116.9290768,44.0248559,40
580,CLINIC,CLINIC906,3405,SL INTERNAL MEDICINE-EAGLE,"1210 NW 16th, Fruitland, ID, 83619",-116.9290768,44.0248559,1
581,CLINIC,CLINIC906,4072,IMAGING CENTER,"1210 NW 16th, Fruitland, ID, 83619",-116.9290768,44.0248559,15
582,CLINIC,CLINIC906,4202,SL FRUITLAND CLINIC LAB,"1210 NW 16th, Fruitland, ID, 83619",-116.9290768,44.0248559,10
583,CLINIC,CLINIC906,4401,RESPIRATORY THERAPY,"1210 NW 16th, Fruitland, ID, 83619",-116.9290768,44.0248559,4
584,CLINIC,CLINIC906,4811,EKG,"1210 NW 16th, Fruitland, ID, 83619",-116.9290768,44.0248559,2
585,CLINIC,CLINIC906,5321,SECURITY,"1210 NW 16th, Fruitland, ID, 83619",-116.9290768,44.0248559,5
586,CLINIC,CLINIC906,5331,CLINICAL ENGINEERING,"1210 NW 16th, Fruitland, ID, 83619",-116.9290768,44.0248559,1
587,CLINIC,CLINIC906,5333,BUILDING SERVICES,"1210 NW 16th, Fruitland, ID, 83619",-116.9290768,44.0248559,1
588,CLINIC,CLINIC906,8506,CENTRAL BILL'G OFF-PHYS SVCS,"1210 NW 16th, Fruitland, ID, 83619",-116.9290768,44.0248559,1
589,CLINIC,CLINIC906,8601,PATIENT REGISTRATION,"1210 NW 16th, Fruitland, ID, 83619",-116.9290768,44.0248559,11
590,CLINIC,CLINIC907,1201,MEDICAL / SURGICAL 5,"215 E Hawaii, Nampa, ID, 83686",-116.5706234,43.554591,1
591,CLINIC,CLINIC907,3205,SL ID CARD ASSOC-CALDWELL,"215 E Hawaii, Nampa, ID, 83686",-116.5706234,43.554591,7
592,CLINIC,CLINIC907,3321,SALTZER MEDICAL GROUP,"215 E Hawaii, Nampa, ID, 83686",-116.5706234,43.554591,118
593,CLINIC,CLINIC907,3502,PEDIATRIC PULMONOLOGY,"215 E Hawaii, Nampa, ID, 83686",-116.5706234,43.554591,1
594,CLINIC,CLINIC907,3654,SL BOISE SURGICAL GROUP-MERID,"215 E Hawaii, Nampa, ID, 83686",-116.5706234,43.554591,2
595,CLINIC,CLINIC907,3673,SL NW NEUROSURGERY ASSOC,"215 E Hawaii, Nampa, ID, 83686",-116.5706234,43.554591,1
596,CLINIC,CLINIC907,4072,IMAGING CENTER,"215 E Hawaii, Nampa, ID, 83686",-116.5706234,43.554591,1
597,CLINIC,CLINIC907,4101,OCC HEALTH SERVICES BOISE,"215 E Hawaii, Nampa, ID, 83686",-116.5706234,43.554591,1
598,CLINIC,CLINIC907,4224,LAB PROCESSING,"215 E Hawaii, Nampa, ID, 83686",-116.5706234,43.554591,1
599,CLINIC,CLINIC907,4225,OUTPATIENT DRAW SITES,"215 E Hawaii, Nampa, ID, 83686",-116.5706234,43.554591,8
600,CLINIC,CLINIC907,4299,LAB ADMINISTRATION,"215 E Hawaii, Nampa, ID, 83686",-116.5706234,43.554591,1
601,CLINIC,CLINIC907,4305,ATHLETIC TRAINING,"215 E Hawaii, Nampa, ID, 83686",-116.5706234,43.554591,1
602,CLINIC,CLINIC907,4811,EKG,"215 E Hawaii, Nampa, ID, 83686",-116.5706234,43.554591,1
603,CLINIC,CLINIC907,6004,SALTZER RESEARCH,"215 E Hawaii, Nampa, ID, 83686",-116.5706234,43.554591,6
604,CLINIC,CLINIC907,6904,PHYSICIAN RECRUITING,"215 E Hawaii, Nampa, ID, 83686",-116.5706234,43.554591,1
605,CLINIC,CLINIC907,8513,PB BILLING/INS RECOVERY,"215 E Hawaii, Nampa, ID, 83686",-116.5706234,43.554591,1
606,CLINIC,CLINIC908,3054,RADIATION ONCOLOGY-NAMPA,"308 E Hawaii, Nampa, ID, 83686",-116.569745,43.555674,6
607,CLINIC,CLINIC908,3084,CLINICAL ONCOLOGY-NAMPA,"308 E Hawaii, Nampa, ID, 83686",-116.569745,43.555674,8
608,CLINIC,CLINIC908,3124,CHEMO INFUSION-NAMPA,"308 E Hawaii, Nampa, ID, 83686",-116.569745,43.555674,9
609,CLINIC,CLINIC908,4201,LABORATORY,"308 E Hawaii, Nampa, ID, 83686",-116.569745,43.555674,1
610,CLINIC,CLINIC908,4203,LABORATORY - MSTI NAMPA,"308 E Hawaii, Nampa, ID, 83686",-116.569745,43.555674,3
611,CLINIC,CLINIC908,5001,SOCIAL SERVICES,"308 E Hawaii, Nampa, ID, 83686",-116.569745,43.555674,1
612,CLINIC,CLINIC908,5451,MSTI BUSINESS OPERATIONS,"308 E Hawaii, Nampa, ID, 83686",-116.569745,43.555674,3
613,CLINIC,CLINIC908,6514,HIM-MSTI-NAMPA,"308 E Hawaii, Nampa, ID, 83686",-116.569745,43.555674,3
614,CLINIC,CLINIC908,6608,MSTI ADMIN-NAMPA,"308 E Hawaii, Nampa, ID, 83686",-116.569745,43.555674,2
615,CLINIC,CLINIC908,8103,PATIENT SUPPORT-MSTI NAMPA,"308 E Hawaii, Nampa, ID, 83686",-116.569745,43.555674,10
616,CLINIC,CLINIC909,3319,SL FAMILY MEDICINE-NAMGRNHRST,"3165 E Greenhurst, Nampa, ID, 83686",-116.5315474,43.5464248,25
617,CLINIC,CLINIC909,3320,SL FAMILY MEDICINE-NAMDIAMOND,"3165 E Greenhurst, Nampa, ID, 83686",-116.5315474,43.5464248,1
618,CLINIC,CLINIC909,3323,FRUITLAND MEDICAL GROUP,"3165 E Greenhurst, Nampa, ID, 83686",-116.5315474,43.5464248,1
619,CLINIC,CLINIC909,3432,SL ENDOCRINOLOGY-BOISE,"3165 E Greenhurst, Nampa, ID, 83686",-116.5315474,43.5464248,1
620,CLINIC,CLINIC909,3851,SL HUMPHREYS DIABETES-BOI,"3165 E Greenhurst, Nampa, ID, 83686",-116.5315474,43.5464248,1
621,CLINIC,CLINIC909,8004,ST LUKES CONNECT,"3165 E Greenhurst, Nampa, ID, 83686",-116.5315474,43.5464248,3
622,CLINIC,CLINIC910,3003,SL PSYCHIATRIC WELLNESS SRVCS,"824 S Diamond, Nampa, ID, 83686",-116.5588361,43.5606367,1
623,CLINIC,CLINIC910,3320,SL FAMILY MEDICINE-NAMDIAMOND,"824 S Diamond, Nampa, ID, 83686",-116.5588361,43.5606367,14
624,CLINIC,CLINIC910,3851,SL HUMPHREYS DIABETES-BOI,"824 S Diamond, Nampa, ID, 83686",-116.5588361,43.5606367,1
625,CLINIC,CLINIC910,6601,ADMINISTRATION,"824 S Diamond, Nampa, ID, 83686",-116.5588361,43.5606367,1
626,CLINIC,CLINIC910,8004,ST LUKES CONNECT,"824 S Diamond, Nampa, ID, 83686",-116.5588361,43.5606367,1
627,CLINIC,CLINIC911,2006,SURGERY CENTER - RIVER ST,"9850 W St. Luke's, Nampa, ID, 83687",-116.5904463,43.6174571,1
628,CLINIC,CLINIC911,2501,EMERGENCY DEPARTMENT,"9850 W St. Luke's, Nampa, ID, 83687",-116.5904463,43.6174571,34
629,CLINIC,CLINIC911,3204,SL ID CARD ASSOC-MERIDIAN,"9850 W St. Luke's, Nampa, ID, 83687",-116.5904463,43.6174571,1
630,CLINIC,CLINIC911,3321,SALTZER MEDICAL GROUP,"9850 W St. Luke's, Nampa, ID, 83687",-116.5904463,43.6174571,16
631,CLINIC,CLINIC911,3432,SL ENDOCRINOLOGY-BOISE,"9850 W St. Luke's, Nampa, ID, 83687",-116.5904463,43.6174571,1
632,CLINIC,CLINIC911,3579,SL REHAB ADULT - VENTANA,"9850 W St. Luke's, Nampa, ID, 83687",-116.5904463,43.6174571,7
633,CLINIC,CLINIC911,3755,CALDWELL UROLOGY,"9850 W St. Luke's, Nampa, ID, 83687",-116.5904463,43.6174571,1
634,CLINIC,CLINIC911,4072,IMAGING CENTER,"9850 W St. Luke's, Nampa, ID, 83687",-116.5904463,43.6174571,16
635,CLINIC,CLINIC911,4101,OCC HEALTH SERVICES BOISE,"9850 W St. Luke's, Nampa, ID, 83687",-116.5904463,43.6174571,7
636,CLINIC,CLINIC911,4201,LABORATORY,"9850 W St. Luke's, Nampa, ID, 83687",-116.5904463,43.6174571,7
637,CLINIC,CLINIC911,4401,RESPIRATORY THERAPY,"9850 W St. Luke's, Nampa, ID, 83687",-116.5904463,43.6174571,4
638,CLINIC,CLINIC911,4802,PERIPHERAL VASCULAR LAB,"9850 W St. Luke's, Nampa, ID, 83687",-116.5904463,43.6174571,1
639,CLINIC,CLINIC911,5001,SOCIAL SERVICES,"9850 W St. Luke's, Nampa, ID, 83687",-116.5904463,43.6174571,1
640,CLINIC,CLINIC911,5321,SECURITY,"9850 W St. Luke's, Nampa, ID, 83687",-116.5904463,43.6174571,4
641,CLINIC,CLINIC911,6601,ADMINISTRATION,"9850 W St. Luke's, Nampa, ID, 83687",-116.5904463,43.6174571,1
642,CLINIC,CLINIC911,6981,CONSUMER ENGAGEMENT & WELLNESS,"9850 W St. Luke's, Nampa, ID, 83687",-116.5904463,43.6174571,1
643,CLINIC,CLINIC911,8601,PATIENT REGISTRATION,"9850 W St. Luke's, Nampa, ID, 83687",-116.5904463,43.6174571,12
644,CLINIC,CLINIC912,7504,WEISER MEMORIAL HOSP ADMIN,"645 E 5th, Weiser, ID, 83672",-116.9621748,44.248733,10
645,CLINIC,CLINIC913,3314,SL EASTERN OREGON MED ASSOC,"3950 17th, Baker City, OR, 97814",-117.848931,44.795116,50
646,CLINIC,CLINIC913,5071,ANTICOAGULATION CLINIC,"3950 17th, Baker City, OR, 97814",-117.848931,44.795116,2
647,CLINIC,CLINIC913,6601,ADMINISTRATION,"3950 17th, Baker City, OR, 97814",-117.848931,44.795116,1
648,CLINIC,CLINIC913,8506,CENTRAL BILL'G OFF-PHYS SVCS,"3950 17th, Baker City, OR, 97814",-117.848931,44.795116,1
649,CLINIC,CLINIC914,3964,HEARING & BALANCE-ONT 4TH AVE,"1182 SW 4th Ave, Ontario, OR, 97914",-116.9803307,44.0245848,4
650,CLINIC,CLINIC916,3085,CLINICAL ONCOLOGY-BAKER CITY,"932 W Idaho, Ontario, OR, 97914",-116.974627,44.028292,1
651,CLINIC,CLINIC916,3964,HEARING & BALANCE-ONT 4TH AVE,"932 W Idaho, Ontario, OR, 97914",-116.974627,44.028292,1
652,CLINIC,CLINIC918,3321,SALTZER MEDICAL GROUP,"1818 S 10th Ave, Caldwell, ID, 83605",-116.6934528,43.6538243,6
653,CLINIC,CLINIC919,3578,SL REHAB ADULT - GEORGIA,"290 W Georgia, Nampa, ID, 83686",-116.575118,43.556398,7
654,CLINIC,CLINIC919,3579,SL REHAB ADULT - VENTANA,"290 W Georgia, Nampa, ID, 83686",-116.575118,43.556398,1
655,CLINIC,CLINIC920,3961,HEARING & BALANCE - EAGLE RD,"210 W Georgia, Nampa, ID, 83686",-116.574643,43.556398,1
656,CLINIC,CLINIC921,3321,SALTZER MEDICAL GROUP,"7272 W Potomac Dr, Boise, ID, 83704",-116.2726802,43.6113968,5
657,CLINIC,CLINIC922,3321,SALTZER MEDICAL GROUP,"8950 W Emerald, Boise, ID, 83704",-116.293384,43.6118565,7
658,CLINIC,CLINIC922,3954,SL PAIN MANAGEMENT,"8950 W Emerald, Boise, ID, 83704",-116.293384,43.6118565,1
659,CLINIC,CLINIC923,3321,SALTZER MEDICAL GROUP,"217 W Georgia, Nampa, ID, 83686",-116.575091,43.555622,25
660,CLINIC,CLINIC923,3573,SL REHAB ADULT - MYRTLE,"217 W Georgia, Nampa, ID, 83686",-116.575091,43.555622,1
661,CLINIC,CLINIC923,8506,CENTRAL BILL'G OFF-PHYS SVCS,"217 W Georgia, Nampa, ID, 83686",-116.575091,43.555622,2
662,CLINIC,CLINIC923,8513,PB BILLING/INS RECOVERY,"217 W Georgia, Nampa, ID, 83686",-116.575091,43.555622,2
663,CLINIC,CLINIC924,3321,SALTZER MEDICAL GROUP,"4403 E Flamingo, Nampa, ID, 83687",-116.517741,43.596228,3
664,CLINIC,CLINIC924,4072,IMAGING CENTER,"4403 E Flamingo, Nampa, ID, 83687",-116.517741,43.596228,1
665,CLINIC,CLINIC924,4072,ST LUKE'S IMAGING CENTER,"4403 E Flamingo, Nampa, ID, 83687",-116.517741,43.596228,1
666,CLINIC,CLINIC924,4072,ST LUKE'S IMAGING CTR-PORTICO,"4403 E Flamingo, Nampa, ID, 83687",-116.517741,43.596228,1
667,CLINIC,CLINIC925,3002,PEDIATRIC MENTAL HEALTH,"1906 W. Fairview Ave Suite 330, Caldwell, ID, 83605",-116.694704,43.653037,1
668,CLINIC,CLINIC925,3601,SL REHAB CHILDREN'S - FAIRVIEW,"1906 W. Fairview Ave Suite 330, Caldwell, ID, 83605",-116.694704,43.653037,3
669,CLINIC,CLINIC926,3002,PEDIATRIC MENTAL HEALTH,"170 2nd Steet South, Nampa, ID, 83651",-116.5710157,43.5855369,1
670,CLINIC,CLINIC926,3602,SL REHAB CHILDREN'S - GEORGIA,"170 2nd Steet South, Nampa, ID, 83651",-116.5710157,43.5855369,10
671,CLINIC,CLINIC927,3963,HEARING & BALANCE - 172 2ND,"172 2nd Steet South, Nampa, ID, 83651",-116.5709377,43.5854735,10
672,DEFAULT,DEFAULT,1152,INPATIENT REHAB UNIT-ROBBINS,"190 E Bannock St, Boise, ID, 83712",-116.1924344,43.6125798,1
673,HOSPITAL,HOSPITAL1,1051,MEDICAL INTENSIVE CARE UNIT,"190 E Bannock St, Boise, ID, 83712",-116.1924344,43.6125798,51
674,HOSPITAL,HOSPITAL1,1052,TELEMETRY 7E,"190 E Bannock St, Boise, ID, 83712",-116.1924344,43.6125798,89
675,HOSPITAL,HOSPITAL1,1053,TELEMETRY,"190 E Bannock St, Boise, ID, 83712",-116.1924344,43.6125798,8
676,HOSPITAL,HOSPITAL1,1053,TELEMETRY 3,"190 E Bannock St, Boise, ID, 83712",-116.1924344,43.6125798,55
677,HOSPITAL,HOSPITAL1,1099,HEART SERVICES ADMIN,"190 E Bannock St, Boise, ID, 83712",-116.1924344,43.6125798,10
678,HOSPITAL,HOSPITAL1,1101,INTENSIVE CARE UNIT,"190 E Bannock St, Boise, ID, 83712",-116.1924344,43.6125798,2
679,HOSPITAL,HOSPITAL1,1101,SURGICAL INTENSIVE CARE UNIT,"190 E Bannock St, Boise, ID, 83712",-116.1924344,43.6125798,47
680,HOSPITAL,HOSPITAL1,1151,SKILLED NURSING UNIT-ROBBINS,"190 E Bannock St, Boise, ID, 83712",-116.1924344,43.6125798,2
681,HOSPITAL,HOSPITAL1,1152,INPATIENT REHAB UNIT-ROBBINS,"190 E Bannock St, Boise, ID, 83712",-116.1924344,43.6125798,11
682,HOSPITAL,HOSPITAL1,1201,MEDICAL / SURGICAL 5,"190 E Bannock St, Boise, ID, 83712",-116.1924344,43.6125798,2
683,HOSPITAL,HOSPITAL1,1201,MEDICAL / SURGICAL 5E,"190 E Bannock St, Boise, ID, 83712",-116.1924344,43.6125798,64
684,HOSPITAL,HOSPITAL1,1202,MEDICAL / SURGICAL 6,"190 E Bannock St, Boise, ID, 83712",-116.1924344,43.6125798,3
685,HOSPITAL,HOSPITAL1,1202,MEDICAL / SURGICAL 6E,"190 E Bannock St, Boise, ID, 83712",-116.1924344,43.6125798,80
686,HOSPITAL,HOSPITAL1,1203,MEDICAL / SURGICAL NEURO,"190 E Bannock St, Boise, ID, 83712",-116.1924344,43.6125798,48
687,HOSPITAL,HOSPITAL1,1204,MEDICAL / SURGICAL ONCOLOGY,"190 E Bannock St, Boise, ID, 83712",-116.1924344,43.6125798,55
688,HOSPITAL,HOSPITAL1,1205,MEDICAL / SURGICAL WOMEN'S,"190 E Bannock St, Boise, ID, 83712",-116.1924344,43.6125798,27
689,HOSPITAL,HOSPITAL1,1241,SL INTERNAL MED HOSPITALISTS,"190 E Bannock St, Boise, ID, 83712",-116.1924344,43.6125798,43
690,HOSPITAL,HOSPITAL1,1251,NICU,"190 E Bannock St, Boise, ID, 83712",-116.1924344,43.6125798,163
691,HOSPITAL,HOSPITAL1,1301,ANTEPARTUM,"190 E Bannock St, Boise, ID, 83712",-116.1924344,43.6125798,16
692,HOSPITAL,HOSPITAL1,1302,MOTHER / BABY,"190 E Bannock St, Boise, ID, 83712",-116.1924344,43.6125798,88
693,HOSPITAL,HOSPITAL1,1303,LABOR AND DELIVERY,"190 E Bannock St, Boise, ID, 83712",-116.1924344,43.6125798,97
694,HOSPITAL,HOSPITAL1,1341,SL OB HOSPITALISTS,"190 E Bannock St, Boise, ID, 83712",-116.1924344,43.6125798,4
695,HOSPITAL,HOSPITAL1,1349,WOMEN'S SERVICES ADMIN,"190 E Bannock St, Boise, ID, 83712",-116.1924344,43.6125798,8
696,HOSPITAL,HOSPITAL1,1351,PEDIATRICS,"190 E Bannock St, Boise, ID, 83712",-116.1924344,43.6125798,96
697,HOSPITAL,HOSPITAL1,1381,PEDIATRIC HOSPITALIST,"190 E Bannock St, Boise, ID, 83712",-116.1924344,43.6125798,9
698,HOSPITAL,HOSPITAL1,1399,CHILDRENS SERVICES ADMIN,"190 E Bannock St, Boise, ID, 83712",-116.1924344,43.6125798,2
699,HOSPITAL,HOSPITAL1,1401,PICU,"190 E Bannock St, Boise, ID, 83712",-116.1924344,43.6125798,39
700,HOSPITAL,HOSPITAL1,1951,OUTPATIENT MED/SURG 4S,"190 E Bannock St, Boise, ID, 83712",-116.1924344,43.6125798,4
701,HOSPITAL,HOSPITAL1,1952,CARDIAC OBSERVATION UNIT,"190 E Bannock St, Boise, ID, 83712",-116.1924344,43.6125798,15
702,HOSPITAL,HOSPITAL1,2001,SURGICAL SERVICES,"190 E Bannock St, Boise, ID, 83712",-116.1924344,43.6125798,134
703,HOSPITAL,HOSPITAL1,2003,CARDIOVASCULAR SURGERY,"190 E Bannock St, Boise, ID, 83712",-116.1924344,43.6125798,24
704,HOSPITAL,HOSPITAL1,2005,SURGERY CENTER,"190 E Bannock St, Boise, ID, 83712",-116.1924344,43.6125798,5
705,HOSPITAL,HOSPITAL1,2006,SURGERY CENTER - RIVER ST,"190 E Bannock St, Boise, ID, 83712",-116.1924344,43.6125798,1
706,HOSPITAL,HOSPITAL1,2007,SURGERY CENTER - ROBBINS RD,"190 E Bannock St, Boise, ID, 83712",-116.1924344,43.6125798,2
707,HOSPITAL,HOSPITAL1,2009,HEME MALIGNANCIES,"190 E Bannock St, Boise, ID, 83712",-116.1924344,43.6125798,3
708,HOSPITAL,HOSPITAL1,2101,ANESTHESIOLOGY,"190 E Bannock St, Boise, ID, 83712",-116.1924344,43.6125798,17
709,HOSPITAL,HOSPITAL1,2201,PRE-ADMISSION TESTING,"190 E Bannock St, Boise, ID, 83712",-116.1924344,43.6125798,13
710,HOSPITAL,HOSPITAL1,2301,RECOVERY ROOM,"190 E Bannock St, Boise, ID, 83712",-116.1924344,43.6125798,114
711,HOSPITAL,HOSPITAL1,2498,BARIATRIC SERVICES ADMIN,"190 E Bannock St, Boise, ID, 83712",-116.1924344,43.6125798,4
712,HOSPITAL,HOSPITAL1,2499,SURGICAL SERVICES ADMIN,"190 E Bannock St, Boise, ID, 83712",-116.1924344,43.6125798,20
713,HOSPITAL,HOSPITAL1,2501,EMERGENCY DEPARTMENT,"190 E Bannock St, Boise, ID, 83712",-116.1924344,43.6125798,83
714,HOSPITAL,HOSPITAL1,2503,CHEST PAIN CENTER,"190 E Bannock St, Boise, ID, 83712",-116.1924344,43.6125798,4
715,HOSPITAL,HOSPITAL1,2601,HOME CARE,"190 E Bannock St, Boise, ID, 83712",-116.1924344,43.6125798,3
716,HOSPITAL,HOSPITAL1,2651,HOSPICE,"190 E Bannock St, Boise, ID, 83712",-116.1924344,43.6125798,8
717,HOSPITAL,HOSPITAL1,2701,AIR ST LUKE'S,"190 E Bannock St, Boise, ID, 83712",-116.1924344,43.6125798,2
718,HOSPITAL,HOSPITAL1,2799,AIR ST LUKE'S ADMINISTRATION,"190 E Bannock St, Boise, ID, 83712",-116.1924344,43.6125798,1
719,HOSPITAL,HOSPITAL1,3003,SL PSYCHIATRIC WELLNESS SRVCS,"190 E Bannock St, Boise, ID, 83712",-116.1924344,43.6125798,1
720,HOSPITAL,HOSPITAL1,3081,CLINICAL ONCOLOGY-BOISE,"190 E Bannock St, Boise, ID, 83712",-116.1924344,43.6125798,2
721,HOSPITAL,HOSPITAL1,3086,PEDIATRIC ONCOLOGY,"190 E Bannock St, Boise, ID, 83712",-116.1924344,43.6125798,1
722,HOSPITAL,HOSPITAL1,3121,CHEMO INFUSION-BOISE,"190 E Bannock St, Boise, ID, 83712",-116.1924344,43.6125798,2
723,HOSPITAL,HOSPITAL1,3201,PEDIATRIC CARDIOLOGY - BOISE,"190 E Bannock St, Boise, ID, 83712",-116.1924344,43.6125798,3
724,HOSPITAL,HOSPITAL1,3203,SL ID CARD ASSOC-BOISE,"190 E Bannock St, Boise, ID, 83712",-116.1924344,43.6125798,1
725,HOSPITAL,HOSPITAL1,3204,SL ID CARD ASSOC-MERIDIAN,"190 E Bannock St, Boise, ID, 83712",-116.1924344,43.6125798,2
726,HOSPITAL,HOSPITAL1,3206,SL BOISE HEART CLINIC,"190 E Bannock St, Boise, ID, 83712",-116.1924344,43.6125798,1
727,HOSPITAL,HOSPITAL1,3251,PEDIATRIC OTOLARYNGOLOGY,"190 E Bannock St, Boise, ID, 83712",-116.1924344,43.6125798,2
728,HOSPITAL,HOSPITAL1,3301,CAPITAL CITY FAMILY MEDICINE,"190 E Bannock St, Boise, ID, 83712",-116.1924344,43.6125798,1
729,HOSPITAL,HOSPITAL1,3303,SL FAMILY MEDICINE-BOISE,"190 E Bannock St, Boise, ID, 83712",-116.1924344,43.6125798,1
730,HOSPITAL,HOSPITAL1,3305,SL MOUNTAIN VIEW MEDICAL,"190 E Bannock St, Boise, ID, 83712",-116.1924344,43.6125798,1
731,HOSPITAL,HOSPITAL1,3307,SL FAMILY MEDICINE-EAGLE,"190 E Bannock St, Boise, ID, 83712",-116.1924344,43.6125798,2
732,HOSPITAL,HOSPITAL1,3351,SL TV PEDIATRICS-MERIDIAN,"190 E Bannock St, Boise, ID, 83712",-116.1924344,43.6125798,4
733,HOSPITAL,HOSPITAL1,3352,SL TV PEDIATRICS-BOISE,"190 E Bannock St, Boise, ID, 83712",-116.1924344,43.6125798,6
734,HOSPITAL,HOSPITAL1,3353,SL TV PEDIATRICS-EAGLE,"190 E Bannock St, Boise, ID, 83712",-116.1924344,43.6125798,2
735,HOSPITAL,HOSPITAL1,3402,SL INTERNAL MED-BOI PARK CTR,"190 E Bannock St, Boise, ID, 83712",-116.1924344,43.6125798,2
736,HOSPITAL,HOSPITAL1,3421,PEDIATRIC NEPHROLOGY,"190 E Bannock St, Boise, ID, 83712",-116.1924344,43.6125798,1
737,HOSPITAL,HOSPITAL1,3432,SL ENDOCRINOLOGY-BOISE,"190 E Bannock St, Boise, ID, 83712",-116.1924344,43.6125798,2
738,HOSPITAL,HOSPITAL1,3441,SL RHEUMATOLOGY-BOISE,"190 E Bannock St, Boise, ID, 83712",-116.1924344,43.6125798,1
739,HOSPITAL,HOSPITAL1,3454,SL REHAB NEURO ADULT-ROBBINS,"190 E Bannock St, Boise, ID, 83712",-116.1924344,43.6125798,2
740,HOSPITAL,HOSPITAL1,3501,SL IDAHO PULMONARY-MERID,"190 E Bannock St, Boise, ID, 83712",-116.1924344,43.6125798,1
741,HOSPITAL,HOSPITAL1,3502,PEDIATRIC PULMONOLOGY,"190 E Bannock St, Boise, ID, 83712",-116.1924344,43.6125798,1
742,HOSPITAL,HOSPITAL1,3551,PEDIATRIC PHYSIATRY,"190 E Bannock St, Boise, ID, 83712",-116.1924344,43.6125798,1
743,HOSPITAL,HOSPITAL1,3592,SL REHAB ADULT HAND - EAGLE RD,"190 E Bannock St, Boise, ID, 83712",-116.1924344,43.6125798,1
744,HOSPITAL,HOSPITAL1,3661,SL BARIATRICS & GEN SURGERY,"190 E Bannock St, Boise, ID, 83712",-116.1924344,43.6125798,2
745,HOSPITAL,HOSPITAL1,3673,SL NW NEUROSURGERY ASSOC,"190 E Bannock St, Boise, ID, 83712",-116.1924344,43.6125798,7
746,HOSPITAL,HOSPITAL1,3687,SL ORTHOPEDICS,"190 E Bannock St, Boise, ID, 83712",-116.1924344,43.6125798,2
747,HOSPITAL,HOSPITAL1,3752,MOUNTAIN STATES UROLOGY CTR,"190 E Bannock St, Boise, ID, 83712",-116.1924344,43.6125798,1
748,HOSPITAL,HOSPITAL1,3753,MOUNTAIN STATES UROLOGY-MERID,"190 E Bannock St, Boise, ID, 83712",-116.1924344,43.6125798,1
749,HOSPITAL,HOSPITAL1,3755,CALDWELL UROLOGY,"190 E Bannock St, Boise, ID, 83712",-116.1924344,43.6125798,1
750,HOSPITAL,HOSPITAL1,3803,SL OBSTETRICS & GYNECOLOGY,"190 E Bannock St, Boise, ID, 83712",-116.1924344,43.6125798,1
751,HOSPITAL,HOSPITAL1,3804,SL WOMAN'S CLINIC-BOI,"190 E Bannock St, Boise, ID, 83712",-116.1924344,43.6125798,4
752,HOSPITAL,HOSPITAL1,3821,SL NURSE MIDWIVES,"190 E Bannock St, Boise, ID, 83712",-116.1924344,43.6125798,1
753,HOSPITAL,HOSPITAL1,3831,MATERNAL FETAL MEDICINE-BOISE,"190 E Bannock St, Boise, ID, 83712",-116.1924344,43.6125798,7
754,HOSPITAL,HOSPITAL1,3872,WOUNDCARE-ROBBINS,"190 E Bannock St, Boise, ID, 83712",-116.1924344,43.6125798,2
755,HOSPITAL,HOSPITAL1,3873,WOUNDCARE-LOUISE,"190 E Bannock St, Boise, ID, 83712",-116.1924344,43.6125798,3
756,HOSPITAL,HOSPITAL1,3903,ID PEDIATRIC GASTROENTEROLOGY,"190 E Bannock St, Boise, ID, 83712",-116.1924344,43.6125798,6
757,HOSPITAL,HOSPITAL1,3907,SL CTR FOR PANCREATIC DISEASES,"190 E Bannock St, Boise, ID, 83712",-116.1924344,43.6125798,1
758,HOSPITAL,HOSPITAL1,3953,PALLIATIVE MEDICINE SVCS-MSTI,"190 E Bannock St, Boise, ID, 83712",-116.1924344,43.6125798,7
759,HOSPITAL,HOSPITAL1,4001,RADIOLOGY,"190 E Bannock St, Boise, ID, 83712",-116.1924344,43.6125798,42
760,HOSPITAL,HOSPITAL1,4002,INTERVENTIONAL RADIOLOGY,"190 E Bannock St, Boise, ID, 83712",-116.1924344,43.6125798,11
761,HOSPITAL,HOSPITAL1,4011,NUCLEAR MEDICINE,"190 E Bannock St, Boise, ID, 83712",-116.1924344,43.6125798,4
762,HOSPITAL,HOSPITAL1,4011,NUCLEAR MEDICINE-BOI SLICA,"190 E Bannock St, Boise, ID, 83712",-116.1924344,43.6125798,1
763,HOSPITAL,HOSPITAL1,4021,CT SCAN,"190 E Bannock St, Boise, ID, 83712",-116.1924344,43.6125798,6
764,HOSPITAL,HOSPITAL1,4031,MRI,"190 E Bannock St, Boise, ID, 83712",-116.1924344,43.6125798,7
765,HOSPITAL,HOSPITAL1,4041,ULTRASOUND,"190 E Bannock St, Boise, ID, 83712",-116.1924344,43.6125798,11
766,HOSPITAL,HOSPITAL1,4061,DIAGNOSTIC BREAST IMAGING,"190 E Bannock St, Boise, ID, 83712",-116.1924344,43.6125798,5
767,HOSPITAL,HOSPITAL1,4062,BCDC MAMMOGRAPHY,"190 E Bannock St, Boise, ID, 83712",-116.1924344,43.6125798,2
768,HOSPITAL,HOSPITAL1,4071,CENTRALIZED FILM DIGITIZING,"190 E Bannock St, Boise, ID, 83712",-116.1924344,43.6125798,1
769,HOSPITAL,HOSPITAL1,4072,IMAGING CENTER,"190 E Bannock St, Boise, ID, 83712",-116.1924344,43.6125798,3
770,HOSPITAL,HOSPITAL1,4072,ST LUKE'S IMAGING CTR-PORTICO,"190 E Bannock St, Boise, ID, 83712",-116.1924344,43.6125798,4
771,HOSPITAL,HOSPITAL1,4098,BREAST CARE SERVICES ADMIN,"190 E Bannock St, Boise, ID, 83712",-116.1924344,43.6125798,3
772,HOSPITAL,HOSPITAL1,4099,IMAGING SERVICES ADMIN,"190 E Bannock St, Boise, ID, 83712",-116.1924344,43.6125798,29
773,HOSPITAL,HOSPITAL1,4201,LABORATORY,"190 E Bannock St, Boise, ID, 83712",-116.1924344,43.6125798,78
774,HOSPITAL,HOSPITAL1,4211,ANATOMIC CYTOLOGY SERVICES,"190 E Bannock St, Boise, ID, 83712",-116.1924344,43.6125798,22
775,HOSPITAL,HOSPITAL1,4221,MICROBIOLOGY,"190 E Bannock St, Boise, ID, 83712",-116.1924344,43.6125798,1
776,HOSPITAL,HOSPITAL1,4301,REHABILITATION,"190 E Bannock St, Boise, ID, 83712",-116.1924344,43.6125798,44
777,HOSPITAL,HOSPITAL1,4305,ATHLETIC TRAINING,"190 E Bannock St, Boise, ID, 83712",-116.1924344,43.6125798,6
778,HOSPITAL,HOSPITAL1,4321,CARDIAC REHABILITATION,"190 E Bannock St, Boise, ID, 83712",-116.1924344,43.6125798,10
779,HOSPITAL,HOSPITAL1,4331,SL REHAB OUTPATIENT ADMIN,"190 E Bannock St, Boise, ID, 83712",-116.1924344,43.6125798,1
780,HOSPITAL,HOSPITAL1,4401,RESPIRATORY THERAPY,"190 E Bannock St, Boise, ID, 83712",-116.1924344,43.6125798,99
781,HOSPITAL,HOSPITAL1,4801,ECHO,"190 E Bannock St, Boise, ID, 83712",-116.1924344,43.6125798,20
782,HOSPITAL,HOSPITAL1,4802,PERIPHERAL VASCULAR LAB,"190 E Bannock St, Boise, ID, 83712",-116.1924344,43.6125798,12
783,HOSPITAL,HOSPITAL1,4811,EKG,"190 E Bannock St, Boise, ID, 83712",-116.1924344,43.6125798,7
784,HOSPITAL,HOSPITAL1,4812,CARDIOPULMONARY SERVICES,"190 E Bannock St, Boise, ID, 83712",-116.1924344,43.6125798,3
785,HOSPITAL,HOSPITAL1,4813,CARDIAC PROCEDURES,"190 E Bannock St, Boise, ID, 83712",-116.1924344,43.6125798,20
786,HOSPITAL,HOSPITAL1,4821,ENDOSCOPY,"190 E Bannock St, Boise, ID, 83712",-116.1924344,43.6125798,19
787,HOSPITAL,HOSPITAL1,4825,EEG,"190 E Bannock St, Boise, ID, 83712",-116.1924344,43.6125798,4
788,HOSPITAL,HOSPITAL1,4834,INFUSION CENTER,"190 E Bannock St, Boise, ID, 83712",-116.1924344,43.6125798,5
789,HOSPITAL,HOSPITAL1,5001,SOCIAL SERVICES,"190 E Bannock St, Boise, ID, 83712",-116.1924344,43.6125798,27
790,HOSPITAL,HOSPITAL1,5012,CHILDLIFE,"190 E Bannock St, Boise, ID, 83712",-116.1924344,43.6125798,7
791,HOSPITAL,HOSPITAL1,5021,SPIRITUAL CARE,"190 E Bannock St, Boise, ID, 83712",-116.1924344,43.6125798,10
792,HOSPITAL,HOSPITAL1,5022,SPIRITUAL CARE CPE,"190 E Bannock St, Boise, ID, 83712",-116.1924344,43.6125798,7
793,HOSPITAL,HOSPITAL1,5039,CLINICAL TELEHEALTH SERVICES,"190 E Bannock St, Boise, ID, 83712",-116.1924344,43.6125798,1
794,HOSPITAL,HOSPITAL1,5051,PHARMACY,"190 E Bannock St, Boise, ID, 83712",-116.1924344,43.6125798,77
795,HOSPITAL,HOSPITAL1,5052,OUTPATIENT PHARMACY,"190 E Bannock St, Boise, ID, 83712",-116.1924344,43.6125798,14
796,HOSPITAL,HOSPITAL1,5053,RETAIL PHARMACY,"190 E Bannock St, Boise, ID, 83712",-116.1924344,43.6125798,1
797,HOSPITAL,HOSPITAL1,5071,ANTICOAGULATION CLINIC,"190 E Bannock St, Boise, ID, 83712",-116.1924344,43.6125798,1
798,HOSPITAL,HOSPITAL1,5096,PHARMACY PRACTICE RESIDENCY,"190 E Bannock St, Boise, ID, 83712",-116.1924344,43.6125798,2
799,HOSPITAL,HOSPITAL1,5097,ONCOLOGY PHARMACY RESIDENCY,"190 E Bannock St, Boise, ID, 83712",-116.1924344,43.6125798,2
800,HOSPITAL,HOSPITAL1,5098,340B PHARMACY,"190 E Bannock St, Boise, ID, 83712",-116.1924344,43.6125798,4
801,HOSPITAL,HOSPITAL1,5099,PHARMACY ADMINISTRATION,"190 E Bannock St, Boise, ID, 83712",-116.1924344,43.6125798,8
802,HOSPITAL,HOSPITAL1,5101,INTERNAL TRANSPORTATION,"190 E Bannock St, Boise, ID, 83712",-116.1924344,43.6125798,90
803,HOSPITAL,HOSPITAL1,5103,TRANSFER CENTER,"190 E Bannock St, Boise, ID, 83712",-116.1924344,43.6125798,3
804,HOSPITAL,HOSPITAL1,5151,CENTRAL STERILE PROCESSING,"190 E Bannock St, Boise, ID, 83712",-116.1924344,43.6125798,40
805,HOSPITAL,HOSPITAL1,5202,DISTRIBUTION-MM,"190 E Bannock St, Boise, ID, 83712",-116.1924344,43.6125798,26
806,HOSPITAL,HOSPITAL1,5203,LOGISTICS OPERATIONS,"190 E Bannock St, Boise, ID, 83712",-116.1924344,43.6125798,1
807,HOSPITAL,HOSPITAL1,5204,SUPPLY CHAIN MANAGEMENT,"190 E Bannock St, Boise, ID, 83712",-116.1924344,43.6125798,2
808,HOSPITAL,HOSPITAL1,5251,FOOD & NUTRITION,"190 E Bannock St, Boise, ID, 83712",-116.1924344,43.6125798,86
809,HOSPITAL,HOSPITAL1,5252,FOOD & NUTRITION - SHORELINE,"190 E Bannock St, Boise, ID, 83712",-116.1924344,43.6125798,1
810,HOSPITAL,HOSPITAL1,5261,CLINICAL NUTRITIONAL SERVICES,"190 E Bannock St, Boise, ID, 83712",-116.1924344,43.6125798,5
811,HOSPITAL,HOSPITAL1,5299,FOOD & NUTRITION ADMIN,"190 E Bannock St, Boise, ID, 83712",-116.1924344,43.6125798,16
812,HOSPITAL,HOSPITAL1,5302,ENVIRONMENTAL SERVICES,"190 E Bannock St, Boise, ID, 83712",-116.1924344,43.6125798,70
813,HOSPITAL,HOSPITAL1,5321,SECURITY,"190 E Bannock St, Boise, ID, 83712",-116.1924344,43.6125798,11
814,HOSPITAL,HOSPITAL1,5331,CLINICAL ENGINEERING,"190 E Bannock St, Boise, ID, 83712",-116.1924344,43.6125798,18
815,HOSPITAL,HOSPITAL1,5398,CONSTRUCTION ADMINISTRATION,"190 E Bannock St, Boise, ID, 83712",-116.1924344,43.6125798,1
816,HOSPITAL,HOSPITAL1,5399,BUILDING SERVICES ADMIN,"190 E Bannock St, Boise, ID, 83712",-116.1924344,43.6125798,1
817,HOSPITAL,HOSPITAL1,5404,IT ACUTE CARE SERVICES,"190 E Bannock St, Boise, ID, 83712",-116.1924344,43.6125798,1
818,HOSPITAL,HOSPITAL1,5405,IHT EHR SERVICES,"190 E Bannock St, Boise, ID, 83712",-116.1924344,43.6125798,10
819,HOSPITAL,HOSPITAL1,6003,SLR RHEUM/ONS/WOUND STUDIES,"190 E Bannock St, Boise, ID, 83712",-116.1924344,43.6125798,1
820,HOSPITAL,HOSPITAL1,6501,MEDICAL TRANSCRIPTION,"190 E Bannock St, Boise, ID, 83712",-116.1924344,43.6125798,1
821,HOSPITAL,HOSPITAL1,6513,HEALTH INFO MGMT SERVICES,"190 E Bannock St, Boise, ID, 83712",-116.1924344,43.6125798,25
822,HOSPITAL,HOSPITAL1,6513,HIM-MSTI-BOISE,"190 E Bannock St, Boise, ID, 83712",-116.1924344,43.6125798,3
823,HOSPITAL,HOSPITAL1,6531,CLINICAL DOCUMENTATION IMPROV,"190 E Bannock St, Boise, ID, 83712",-116.1924344,43.6125798,14
824,HOSPITAL,HOSPITAL1,6551,CASE MANAGEMENT,"190 E Bannock St, Boise, ID, 83712",-116.1924344,43.6125798,40
825,HOSPITAL,HOSPITAL1,6553,QUALITY & PATIENT SAFETY,"190 E Bannock St, Boise, ID, 83712",-116.1924344,43.6125798,6
826,HOSPITAL,HOSPITAL1,6601,ADMINISTRATION,"190 E Bannock St, Boise, ID, 83712",-116.1924344,43.6125798,6
827,HOSPITAL,HOSPITAL1,6601,EXECUTIVE OFFICE,"190 E Bannock St, Boise, ID, 83712",-116.1924344,43.6125798,7
828,HOSPITAL,HOSPITAL1,6602,CSC ADMIN,"190 E Bannock St, Boise, ID, 83712",-116.1924344,43.6125798,8
829,HOSPITAL,HOSPITAL1,6612,SLHP ADMIN,"190 E Bannock St, Boise, ID, 83712",-116.1924344,43.6125798,1
830,HOSPITAL,HOSPITAL1,6701,MEDICAL STAFF OFFICE,"190 E Bannock St, Boise, ID, 83712",-116.1924344,43.6125798,9
831,HOSPITAL,HOSPITAL1,6702,CENTRALIZED VERIFICATION ORG,"190 E Bannock St, Boise, ID, 83712",-116.1924344,43.6125798,1
832,HOSPITAL,HOSPITAL1,6751,CLINICAL SUPPORT,"190 E Bannock St, Boise, ID, 83712",-116.1924344,43.6125798,138
833,HOSPITAL,HOSPITAL1,6771,ACCREDITATION,"190 E Bannock St, Boise, ID, 83712",-116.1924344,43.6125798,2
834,HOSPITAL,HOSPITAL1,6791,CENTER FOR NURSING EXCELLENCE,"190 E Bannock St, Boise, ID, 83712",-116.1924344,43.6125798,12
835,HOSPITAL,HOSPITAL1,6799,NURSING  ADMINISTRATION,"190 E Bannock St, Boise, ID, 83712",-116.1924344,43.6125798,25
836,HOSPITAL,HOSPITAL1,6801,CLINICAL EDUCATION,"190 E Bannock St, Boise, ID, 83712",-116.1924344,43.6125798,5
837,HOSPITAL,HOSPITAL1,6816,NIDCAP TRAINING CENTER,"190 E Bannock St, Boise, ID, 83712",-116.1924344,43.6125798,1
838,HOSPITAL,HOSPITAL1,6890,ACADEMIC AND CAREER PLANNING,"190 E Bannock St, Boise, ID, 83712",-116.1924344,43.6125798,1
839,HOSPITAL,HOSPITAL1,6891,CONFERENCE & MEETING SERVICES,"190 E Bannock St, Boise, ID, 83712",-116.1924344,43.6125798,4
840,HOSPITAL,HOSPITAL1,6892,ORGANIZATIONAL DEVELOPMENT,"190 E Bannock St, Boise, ID, 83712",-116.1924344,43.6125798,5
841,HOSPITAL,HOSPITAL1,6893,LEARNING SOLUTIONS,"190 E Bannock St, Boise, ID, 83712",-116.1924344,43.6125798,2
842,HOSPITAL,HOSPITAL1,6894,EDUCATION,"190 E Bannock St, Boise, ID, 83712",-116.1924344,43.6125798,6
843,HOSPITAL,HOSPITAL1,6901,HUMAN RESOURCES,"190 E Bannock St, Boise, ID, 83712",-116.1924344,43.6125798,2
844,HOSPITAL,HOSPITAL1,6904,PHYSICIAN RECRUITING,"190 E Bannock St, Boise, ID, 83712",-116.1924344,43.6125798,3
845,HOSPITAL,HOSPITAL1,6905,PHYSICIAN LIAISON PROGRAM,"190 E Bannock St, Boise, ID, 83712",-116.1924344,43.6125798,3
846,HOSPITAL,HOSPITAL1,6915,EMPLOYEE HEALTH SOLUTIONS,"190 E Bannock St, Boise, ID, 83712",-116.1924344,43.6125798,5
847,HOSPITAL,HOSPITAL1,6953,CARES PROGRAM,"190 E Bannock St, Boise, ID, 83712",-116.1924344,43.6125798,1
848,HOSPITAL,HOSPITAL1,6955,PEDS EDUC PARTNER PROG (PEPP),"190 E Bannock St, Boise, ID, 83712",-116.1924344,43.6125798,1
849,HOSPITAL,HOSPITAL1,6956,CHILDREN'S HOSPITAL SCHOOL,"190 E Bannock St, Boise, ID, 83712",-116.1924344,43.6125798,2
850,HOSPITAL,HOSPITAL1,6981,CONSUMER ENGAGEMENT & WELLNESS,"190 E Bannock St, Boise, ID, 83712",-116.1924344,43.6125798,1
851,HOSPITAL,HOSPITAL1,7509,ORTHO NEURO MSO SUPPORT,"190 E Bannock St, Boise, ID, 83712",-116.1924344,43.6125798,2
852,HOSPITAL,HOSPITAL1,8001,VOLUNTEERS,"190 E Bannock St, Boise, ID, 83712",-116.1924344,43.6125798,6
853,HOSPITAL,HOSPITAL1,8002,INFORMATION STATION,"190 E Bannock St, Boise, ID, 83712",-116.1924344,43.6125798,16
854,HOSPITAL,HOSPITAL1,8004,ST LUKES CONNECT,"190 E Bannock St, Boise, ID, 83712",-116.1924344,43.6125798,14
855,HOSPITAL,HOSPITAL1,8005,CULTURAL AND LANGUAGE SERVICES,"190 E Bannock St, Boise, ID, 83712",-116.1924344,43.6125798,5
856,HOSPITAL,HOSPITAL1,8101,PATIENT SUPPORT-MSTI MER,"190 E Bannock St, Boise, ID, 83712",-116.1924344,43.6125798,2
857,HOSPITAL,HOSPITAL1,8103,PATIENT SUPPORT-MSTI NAMPA,"190 E Bannock St, Boise, ID, 83712",-116.1924344,43.6125798,1
858,HOSPITAL,HOSPITAL1,8502,SBO CUSTOMER SERVICE,"190 E Bannock St, Boise, ID, 83712",-116.1924344,43.6125798,2
859,HOSPITAL,HOSPITAL1,8507,PFS CHARGE CAPTURE,"190 E Bannock St, Boise, ID, 83712",-116.1924344,43.6125798,9
860,HOSPITAL,HOSPITAL1,8510,CMS INNOV CONTRACT-BILLABLE,"190 E Bannock St, Boise, ID, 83712",-116.1924344,43.6125798,18
861,HOSPITAL,HOSPITAL1,8511,CMS INNOV CONTRACT-VICU OPS,"190 E Bannock St, Boise, ID, 83712",-116.1924344,43.6125798,1
862,HOSPITAL,HOSPITAL1,8601,PATIENT ACCESS,"190 E Bannock St, Boise, ID, 83712",-116.1924344,43.6125798,38
863,HOSPITAL,HOSPITAL1,8601,PATIENT REGISTRATION,"190 E Bannock St, Boise, ID, 83712",-116.1924344,43.6125798,2
864,HOSPITAL,HOSPITAL1,8602,FINANCIAL RESOURCE CENTER,"190 E Bannock St, Boise, ID, 83712",-116.1924344,43.6125798,6
865,HOSPITAL,HOSPITAL1,8699,PATIENT ACCESS ADMINISTRATION,"190 E Bannock St, Boise, ID, 83712",-116.1924344,43.6125798,7
866,HOSPITAL,HOSPITAL1,8702,IHT ENTERPRISE DECISION SUPP,"190 E Bannock St, Boise, ID, 83712",-116.1924344,43.6125798,1
867,HOSPITAL,HOSPITAL2,1051,MEDICAL INTENSIVE CARE UNIT,"520 S Eagle, Meridian, ID, 83642",-116.3524898,43.5993675,1
868,HOSPITAL,HOSPITAL2,1052,TELEMETRY 7E,"520 S Eagle, Meridian, ID, 83642",-116.3524898,43.5993675,1
869,HOSPITAL,HOSPITAL2,1053,TELEMETRY,"520 S Eagle, Meridian, ID, 83642",-116.3524898,43.5993675,68
870,HOSPITAL,HOSPITAL2,1101,INTENSIVE CARE UNIT,"520 S Eagle, Meridian, ID, 83642",-116.3524898,43.5993675,49
871,HOSPITAL,HOSPITAL2,1101,SURGICAL INTENSIVE CARE UNIT,"520 S Eagle, Meridian, ID, 83642",-116.3524898,43.5993675,2
872,HOSPITAL,HOSPITAL2,1201,MEDICAL / SURGICAL 5,"520 S Eagle, Meridian, ID, 83642",-116.3524898,43.5993675,74
873,HOSPITAL,HOSPITAL2,1202,MEDICAL / SURGICAL 6,"520 S Eagle, Meridian, ID, 83642",-116.3524898,43.5993675,76
874,HOSPITAL,HOSPITAL2,1203,MEDICAL / SURGICAL NEURO,"520 S Eagle, Meridian, ID, 83642",-116.3524898,43.5993675,1
875,HOSPITAL,HOSPITAL2,1204,MEDICAL / SURGICAL ONCOLOGY,"520 S Eagle, Meridian, ID, 83642",-116.3524898,43.5993675,1
876,HOSPITAL,HOSPITAL2,1205,MEDICAL / SURGICAL WOMEN'S,"520 S Eagle, Meridian, ID, 83642",-116.3524898,43.5993675,1
877,HOSPITAL,HOSPITAL2,1252,NICU LEVEL II,"520 S Eagle, Meridian, ID, 83642",-116.3524898,43.5993675,25
878,HOSPITAL,HOSPITAL2,1302,MOTHER / BABY,"520 S Eagle, Meridian, ID, 83642",-116.3524898,43.5993675,33
879,HOSPITAL,HOSPITAL2,1303,LABOR AND DELIVERY,"520 S Eagle, Meridian, ID, 83642",-116.3524898,43.5993675,44
880,HOSPITAL,HOSPITAL2,1349,WOMEN'S SERVICES ADMIN,"520 S Eagle, Meridian, ID, 83642",-116.3524898,43.5993675,1
881,HOSPITAL,HOSPITAL2,1351,PEDIATRICS,"520 S Eagle, Meridian, ID, 83642",-116.3524898,43.5993675,9
882,HOSPITAL,HOSPITAL2,1952,CARDIAC OBSERVATION UNIT,"520 S Eagle, Meridian, ID, 83642",-116.3524898,43.5993675,1
883,HOSPITAL,HOSPITAL2,1952,CORONARY OBSERVATION UNIT,"520 S Eagle, Meridian, ID, 83642",-116.3524898,43.5993675,4
884,HOSPITAL,HOSPITAL2,2001,SURGICAL SERVICES,"520 S Eagle, Meridian, ID, 83642",-116.3524898,43.5993675,65
885,HOSPITAL,HOSPITAL2,2005,SURGERY CENTER,"520 S Eagle, Meridian, ID, 83642",-116.3524898,43.5993675,11
886,HOSPITAL,HOSPITAL2,2007,SURGERY CENTER - ROBBINS RD,"520 S Eagle, Meridian, ID, 83642",-116.3524898,43.5993675,1
887,HOSPITAL,HOSPITAL2,2101,ANESTHESIOLOGY,"520 S Eagle, Meridian, ID, 83642",-116.3524898,43.5993675,1
888,HOSPITAL,HOSPITAL2,2201,PRE-ADMISSION TESTING,"520 S Eagle, Meridian, ID, 83642",-116.3524898,43.5993675,13
889,HOSPITAL,HOSPITAL2,2301,RECOVERY ROOM,"520 S Eagle, Meridian, ID, 83642",-116.3524898,43.5993675,42
890,HOSPITAL,HOSPITAL2,2498,BARIATRIC SERVICES ADMIN,"520 S Eagle, Meridian, ID, 83642",-116.3524898,43.5993675,1
891,HOSPITAL,HOSPITAL2,2499,SURGICAL SERVICES ADMIN,"520 S Eagle, Meridian, ID, 83642",-116.3524898,43.5993675,12
892,HOSPITAL,HOSPITAL2,2501,EMERGENCY DEPARTMENT,"520 S Eagle, Meridian, ID, 83642",-116.3524898,43.5993675,94
893,HOSPITAL,HOSPITAL2,2503,CHEST PAIN CENTER,"520 S Eagle, Meridian, ID, 83642",-116.3524898,43.5993675,4
894,HOSPITAL,HOSPITAL2,2601,HOME CARE,"520 S Eagle, Meridian, ID, 83642",-116.3524898,43.5993675,2
895,HOSPITAL,HOSPITAL2,2651,HOSPICE,"520 S Eagle, Meridian, ID, 83642",-116.3524898,43.5993675,3
896,HOSPITAL,HOSPITAL2,2701,AIR ST LUKE'S,"520 S Eagle, Meridian, ID, 83642",-116.3524898,43.5993675,15
897,HOSPITAL,HOSPITAL2,3052,RADIATION ONCOLOGY-MERIDIAN,"520 S Eagle, Meridian, ID, 83642",-116.3524898,43.5993675,3
898,HOSPITAL,HOSPITAL2,3082,CLINICAL ONCOLOGY-MERIDIAN,"520 S Eagle, Meridian, ID, 83642",-116.3524898,43.5993675,15
899,HOSPITAL,HOSPITAL2,3086,PEDIATRIC ONCOLOGY,"520 S Eagle, Meridian, ID, 83642",-116.3524898,43.5993675,1
900,HOSPITAL,HOSPITAL2,3102,PHYSICS-MERIDIAN,"520 S Eagle, Meridian, ID, 83642",-116.3524898,43.5993675,1
901,HOSPITAL,HOSPITAL2,3121,CHEMO INFUSION-BOISE,"520 S Eagle, Meridian, ID, 83642",-116.3524898,43.5993675,1
902,HOSPITAL,HOSPITAL2,3122,CHEMO INFUSION-MERIDIAN,"520 S Eagle, Meridian, ID, 83642",-116.3524898,43.5993675,15
903,HOSPITAL,HOSPITAL2,3124,CHEMO INFUSION-NAMPA,"520 S Eagle, Meridian, ID, 83642",-116.3524898,43.5993675,1
904,HOSPITAL,HOSPITAL2,3203,SL ID CARD ASSOC-BOISE,"520 S Eagle, Meridian, ID, 83642",-116.3524898,43.5993675,1
905,HOSPITAL,HOSPITAL2,3204,SL ID CARD ASSOC-MERIDIAN,"520 S Eagle, Meridian, ID, 83642",-116.3524898,43.5993675,1
906,HOSPITAL,HOSPITAL2,3206,SL BOISE HEART CLINIC,"520 S Eagle, Meridian, ID, 83642",-116.3524898,43.5993675,1
907,HOSPITAL,HOSPITAL2,3305,SL MOUNTAIN VIEW MEDICAL,"520 S Eagle, Meridian, ID, 83642",-116.3524898,43.5993675,2
908,HOSPITAL,HOSPITAL2,3306,SL FAMILY HLTH-BOI HOSPITALITY,"520 S Eagle, Meridian, ID, 83642",-116.3524898,43.5993675,1
909,HOSPITAL,HOSPITAL2,3307,SL FAMILY MEDICINE-EAGLE,"520 S Eagle, Meridian, ID, 83642",-116.3524898,43.5993675,2
910,HOSPITAL,HOSPITAL2,3315,SL TRAVEL MEDICINE CLINIC,"520 S Eagle, Meridian, ID, 83642",-116.3524898,43.5993675,2
911,HOSPITAL,HOSPITAL2,3317,SL ADA MEDICAL ASSOCIATES,"520 S Eagle, Meridian, ID, 83642",-116.3524898,43.5993675,11
912,HOSPITAL,HOSPITAL2,3351,SL TV PEDIATRICS-MERIDIAN,"520 S Eagle, Meridian, ID, 83642",-116.3524898,43.5993675,1
913,HOSPITAL,HOSPITAL2,3352,SL TV PEDIATRICS-BOISE,"520 S Eagle, Meridian, ID, 83642",-116.3524898,43.5993675,1
914,HOSPITAL,HOSPITAL2,3403,SL INTERNAL MEDICINE-MERID,"520 S Eagle, Meridian, ID, 83642",-116.3524898,43.5993675,34
915,HOSPITAL,HOSPITAL2,3405,SL INTERNAL MEDICINE-EAGLE,"520 S Eagle, Meridian, ID, 83642",-116.3524898,43.5993675,1
916,HOSPITAL,HOSPITAL2,3432,SL ENDOCRINOLOGY-BOISE,"520 S Eagle, Meridian, ID, 83642",-116.3524898,43.5993675,2
917,HOSPITAL,HOSPITAL2,3441,SL RHEUMATOLOGY-BOISE,"520 S Eagle, Meridian, ID, 83642",-116.3524898,43.5993675,10
918,HOSPITAL,HOSPITAL2,3442,SL RHEUMATOLOGY-MERIDIAN,"520 S Eagle, Meridian, ID, 83642",-116.3524898,43.5993675,13
919,HOSPITAL,HOSPITAL2,3451,SL NEUROLOGY CLINIC-BOISE,"520 S Eagle, Meridian, ID, 83642",-116.3524898,43.5993675,4
920,HOSPITAL,HOSPITAL2,3501,SL IDAHO PULMONARY-MERID,"520 S Eagle, Meridian, ID, 83642",-116.3524898,43.5993675,2
921,HOSPITAL,HOSPITAL2,3570,SL REHAB ADULT-ROBBINS,"520 S Eagle, Meridian, ID, 83642",-116.3524898,43.5993675,1
922,HOSPITAL,HOSPITAL2,3575,SL REHAB ADULT - EAGLE RD,"520 S Eagle, Meridian, ID, 83642",-116.3524898,43.5993675,14
923,HOSPITAL,HOSPITAL2,3592,SL REHAB ADULT HAND - EAGLE RD,"520 S Eagle, Meridian, ID, 83642",-116.3524898,43.5993675,1
924,HOSPITAL,HOSPITAL2,3603,SL REHAB CHILDREN'S - LOUISE,"520 S Eagle, Meridian, ID, 83642",-116.3524898,43.5993675,1
925,HOSPITAL,HOSPITAL2,3654,SL BOISE SURGICAL GROUP-MERID,"520 S Eagle, Meridian, ID, 83642",-116.3524898,43.5993675,1
926,HOSPITAL,HOSPITAL2,3661,SL BARIATRICS & GEN SURGERY,"520 S Eagle, Meridian, ID, 83642",-116.3524898,43.5993675,3
927,HOSPITAL,HOSPITAL2,3664,SL ADVANCED LAPAROSCOPIC SURG,"520 S Eagle, Meridian, ID, 83642",-116.3524898,43.5993675,1
928,HOSPITAL,HOSPITAL2,3686,SL ORTHOPEDIC SURGERY,"520 S Eagle, Meridian, ID, 83642",-116.3524898,43.5993675,4
929,HOSPITAL,HOSPITAL2,3687,SL ORTHOPEDICS,"520 S Eagle, Meridian, ID, 83642",-116.3524898,43.5993675,28
930,HOSPITAL,HOSPITAL2,3752,MOUNTAIN STATES UROLOGY CTR,"520 S Eagle, Meridian, ID, 83642",-116.3524898,43.5993675,2
931,HOSPITAL,HOSPITAL2,3753,MOUNTAIN STATES UROLOGY-MERID,"520 S Eagle, Meridian, ID, 83642",-116.3524898,43.5993675,28
932,HOSPITAL,HOSPITAL2,3755,CALDWELL UROLOGY,"520 S Eagle, Meridian, ID, 83642",-116.3524898,43.5993675,1
933,HOSPITAL,HOSPITAL2,3756,PEDIATRIC UROLOGY,"520 S Eagle, Meridian, ID, 83642",-116.3524898,43.5993675,3
934,HOSPITAL,HOSPITAL2,3803,SL OBSTETRICS & GYNECOLOGY,"520 S Eagle, Meridian, ID, 83642",-116.3524898,43.5993675,1
935,HOSPITAL,HOSPITAL2,3804,SL WOMAN'S CLINIC-BOI,"520 S Eagle, Meridian, ID, 83642",-116.3524898,43.5993675,4
936,HOSPITAL,HOSPITAL2,3821,SL NURSE MIDWIVES,"520 S Eagle, Meridian, ID, 83642",-116.3524898,43.5993675,3
937,HOSPITAL,HOSPITAL2,3831,MATERNAL FETAL MEDICINE-BOISE,"520 S Eagle, Meridian, ID, 83642",-116.3524898,43.5993675,1
938,HOSPITAL,HOSPITAL2,3851,SL HUMPHREYS DIABETES-BOI,"520 S Eagle, Meridian, ID, 83642",-116.3524898,43.5993675,5
939,HOSPITAL,HOSPITAL2,3855,SL CLINIC-PODIATRY,"520 S Eagle, Meridian, ID, 83642",-116.3524898,43.5993675,10
940,HOSPITAL,HOSPITAL2,3873,WOUNDCARE-LOUISE,"520 S Eagle, Meridian, ID, 83642",-116.3524898,43.5993675,1
941,HOSPITAL,HOSPITAL2,3904,SL PERIOPERATIVE MEDICINE,"520 S Eagle, Meridian, ID, 83642",-116.3524898,43.5993675,1
942,HOSPITAL,HOSPITAL2,3952,INTEGRATIVE MEDICINE-MSTI,"520 S Eagle, Meridian, ID, 83642",-116.3524898,43.5993675,1
943,HOSPITAL,HOSPITAL2,3954,SL PAIN MANAGEMENT,"520 S Eagle, Meridian, ID, 83642",-116.3524898,43.5993675,6
944,HOSPITAL,HOSPITAL2,3960,HEARING & BALANCE-510N,"520 S Eagle, Meridian, ID, 83642",-116.3524898,43.5993675,1
945,HOSPITAL,HOSPITAL2,3961,HEARING & BALANCE - EAGLE RD,"520 S Eagle, Meridian, ID, 83642",-116.3524898,43.5993675,9
946,HOSPITAL,HOSPITAL2,4001,RADIOLOGY,"520 S Eagle, Meridian, ID, 83642",-116.3524898,43.5993675,26
947,HOSPITAL,HOSPITAL2,4011,NUCLEAR MEDICINE,"520 S Eagle, Meridian, ID, 83642",-116.3524898,43.5993675,3
948,HOSPITAL,HOSPITAL2,4021,CT SCAN,"520 S Eagle, Meridian, ID, 83642",-116.3524898,43.5993675,13
949,HOSPITAL,HOSPITAL2,4031,MRI,"520 S Eagle, Meridian, ID, 83642",-116.3524898,43.5993675,6
950,HOSPITAL,HOSPITAL2,4041,ULTRASOUND,"520 S Eagle, Meridian, ID, 83642",-116.3524898,43.5993675,8
951,HOSPITAL,HOSPITAL2,4062,BCDC MAMMOGRAPHY,"520 S Eagle, Meridian, ID, 83642",-116.3524898,43.5993675,3
952,HOSPITAL,HOSPITAL2,4072,ST LUKE'S IMAGING CENTER,"520 S Eagle, Meridian, ID, 83642",-116.3524898,43.5993675,4
953,HOSPITAL,HOSPITAL2,4072,ST LUKE'S IMAGING CTR-PORTICO,"520 S Eagle, Meridian, ID, 83642",-116.3524898,43.5993675,4
954,HOSPITAL,HOSPITAL2,4098,BREAST CARE SERVICES ADMIN,"520 S Eagle, Meridian, ID, 83642",-116.3524898,43.5993675,6
955,HOSPITAL,HOSPITAL2,4099,IMAGING SERVICES ADMIN,"520 S Eagle, Meridian, ID, 83642",-116.3524898,43.5993675,12
956,HOSPITAL,HOSPITAL2,4101,OCC HEALTH SERVICES BOISE,"520 S Eagle, Meridian, ID, 83642",-116.3524898,43.5993675,5
957,HOSPITAL,HOSPITAL2,4201,LABORATORY,"520 S Eagle, Meridian, ID, 83642",-116.3524898,43.5993675,37
958,HOSPITAL,HOSPITAL2,4301,REHABILITATION,"520 S Eagle, Meridian, ID, 83642",-116.3524898,43.5993675,14
959,HOSPITAL,HOSPITAL2,4305,ATHLETIC TRAINING,"520 S Eagle, Meridian, ID, 83642",-116.3524898,43.5993675,5
960,HOSPITAL,HOSPITAL2,4321,CARDIAC REHABILITATION,"520 S Eagle, Meridian, ID, 83642",-116.3524898,43.5993675,5
961,HOSPITAL,HOSPITAL2,4401,RESPIRATORY THERAPY,"520 S Eagle, Meridian, ID, 83642",-116.3524898,43.5993675,40
962,HOSPITAL,HOSPITAL2,4801,ECHO,"520 S Eagle, Meridian, ID, 83642",-116.3524898,43.5993675,3
963,HOSPITAL,HOSPITAL2,4802,PERIPHERAL VASCULAR LAB,"520 S Eagle, Meridian, ID, 83642",-116.3524898,43.5993675,4
964,HOSPITAL,HOSPITAL2,4811,EKG,"520 S Eagle, Meridian, ID, 83642",-116.3524898,43.5993675,2
965,HOSPITAL,HOSPITAL2,4812,CARDIOPULMONARY SERVICES,"520 S Eagle, Meridian, ID, 83642",-116.3524898,43.5993675,1
966,HOSPITAL,HOSPITAL2,4813,CARDIAC PROCEDURES,"520 S Eagle, Meridian, ID, 83642",-116.3524898,43.5993675,4
967,HOSPITAL,HOSPITAL2,4821,ENDOSCOPY,"520 S Eagle, Meridian, ID, 83642",-116.3524898,43.5993675,18
968,HOSPITAL,HOSPITAL2,4834,INFUSION CENTER,"520 S Eagle, Meridian, ID, 83642",-116.3524898,43.5993675,8
969,HOSPITAL,HOSPITAL2,5001,SOCIAL SERVICES,"520 S Eagle, Meridian, ID, 83642",-116.3524898,43.5993675,8
970,HOSPITAL,HOSPITAL2,5051,PHARMACY,"520 S Eagle, Meridian, ID, 83642",-116.3524898,43.5993675,30
971,HOSPITAL,HOSPITAL2,5052,OUTPATIENT PHARMACY,"520 S Eagle, Meridian, ID, 83642",-116.3524898,43.5993675,1
972,HOSPITAL,HOSPITAL2,5053,RETAIL PHARMACY,"520 S Eagle, Meridian, ID, 83642",-116.3524898,43.5993675,10
973,HOSPITAL,HOSPITAL2,5071,ANTICOAGULATION CLINIC,"520 S Eagle, Meridian, ID, 83642",-116.3524898,43.5993675,2
974,HOSPITAL,HOSPITAL2,5096,PHARMACY PRACTICE RESIDENCY,"520 S Eagle, Meridian, ID, 83642",-116.3524898,43.5993675,1
975,HOSPITAL,HOSPITAL2,5098,340B PHARMACY,"520 S Eagle, Meridian, ID, 83642",-116.3524898,43.5993675,4
976,HOSPITAL,HOSPITAL2,5099,PHARMACY ADMINISTRATION,"520 S Eagle, Meridian, ID, 83642",-116.3524898,43.5993675,2
977,HOSPITAL,HOSPITAL2,5101,INTERNAL TRANSPORTATION,"520 S Eagle, Meridian, ID, 83642",-116.3524898,43.5993675,11
978,HOSPITAL,HOSPITAL2,5151,CENTRAL STERILE PROCESSING,"520 S Eagle, Meridian, ID, 83642",-116.3524898,43.5993675,21
979,HOSPITAL,HOSPITAL2,5201,PURCHASING,"520 S Eagle, Meridian, ID, 83642",-116.3524898,43.5993675,2
980,HOSPITAL,HOSPITAL2,5202,DISTRIBUTION-MM,"520 S Eagle, Meridian, ID, 83642",-116.3524898,43.5993675,10
981,HOSPITAL,HOSPITAL2,5203,LOGISTICS OPERATIONS,"520 S Eagle, Meridian, ID, 83642",-116.3524898,43.5993675,1
982,HOSPITAL,HOSPITAL2,5204,SUPPLY CHAIN MANAGEMENT,"520 S Eagle, Meridian, ID, 83642",-116.3524898,43.5993675,1
983,HOSPITAL,HOSPITAL2,5251,FOOD & NUTRITION,"520 S Eagle, Meridian, ID, 83642",-116.3524898,43.5993675,51
984,HOSPITAL,HOSPITAL2,5261,CLINICAL NUTRITIONAL SERVICES,"520 S Eagle, Meridian, ID, 83642",-116.3524898,43.5993675,4
985,HOSPITAL,HOSPITAL2,5302,ENVIRONMENTAL SERVICES,"520 S Eagle, Meridian, ID, 83642",-116.3524898,43.5993675,63
986,HOSPITAL,HOSPITAL2,5321,SECURITY,"520 S Eagle, Meridian, ID, 83642",-116.3524898,43.5993675,21
987,HOSPITAL,HOSPITAL2,5331,CLINICAL ENGINEERING,"520 S Eagle, Meridian, ID, 83642",-116.3524898,43.5993675,2
988,HOSPITAL,HOSPITAL2,5333,BUILDING SERVICES,"520 S Eagle, Meridian, ID, 83642",-116.3524898,43.5993675,10
989,HOSPITAL,HOSPITAL2,5379,TIME SHARE SUITES,"520 S Eagle, Meridian, ID, 83642",-116.3524898,43.5993675,1
990,HOSPITAL,HOSPITAL2,5401,IHT INFRA & OPERATIONS,"520 S Eagle, Meridian, ID, 83642",-116.3524898,43.5993675,2
991,HOSPITAL,HOSPITAL2,5405,IHT EHR SERVICES,"520 S Eagle, Meridian, ID, 83642",-116.3524898,43.5993675,5
992,HOSPITAL,HOSPITAL2,5451,MSTI BUSINESS OPERATIONS,"520 S Eagle, Meridian, ID, 83642",-116.3524898,43.5993675,1
993,HOSPITAL,HOSPITAL2,6023,PCRC NCORP GRANT,"520 S Eagle, Meridian, ID, 83642",-116.3524898,43.5993675,1
994,HOSPITAL,HOSPITAL2,6493,MSTI RESEARCH ADMINISTRATION,"520 S Eagle, Meridian, ID, 83642",-116.3524898,43.5993675,1
995,HOSPITAL,HOSPITAL2,6513,HEALTH INFO MGMT SERVICES,"520 S Eagle, Meridian, ID, 83642",-116.3524898,43.5993675,8
996,HOSPITAL,HOSPITAL2,6515,HIM-MSTI-MERIDIAN,"520 S Eagle, Meridian, ID, 83642",-116.3524898,43.5993675,5
997,HOSPITAL,HOSPITAL2,6531,CLINICAL DOCUMENTATION IMPROV,"520 S Eagle, Meridian, ID, 83642",-116.3524898,43.5993675,2
998,HOSPITAL,HOSPITAL2,6551,CASE MANAGEMENT,"520 S Eagle, Meridian, ID, 83642",-116.3524898,43.5993675,9
999,HOSPITAL,HOSPITAL2,6553,QUALITY & PATIENT SAFETY,"520 S Eagle, Meridian, ID, 83642",-116.3524898,43.5993675,5
1000,HOSPITAL,HOSPITAL2,6601,ADMINISTRATION,"520 S Eagle, Meridian, ID, 83642",-116.3524898,43.5993675,8
1001,HOSPITAL,HOSPITAL2,6601,EXECUTIVE OFFICE,"520 S Eagle, Meridian, ID, 83642",-116.3524898,43.5993675,1
1002,HOSPITAL,HOSPITAL2,6607,MSTI ADMIN-MERIDIAN,"520 S Eagle, Meridian, ID, 83642",-116.3524898,43.5993675,3
1003,HOSPITAL,HOSPITAL2,6611,ORTHO NEURO ADMIN,"520 S Eagle, Meridian, ID, 83642",-116.3524898,43.5993675,1
1004,HOSPITAL,HOSPITAL2,6751,CLINICAL SUPPORT,"520 S Eagle, Meridian, ID, 83642",-116.3524898,43.5993675,3
1005,HOSPITAL,HOSPITAL2,6751,MSTI CLINICAL SUPPORT SERVICES,"520 S Eagle, Meridian, ID, 83642",-116.3524898,43.5993675,1
1006,HOSPITAL,HOSPITAL2,6753,CRISIS NURSE,"520 S Eagle, Meridian, ID, 83642",-116.3524898,43.5993675,8
1007,HOSPITAL,HOSPITAL2,6771,ACCREDITATION,"520 S Eagle, Meridian, ID, 83642",-116.3524898,43.5993675,1
1008,HOSPITAL,HOSPITAL2,6799,NURSING  ADMINISTRATION,"520 S Eagle, Meridian, ID, 83642",-116.3524898,43.5993675,3
1009,HOSPITAL,HOSPITAL2,6891,CONFERENCE & MEETING SERVICES,"520 S Eagle, Meridian, ID, 83642",-116.3524898,43.5993675,1
1010,HOSPITAL,HOSPITAL2,6894,EDUCATION,"520 S Eagle, Meridian, ID, 83642",-116.3524898,43.5993675,2
1011,HOSPITAL,HOSPITAL2,6901,HUMAN RESOURCES,"520 S Eagle, Meridian, ID, 83642",-116.3524898,43.5993675,3
1012,HOSPITAL,HOSPITAL2,6904,PHYSICIAN RECRUITING,"520 S Eagle, Meridian, ID, 83642",-116.3524898,43.5993675,1
1013,HOSPITAL,HOSPITAL2,6915,EMPLOYEE HEALTH SOLUTIONS,"520 S Eagle, Meridian, ID, 83642",-116.3524898,43.5993675,1
1014,HOSPITAL,HOSPITAL2,6981,CONSUMER ENGAGEMENT & WELLNESS,"520 S Eagle, Meridian, ID, 83642",-116.3524898,43.5993675,1
1015,HOSPITAL,HOSPITAL2,8001,VOLUNTEERS,"520 S Eagle, Meridian, ID, 83642",-116.3524898,43.5993675,1
1016,HOSPITAL,HOSPITAL2,8002,INFORMATION STATION,"520 S Eagle, Meridian, ID, 83642",-116.3524898,43.5993675,3
1017,HOSPITAL,HOSPITAL2,8004,ST LUKES CONNECT,"520 S Eagle, Meridian, ID, 83642",-116.3524898,43.5993675,4
1018,HOSPITAL,HOSPITAL2,8101,PATIENT SUPPORT-MSTI MER,"520 S Eagle, Meridian, ID, 83642",-116.3524898,43.5993675,11
1019,HOSPITAL,HOSPITAL2,8102,PATIENT SUPPORT-MSTI BOISE,"520 S Eagle, Meridian, ID, 83642",-116.3524898,43.5993675,1
1020,HOSPITAL,HOSPITAL2,8104,PATIENT SUPPORT-MSTI FRUITLAND,"520 S Eagle, Meridian, ID, 83642",-116.3524898,43.5993675,1
1021,HOSPITAL,HOSPITAL2,8503,CASH MANAGEMENT,"520 S Eagle, Meridian, ID, 83642",-116.3524898,43.5993675,1
1022,HOSPITAL,HOSPITAL2,8506,CENTRAL BILL'G OFF-PHYS SVCS,"520 S Eagle, Meridian, ID, 83642",-116.3524898,43.5993675,2
1023,HOSPITAL,HOSPITAL2,8506,HB BILLING,"520 S Eagle, Meridian, ID, 83642",-116.3524898,43.5993675,1
1024,HOSPITAL,HOSPITAL2,8507,PFS CHARGE CAPTURE,"520 S Eagle, Meridian, ID, 83642",-116.3524898,43.5993675,1
1025,HOSPITAL,HOSPITAL2,8513,PB BILLING/INS RECOVERY,"520 S Eagle, Meridian, ID, 83642",-116.3524898,43.5993675,1
1026,HOSPITAL,HOSPITAL2,8601,PATIENT REGISTRATION,"520 S Eagle, Meridian, ID, 83642",-116.3524898,43.5993675,46
1027,HOSPITAL,HOSPITAL2,8602,FINANCIAL RESOURCE CENTER,"520 S Eagle, Meridian, ID, 83642",-116.3524898,43.5993675,2
1028,HOSPITAL,HOSPITAL2,8699,PATIENT ACCESS ADMINISTRATION,"520 S Eagle, Meridian, ID, 83642",-116.3524898,43.5993675,4
1029,HOSPITAL,HOSPITAL3,2301,RECOVERY ROOM,"3101 E State, Eagle, ID, 83616",-116.3163704,43.6818299,1
1030,HOSPITAL,HOSPITAL3,3307,SL FAMILY MEDICINE-EAGLE,"3101 E State, Eagle, ID, 83616",-116.3163704,43.6818299,11
1031,HOSPITAL,HOSPITAL3,3405,SL INTERNAL MEDICINE-EAGLE,"3101 E State, Eagle, ID, 83616",-116.3163704,43.6818299,9
1032,HOSPITAL,HOSPITAL3,3441,SL RHEUMATOLOGY-BOISE,"3101 E State, Eagle, ID, 83616",-116.3163704,43.6818299,1
1033,HOSPITAL,HOSPITAL3,3701,URGENT CARE,"3101 E State, Eagle, ID, 83616",-116.3163704,43.6818299,9
1034,HOSPITAL,HOSPITAL3,3962,HEARING & BALANCE - STATE,"3101 E State, Eagle, ID, 83616",-116.3163704,43.6818299,4
1035,HOSPITAL,HOSPITAL3,4001,RADIOLOGY,"3101 E State, Eagle, ID, 83616",-116.3163704,43.6818299,1
1036,HOSPITAL,HOSPITAL3,4061,DIAGNOSTIC BREAST IMAGING,"3101 E State, Eagle, ID, 83616",-116.3163704,43.6818299,4
1037,HOSPITAL,HOSPITAL3,4062,BCDC MAMMOGRAPHY,"3101 E State, Eagle, ID, 83616",-116.3163704,43.6818299,6
1038,HOSPITAL,HOSPITAL3,4072,IMAGING CENTER,"3101 E State, Eagle, ID, 83616",-116.3163704,43.6818299,8
1039,HOSPITAL,HOSPITAL3,4072,ST LUKE'S IMAGING CENTER,"3101 E State, Eagle, ID, 83616",-116.3163704,43.6818299,1
1040,HOSPITAL,HOSPITAL3,4072,ST LUKE'S IMAGING CTR-PORTICO,"3101 E State, Eagle, ID, 83616",-116.3163704,43.6818299,1
1041,HOSPITAL,HOSPITAL3,4098,BREAST CARE SERVICES ADMIN,"3101 E State, Eagle, ID, 83616",-116.3163704,43.6818299,7
1042,HOSPITAL,HOSPITAL3,4201,LABORATORY,"3101 E State, Eagle, ID, 83616",-116.3163704,43.6818299,3
1043,HOSPITAL,HOSPITAL3,4802,PERIPHERAL VASCULAR LAB,"3101 E State, Eagle, ID, 83616",-116.3163704,43.6818299,1
1044,HOSPITAL,HOSPITAL3,5302,ENVIRONMENTAL SERVICES,"3101 E State, Eagle, ID, 83616",-116.3163704,43.6818299,2
1045,HOSPITAL,HOSPITAL3,5321,SECURITY,"3101 E State, Eagle, ID, 83616",-116.3163704,43.6818299,2
1046,HOSPITAL,HOSPITAL3,5333,BUILDING SERVICES,"3101 E State, Eagle, ID, 83616",-116.3163704,43.6818299,1
1047,HOSPITAL,HOSPITAL3,6601,ADMINISTRATION,"3101 E State, Eagle, ID, 83616",-116.3163704,43.6818299,2
1048,HOSPITAL,HOSPITAL3,6817,BIRTH AND PARENTING EDUCATION,"3101 E State, Eagle, ID, 83616",-116.3163704,43.6818299,1
1049,HOSPITAL,HOSPITAL3,8601,PATIENT REGISTRATION,"3101 E State, Eagle, ID, 83616",-116.3163704,43.6818299,10
1050,HOSPITAL,HOSPITAL4,1001,MEDICAL / PYSCH,"801 Pole Line Rd, Twin Falls, ID, 83301",-114.4636994,42.5920361,11
1051,HOSPITAL,HOSPITAL4,1051,CARDIOPULMONARY UNIT,"801 Pole Line Rd, Twin Falls, ID, 83301",-114.4636994,42.5920361,68
1052,HOSPITAL,HOSPITAL4,1101,INTENSIVE CARE UNIT,"801 Pole Line Rd, Twin Falls, ID, 83301",-114.4636994,42.5920361,66
1053,HOSPITAL,HOSPITAL4,1152,INPATIENT REHABILITATION,"801 Pole Line Rd, Twin Falls, ID, 83301",-114.4636994,42.5920361,26
1054,HOSPITAL,HOSPITAL4,1201,GENERAL MEDICAL IP,"801 Pole Line Rd, Twin Falls, ID, 83301",-114.4636994,42.5920361,62
1055,HOSPITAL,HOSPITAL4,1202,SURGICAL IP,"801 Pole Line Rd, Twin Falls, ID, 83301",-114.4636994,42.5920361,65
1056,HOSPITAL,HOSPITAL4,1203,MEDICAL / SURGICAL NEURO,"801 Pole Line Rd, Twin Falls, ID, 83301",-114.4636994,42.5920361,1
1057,HOSPITAL,HOSPITAL4,1204,MEDICAL / SURGICAL ONCOLOGY,"801 Pole Line Rd, Twin Falls, ID, 83301",-114.4636994,42.5920361,1
1058,HOSPITAL,HOSPITAL4,1241,SL HOSPITALISTS,"801 Pole Line Rd, Twin Falls, ID, 83301",-114.4636994,42.5920361,13
1059,HOSPITAL,HOSPITAL4,1251,NICU,"801 Pole Line Rd, Twin Falls, ID, 83301",-114.4636994,42.5920361,31
1060,HOSPITAL,HOSPITAL4,1302,MOTHER / BABY,"801 Pole Line Rd, Twin Falls, ID, 83301",-114.4636994,42.5920361,71
1061,HOSPITAL,HOSPITAL4,1351,PEDIATRICS,"801 Pole Line Rd, Twin Falls, ID, 83301",-114.4636994,42.5920361,1
1062,HOSPITAL,HOSPITAL4,1352,WOMEN & CHILDREN,"801 Pole Line Rd, Twin Falls, ID, 83301",-114.4636994,42.5920361,18
1063,HOSPITAL,HOSPITAL4,2001,SURGICAL SERVICES,"801 Pole Line Rd, Twin Falls, ID, 83301",-114.4636994,42.5920361,74
1064,HOSPITAL,HOSPITAL4,2101,ANESTHESIOLOGY,"801 Pole Line Rd, Twin Falls, ID, 83301",-114.4636994,42.5920361,4
1065,HOSPITAL,HOSPITAL4,2202,PRE-SURGERY CLINIC,"801 Pole Line Rd, Twin Falls, ID, 83301",-114.4636994,42.5920361,5
1066,HOSPITAL,HOSPITAL4,2203,PERI-ANESTHESIA,"801 Pole Line Rd, Twin Falls, ID, 83301",-114.4636994,42.5920361,36
1067,HOSPITAL,HOSPITAL4,2301,POST ANESTHESIA CARE UNIT,"801 Pole Line Rd, Twin Falls, ID, 83301",-114.4636994,42.5920361,19
1068,HOSPITAL,HOSPITAL4,2301,RECOVERY ROOM,"801 Pole Line Rd, Twin Falls, ID, 83301",-114.4636994,42.5920361,1
1069,HOSPITAL,HOSPITAL4,2501,EMERGENCY DEPARTMENT,"801 Pole Line Rd, Twin Falls, ID, 83301",-114.4636994,42.5920361,67
1070,HOSPITAL,HOSPITAL4,2601,HOME CARE,"801 Pole Line Rd, Twin Falls, ID, 83301",-114.4636994,42.5920361,32
1071,HOSPITAL,HOSPITAL4,2651,HOSPICE,"801 Pole Line Rd, Twin Falls, ID, 83301",-114.4636994,42.5920361,9
1072,HOSPITAL,HOSPITAL4,2701,AIR ST LUKE'S,"801 Pole Line Rd, Twin Falls, ID, 83301",-114.4636994,42.5920361,1
1073,HOSPITAL,HOSPITAL4,2702,AMBULANCE SERVICES,"801 Pole Line Rd, Twin Falls, ID, 83301",-114.4636994,42.5920361,1
1074,HOSPITAL,HOSPITAL4,2702,PARAMEDIC SERVICES,"801 Pole Line Rd, Twin Falls, ID, 83301",-114.4636994,42.5920361,8
1075,HOSPITAL,HOSPITAL4,3001,SL BEHAVIORAL HEALTH,"801 Pole Line Rd, Twin Falls, ID, 83301",-114.4636994,42.5920361,16
1076,HOSPITAL,HOSPITAL4,3003,SL PSYCHIATRIC WELLNESS SRVCS,"801 Pole Line Rd, Twin Falls, ID, 83301",-114.4636994,42.5920361,1
1077,HOSPITAL,HOSPITAL4,3055,RADIATION ONCOL-MV,"801 Pole Line Rd, Twin Falls, ID, 83301",-114.4636994,42.5920361,7
1078,HOSPITAL,HOSPITAL4,3090,CLINICAL ONCOLOGY-MV,"801 Pole Line Rd, Twin Falls, ID, 83301",-114.4636994,42.5920361,8
1079,HOSPITAL,HOSPITAL4,3105,PHYSICS-MV,"801 Pole Line Rd, Twin Falls, ID, 83301",-114.4636994,42.5920361,3
1080,HOSPITAL,HOSPITAL4,3130,CHEMO INFUSION-MV,"801 Pole Line Rd, Twin Falls, ID, 83301",-114.4636994,42.5920361,14
1081,HOSPITAL,HOSPITAL4,3204,SL CARDIOLOGY - SICA,"801 Pole Line Rd, Twin Falls, ID, 83301",-114.4636994,42.5920361,12
1082,HOSPITAL,HOSPITAL4,3207,SL VASCULAR SURGERY,"801 Pole Line Rd, Twin Falls, ID, 83301",-114.4636994,42.5920361,1
1083,HOSPITAL,HOSPITAL4,3252,SL ENT/FACIAL PLAST SURG-ENT,"801 Pole Line Rd, Twin Falls, ID, 83301",-114.4636994,42.5920361,2
1084,HOSPITAL,HOSPITAL4,3303,SL FAMILY MEDICINE - WATERS,"801 Pole Line Rd, Twin Falls, ID, 83301",-114.4636994,42.5920361,2
1085,HOSPITAL,HOSPITAL4,3304,SL FAMILY MED-RENAISSANCE,"801 Pole Line Rd, Twin Falls, ID, 83301",-114.4636994,42.5920361,3
1086,HOSPITAL,HOSPITAL4,3306,SL PRIMARY CARE ACCESS,"801 Pole Line Rd, Twin Falls, ID, 83301",-114.4636994,42.5920361,13
1087,HOSPITAL,HOSPITAL4,3307,SL PHYSICIAN CENTER-BUHL,"801 Pole Line Rd, Twin Falls, ID, 83301",-114.4636994,42.5920361,2
1088,HOSPITAL,HOSPITAL4,3308,SL PEDS/FAMILY PRACTICE - PC,"801 Pole Line Rd, Twin Falls, ID, 83301",-114.4636994,42.5920361,16
1089,HOSPITAL,HOSPITAL4,3309,SL FAMILY/PEDS PRACTICE-ADDSN,"801 Pole Line Rd, Twin Falls, ID, 83301",-114.4636994,42.5920361,7
1090,HOSPITAL,HOSPITAL4,3402,SL INTERNAL MEDICINE - IMA,"801 Pole Line Rd, Twin Falls, ID, 83301",-114.4636994,42.5920361,5
1091,HOSPITAL,HOSPITAL4,3403,SL INTERNAL MEDICINE - SRIM,"801 Pole Line Rd, Twin Falls, ID, 83301",-114.4636994,42.5920361,13
1092,HOSPITAL,HOSPITAL4,3422,SL NEPHROLOGY - NARASIMHAN,"801 Pole Line Rd, Twin Falls, ID, 83301",-114.4636994,42.5920361,1
1093,HOSPITAL,HOSPITAL4,3442,SL RHEUMATOLOGY,"801 Pole Line Rd, Twin Falls, ID, 83301",-114.4636994,42.5920361,4
1094,HOSPITAL,HOSPITAL4,3442,SL RHEUMATOLOGY-MERIDIAN,"801 Pole Line Rd, Twin Falls, ID, 83301",-114.4636994,42.5920361,1
1095,HOSPITAL,HOSPITAL4,3501,SL PULMONOLOGY,"801 Pole Line Rd, Twin Falls, ID, 83301",-114.4636994,42.5920361,4
1096,HOSPITAL,HOSPITAL4,3561,SL PHYS MED & REHAB,"801 Pole Line Rd, Twin Falls, ID, 83301",-114.4636994,42.5920361,1
1097,HOSPITAL,HOSPITAL4,3651,SL GENERAL SURGERY - SIGS,"801 Pole Line Rd, Twin Falls, ID, 83301",-114.4636994,42.5920361,10
1098,HOSPITAL,HOSPITAL4,3681,SL TWIN FALLS ORTHOPEDICS,"801 Pole Line Rd, Twin Falls, ID, 83301",-114.4636994,42.5920361,2
1099,HOSPITAL,HOSPITAL4,3684,SL ORTHO/PLASTIC SURG - IOC,"801 Pole Line Rd, Twin Falls, ID, 83301",-114.4636994,42.5920361,2
1100,HOSPITAL,HOSPITAL4,3687,SL ORTHOPEDICS,"801 Pole Line Rd, Twin Falls, ID, 83301",-114.4636994,42.5920361,1
1101,HOSPITAL,HOSPITAL4,3688,SL SPORTS MEDICINE,"801 Pole Line Rd, Twin Falls, ID, 83301",-114.4636994,42.5920361,2
1102,HOSPITAL,HOSPITAL4,3751,SL UROLOGY,"801 Pole Line Rd, Twin Falls, ID, 83301",-114.4636994,42.5920361,2
1103,HOSPITAL,HOSPITAL4,3803,SL OB/GYNECOLOGY - MVWH,"801 Pole Line Rd, Twin Falls, ID, 83301",-114.4636994,42.5920361,8
1104,HOSPITAL,HOSPITAL4,3903,SL GASTROENTEROLOGY - BLGI,"801 Pole Line Rd, Twin Falls, ID, 83301",-114.4636994,42.5920361,17
1105,HOSPITAL,HOSPITAL4,3912,SL DERMATOLOGY & MOHS SURGERY,"801 Pole Line Rd, Twin Falls, ID, 83301",-114.4636994,42.5920361,7
1106,HOSPITAL,HOSPITAL4,3941,NEONATOLOGY,"801 Pole Line Rd, Twin Falls, ID, 83301",-114.4636994,42.5920361,3
1107,HOSPITAL,HOSPITAL4,3952,INTEGRATIVE MEDICINE-MSTI,"801 Pole Line Rd, Twin Falls, ID, 83301",-114.4636994,42.5920361,1
1108,HOSPITAL,HOSPITAL4,3953,PALLIATIVE MEDICINE,"801 Pole Line Rd, Twin Falls, ID, 83301",-114.4636994,42.5920361,2
1109,HOSPITAL,HOSPITAL4,3954,SL PAIN MANAGEMENT,"801 Pole Line Rd, Twin Falls, ID, 83301",-114.4636994,42.5920361,3
1110,HOSPITAL,HOSPITAL4,4001,RADIOLOGY,"801 Pole Line Rd, Twin Falls, ID, 83301",-114.4636994,42.5920361,32
1111,HOSPITAL,HOSPITAL4,4011,NUCLEAR MEDICINE,"801 Pole Line Rd, Twin Falls, ID, 83301",-114.4636994,42.5920361,3
1112,HOSPITAL,HOSPITAL4,4013,SICA NUC MED LAB,"801 Pole Line Rd, Twin Falls, ID, 83301",-114.4636994,42.5920361,1
1113,HOSPITAL,HOSPITAL4,4021,CT SCAN,"801 Pole Line Rd, Twin Falls, ID, 83301",-114.4636994,42.5920361,5
1114,HOSPITAL,HOSPITAL4,4031,MRI,"801 Pole Line Rd, Twin Falls, ID, 83301",-114.4636994,42.5920361,7
1115,HOSPITAL,HOSPITAL4,4041,ULTRASOUND,"801 Pole Line Rd, Twin Falls, ID, 83301",-114.4636994,42.5920361,6
1116,HOSPITAL,HOSPITAL4,4042,ULTRASOUND-WOMEN'S HEALTH,"801 Pole Line Rd, Twin Falls, ID, 83301",-114.4636994,42.5920361,3
1117,HOSPITAL,HOSPITAL4,4051,PET SCANNER,"801 Pole Line Rd, Twin Falls, ID, 83301",-114.4636994,42.5920361,1
1118,HOSPITAL,HOSPITAL4,4072,ST LUKE'S IMAGING CENTER,"801 Pole Line Rd, Twin Falls, ID, 83301",-114.4636994,42.5920361,1
1119,HOSPITAL,HOSPITAL4,4074,WOMENS IMAGING,"801 Pole Line Rd, Twin Falls, ID, 83301",-114.4636994,42.5920361,5
1120,HOSPITAL,HOSPITAL4,4099,IMAGING SERVICES ADMIN,"801 Pole Line Rd, Twin Falls, ID, 83301",-114.4636994,42.5920361,14
1121,HOSPITAL,HOSPITAL4,4101,OCCUPATIONAL HEALTH,"801 Pole Line Rd, Twin Falls, ID, 83301",-114.4636994,42.5920361,10
1122,HOSPITAL,HOSPITAL4,4102,OCCUPATIONAL THERAPY,"801 Pole Line Rd, Twin Falls, ID, 83301",-114.4636994,42.5920361,4
1123,HOSPITAL,HOSPITAL4,4201,LABORATORY,"801 Pole Line Rd, Twin Falls, ID, 83301",-114.4636994,42.5920361,65
1124,HOSPITAL,HOSPITAL4,4211,HISTOLOGY,"801 Pole Line Rd, Twin Falls, ID, 83301",-114.4636994,42.5920361,10
1125,HOSPITAL,HOSPITAL4,4232,PHLEBOTOMY OUTREACH,"801 Pole Line Rd, Twin Falls, ID, 83301",-114.4636994,42.5920361,18
1126,HOSPITAL,HOSPITAL4,4299,LAB ADMINISTRATION,"801 Pole Line Rd, Twin Falls, ID, 83301",-114.4636994,42.5920361,4
1127,HOSPITAL,HOSPITAL4,4302,PHYSICAL THERAPY,"801 Pole Line Rd, Twin Falls, ID, 83301",-114.4636994,42.5920361,13
1128,HOSPITAL,HOSPITAL4,4303,SPEECH THERAPY,"801 Pole Line Rd, Twin Falls, ID, 83301",-114.4636994,42.5920361,4
1129,HOSPITAL,HOSPITAL4,4321,CARDIAC REHABILITATION,"801 Pole Line Rd, Twin Falls, ID, 83301",-114.4636994,42.5920361,5
1130,HOSPITAL,HOSPITAL4,4399,REHABILITATION SVCS ADMIN,"801 Pole Line Rd, Twin Falls, ID, 83301",-114.4636994,42.5920361,5
1131,HOSPITAL,HOSPITAL4,4401,RESPIRATORY THERAPY,"801 Pole Line Rd, Twin Falls, ID, 83301",-114.4636994,42.5920361,31
1132,HOSPITAL,HOSPITAL4,4802,PERIPHERAL VASCULAR LAB,"801 Pole Line Rd, Twin Falls, ID, 83301",-114.4636994,42.5920361,4
1133,HOSPITAL,HOSPITAL4,4812,SICA CARDIO LAB,"801 Pole Line Rd, Twin Falls, ID, 83301",-114.4636994,42.5920361,2
1134,HOSPITAL,HOSPITAL4,4813,CARDIAC PROCEDURES,"801 Pole Line Rd, Twin Falls, ID, 83301",-114.4636994,42.5920361,12
1135,HOSPITAL,HOSPITAL4,4814,CARDIOVASCULAR SVCS,"801 Pole Line Rd, Twin Falls, ID, 83301",-114.4636994,42.5920361,6
1136,HOSPITAL,HOSPITAL4,4821,SNAKE RIVER ENDOSCOPIC LAB,"801 Pole Line Rd, Twin Falls, ID, 83301",-114.4636994,42.5920361,23
1137,HOSPITAL,HOSPITAL4,4822,OP PROCEDURE SERVICES,"801 Pole Line Rd, Twin Falls, ID, 83301",-114.4636994,42.5920361,8
1138,HOSPITAL,HOSPITAL4,4823,OUTPATIENT PFT,"801 Pole Line Rd, Twin Falls, ID, 83301",-114.4636994,42.5920361,3
1139,HOSPITAL,HOSPITAL4,4824,EECP PROGRAM,"801 Pole Line Rd, Twin Falls, ID, 83301",-114.4636994,42.5920361,1
1140,HOSPITAL,HOSPITAL4,4825,EEG,"801 Pole Line Rd, Twin Falls, ID, 83301",-114.4636994,42.5920361,1
1141,HOSPITAL,HOSPITAL4,4826,SLEEP CENTER,"801 Pole Line Rd, Twin Falls, ID, 83301",-114.4636994,42.5920361,1
1142,HOSPITAL,HOSPITAL4,4834,IV INFUSION,"801 Pole Line Rd, Twin Falls, ID, 83301",-114.4636994,42.5920361,5
1143,HOSPITAL,HOSPITAL4,4835,ENTEROSTOMAL THERAPY,"801 Pole Line Rd, Twin Falls, ID, 83301",-114.4636994,42.5920361,2
1144,HOSPITAL,HOSPITAL4,5001,SOCIAL SERVICES,"801 Pole Line Rd, Twin Falls, ID, 83301",-114.4636994,42.5920361,9
1145,HOSPITAL,HOSPITAL4,5021,SPIRITUAL CARE,"801 Pole Line Rd, Twin Falls, ID, 83301",-114.4636994,42.5920361,2
1146,HOSPITAL,HOSPITAL4,5051,PHARMACY,"801 Pole Line Rd, Twin Falls, ID, 83301",-114.4636994,42.5920361,34
1147,HOSPITAL,HOSPITAL4,5096,PHARMACY RESIDENCY PROGRAM,"801 Pole Line Rd, Twin Falls, ID, 83301",-114.4636994,42.5920361,2
1148,HOSPITAL,HOSPITAL4,5098,340B Pharmacy,"801 Pole Line Rd, Twin Falls, ID, 83301",-114.4636994,42.5920361,1
1149,HOSPITAL,HOSPITAL4,5099,PHARMACY ADMINISTRATION,"801 Pole Line Rd, Twin Falls, ID, 83301",-114.4636994,42.5920361,5
1150,HOSPITAL,HOSPITAL4,5101,INTERNAL TRANSPORTATION,"801 Pole Line Rd, Twin Falls, ID, 83301",-114.4636994,42.5920361,45
1151,HOSPITAL,HOSPITAL4,5111,COURIER SERVICES,"801 Pole Line Rd, Twin Falls, ID, 83301",-114.4636994,42.5920361,7
1152,HOSPITAL,HOSPITAL4,5151,CENTRAL STERILE PROCESSING,"801 Pole Line Rd, Twin Falls, ID, 83301",-114.4636994,42.5920361,28
1153,HOSPITAL,HOSPITAL4,5201,PURCHASING,"801 Pole Line Rd, Twin Falls, ID, 83301",-114.4636994,42.5920361,2
1154,HOSPITAL,HOSPITAL4,5202,DISTRIBUTION-MM,"801 Pole Line Rd, Twin Falls, ID, 83301",-114.4636994,42.5920361,12
1155,HOSPITAL,HOSPITAL4,5204,SUPPLY CHAIN MANAGEMENT,"801 Pole Line Rd, Twin Falls, ID, 83301",-114.4636994,42.5920361,1
1156,HOSPITAL,HOSPITAL4,5251,FOOD & NUTRITION,"801 Pole Line Rd, Twin Falls, ID, 83301",-114.4636994,42.5920361,81
1157,HOSPITAL,HOSPITAL4,5261,CLINICAL NUTRITIONAL SERVICES,"801 Pole Line Rd, Twin Falls, ID, 83301",-114.4636994,42.5920361,10
1158,HOSPITAL,HOSPITAL4,5301,LAUNDRY,"801 Pole Line Rd, Twin Falls, ID, 83301",-114.4636994,42.5920361,8
1159,HOSPITAL,HOSPITAL4,5302,ENVIRONMENTAL SERVICES,"801 Pole Line Rd, Twin Falls, ID, 83301",-114.4636994,42.5920361,89
1160,HOSPITAL,HOSPITAL4,5321,SECURITY,"801 Pole Line Rd, Twin Falls, ID, 83301",-114.4636994,42.5920361,13
1161,HOSPITAL,HOSPITAL4,5322,SAFETY,"801 Pole Line Rd, Twin Falls, ID, 83301",-114.4636994,42.5920361,1
1162,HOSPITAL,HOSPITAL4,5331,CLINICAL ENGINEERING,"801 Pole Line Rd, Twin Falls, ID, 83301",-114.4636994,42.5920361,6
1163,HOSPITAL,HOSPITAL4,5332,PLANT & MAINTENANCE,"801 Pole Line Rd, Twin Falls, ID, 83301",-114.4636994,42.5920361,26
1164,HOSPITAL,HOSPITAL4,5401,IHT INFRA & OPERATIONS,"801 Pole Line Rd, Twin Falls, ID, 83301",-114.4636994,42.5920361,19
1165,HOSPITAL,HOSPITAL4,5401,PHYSICIAN IT SERVICES,"801 Pole Line Rd, Twin Falls, ID, 83301",-114.4636994,42.5920361,6
1166,HOSPITAL,HOSPITAL4,5405,IHT EHR SERVICES,"801 Pole Line Rd, Twin Falls, ID, 83301",-114.4636994,42.5920361,1
1167,HOSPITAL,HOSPITAL4,6020,BIOREPOSITORY,"801 Pole Line Rd, Twin Falls, ID, 83301",-114.4636994,42.5920361,1
1168,HOSPITAL,HOSPITAL4,6493,MSTI RESEARCH ADMINISTRATION,"801 Pole Line Rd, Twin Falls, ID, 83301",-114.4636994,42.5920361,2
1169,HOSPITAL,HOSPITAL4,6501,MEDICAL TRANSCRIPTION,"801 Pole Line Rd, Twin Falls, ID, 83301",-114.4636994,42.5920361,26
1170,HOSPITAL,HOSPITAL4,6511,PHYSICIAN SVCS CODING,"801 Pole Line Rd, Twin Falls, ID, 83301",-114.4636994,42.5920361,4
1171,HOSPITAL,HOSPITAL4,6513,HEALTH INFO MGMT SERVICES,"801 Pole Line Rd, Twin Falls, ID, 83301",-114.4636994,42.5920361,33
1172,HOSPITAL,HOSPITAL4,6516,TUMOR REGISTRY / MED RECORDS,"801 Pole Line Rd, Twin Falls, ID, 83301",-114.4636994,42.5920361,1
1173,HOSPITAL,HOSPITAL4,6551,CASE MANAGEMENT,"801 Pole Line Rd, Twin Falls, ID, 83301",-114.4636994,42.5920361,20
1174,HOSPITAL,HOSPITAL4,6552,QUALITY & UTILIZATION REVIEW,"801 Pole Line Rd, Twin Falls, ID, 83301",-114.4636994,42.5920361,19
1175,HOSPITAL,HOSPITAL4,6554,OPERATIONS IMPROVEMENT,"801 Pole Line Rd, Twin Falls, ID, 83301",-114.4636994,42.5920361,2
1176,HOSPITAL,HOSPITAL4,6560,OUTPATIENT CARE COORDINATION,"801 Pole Line Rd, Twin Falls, ID, 83301",-114.4636994,42.5920361,2
1177,HOSPITAL,HOSPITAL4,6601,ADMINISTRATION,"801 Pole Line Rd, Twin Falls, ID, 83301",-114.4636994,42.5920361,29
1178,HOSPITAL,HOSPITAL4,6606,MSTI ADMIN-BOISE,"801 Pole Line Rd, Twin Falls, ID, 83301",-114.4636994,42.5920361,1
1179,HOSPITAL,HOSPITAL4,6610,MSTI ADMIN-TWIN ADDISON,"801 Pole Line Rd, Twin Falls, ID, 83301",-114.4636994,42.5920361,2
1180,HOSPITAL,HOSPITAL4,6612,SLHP ADMIN,"801 Pole Line Rd, Twin Falls, ID, 83301",-114.4636994,42.5920361,5
1181,HOSPITAL,HOSPITAL4,6623,COMPLIANCE,"801 Pole Line Rd, Twin Falls, ID, 83301",-114.4636994,42.5920361,1
1182,HOSPITAL,HOSPITAL4,6701,MEDICAL STAFF OFFICE,"801 Pole Line Rd, Twin Falls, ID, 83301",-114.4636994,42.5920361,2
1183,HOSPITAL,HOSPITAL4,6751,CLINICAL SUPPORT,"801 Pole Line Rd, Twin Falls, ID, 83301",-114.4636994,42.5920361,100
1184,HOSPITAL,HOSPITAL4,6771,ACCREDITATION,"801 Pole Line Rd, Twin Falls, ID, 83301",-114.4636994,42.5920361,2
1185,HOSPITAL,HOSPITAL4,6799,NURSING  ADMINISTRATION,"801 Pole Line Rd, Twin Falls, ID, 83301",-114.4636994,42.5920361,4
1186,HOSPITAL,HOSPITAL4,6811,MSTI DEVEL AND COMMUNITY RES,"801 Pole Line Rd, Twin Falls, ID, 83301",-114.4636994,42.5920361,2
1187,HOSPITAL,HOSPITAL4,6814,PATIENT EDUCATION,"801 Pole Line Rd, Twin Falls, ID, 83301",-114.4636994,42.5920361,4
1188,HOSPITAL,HOSPITAL4,6818,DIABETES MED MGMT,"801 Pole Line Rd, Twin Falls, ID, 83301",-114.4636994,42.5920361,1
1189,HOSPITAL,HOSPITAL4,6894,EDUCATION,"801 Pole Line Rd, Twin Falls, ID, 83301",-114.4636994,42.5920361,29
1190,HOSPITAL,HOSPITAL4,6901,HUMAN RESOURCES,"801 Pole Line Rd, Twin Falls, ID, 83301",-114.4636994,42.5920361,13
1191,HOSPITAL,HOSPITAL4,6904,PHYSICIAN RECRUITING,"801 Pole Line Rd, Twin Falls, ID, 83301",-114.4636994,42.5920361,1
1192,HOSPITAL,HOSPITAL4,6915,EMPLOYEE HEALTH SOLUTIONS,"801 Pole Line Rd, Twin Falls, ID, 83301",-114.4636994,42.5920361,5
1193,HOSPITAL,HOSPITAL4,6953,CARES PROGRAM,"801 Pole Line Rd, Twin Falls, ID, 83301",-114.4636994,42.5920361,1
1194,HOSPITAL,HOSPITAL4,6957,CHILD CARE CENTER,"801 Pole Line Rd, Twin Falls, ID, 83301",-114.4636994,42.5920361,9
1195,HOSPITAL,HOSPITAL4,6981,CONSUMER ENGAGEMENT & WELLNESS,"801 Pole Line Rd, Twin Falls, ID, 83301",-114.4636994,42.5920361,1
1196,HOSPITAL,HOSPITAL4,7001,PUBLIC RELATIONS,"801 Pole Line Rd, Twin Falls, ID, 83301",-114.4636994,42.5920361,1
1197,HOSPITAL,HOSPITAL4,7003,COMMUNITY RELATIONS,"801 Pole Line Rd, Twin Falls, ID, 83301",-114.4636994,42.5920361,1
1198,HOSPITAL,HOSPITAL4,8001,VOLUNTEERS,"801 Pole Line Rd, Twin Falls, ID, 83301",-114.4636994,42.5920361,2
1199,HOSPITAL,HOSPITAL4,8003,SWITCHBOARD,"801 Pole Line Rd, Twin Falls, ID, 83301",-114.4636994,42.5920361,9
1200,HOSPITAL,HOSPITAL4,8005,INTERPRETATION,"801 Pole Line Rd, Twin Falls, ID, 83301",-114.4636994,42.5920361,3
1201,HOSPITAL,HOSPITAL4,8110,MSTI SUPPORT-MV,"801 Pole Line Rd, Twin Falls, ID, 83301",-114.4636994,42.5920361,1
1202,HOSPITAL,HOSPITAL4,8501,PATIENT FINANCIAL SERVICES-MV,"801 Pole Line Rd, Twin Falls, ID, 83301",-114.4636994,42.5920361,17
1203,HOSPITAL,HOSPITAL4,8507,PFS CHARGE CAPTURE,"801 Pole Line Rd, Twin Falls, ID, 83301",-114.4636994,42.5920361,6
1204,HOSPITAL,HOSPITAL4,8601,PATIENT REGISTRATION,"801 Pole Line Rd, Twin Falls, ID, 83301",-114.4636994,42.5920361,40
1205,HOSPITAL,HOSPITAL4,8602,PRE-ACCESS SERVICES,"801 Pole Line Rd, Twin Falls, ID, 83301",-114.4636994,42.5920361,2
1206,HOSPITAL,HOSPITAL4,8661,PHYSICIAN CTR SHARED SVCS,"801 Pole Line Rd, Twin Falls, ID, 83301",-114.4636994,42.5920361,15
1207,HOSPITAL,HOSPITAL4,8699,PATIENT ACCESS ADMINISTRATION,"801 Pole Line Rd, Twin Falls, ID, 83301",-114.4636994,42.5920361,1
1208,HOSPITAL,HOSPITAL4,8701,FINANCE,"801 Pole Line Rd, Twin Falls, ID, 83301",-114.4636994,42.5920361,2
1209,HOSPITAL,HOSPITAL4,8702,IHT ENTERPRISE DECISION SUPP,"801 Pole Line Rd, Twin Falls, ID, 83301",-114.4636994,42.5920361,3
1210,HOSPITAL,HOSPITAL4,8703,FINANCIAL PLANNING,"801 Pole Line Rd, Twin Falls, ID, 83301",-114.4636994,42.5920361,2
1211,HOSPITAL,HOSPITAL4,9533,JV-OP PEDS REHAB,"801 Pole Line Rd, Twin Falls, ID, 83301",-114.4636994,42.5920361,6
1212,HOSPITAL,HOSPITAL4,9534,JV-OP ADULT REHAB,"801 Pole Line Rd, Twin Falls, ID, 83301",-114.4636994,42.5920361,13
1213,HOSPITAL,HOSPITAL5,1152,INPATIENT REHABILITATION,"1000 State, McCall, ID, 83638",-116.1100499,44.90904,2
1214,HOSPITAL,HOSPITAL5,1201,MEDICAL / SURGICAL,"1000 State, McCall, ID, 83638",-116.1100499,44.90904,22
1215,HOSPITAL,HOSPITAL5,1303,LABOR AND DELIVERY,"1000 State, McCall, ID, 83638",-116.1100499,44.90904,6
1216,HOSPITAL,HOSPITAL5,2001,SURGICAL SERVICES,"1000 State, McCall, ID, 83638",-116.1100499,44.90904,11
1217,HOSPITAL,HOSPITAL5,2101,ANESTHESIOLOGY,"1000 State, McCall, ID, 83638",-116.1100499,44.90904,12
1218,HOSPITAL,HOSPITAL5,2501,EMERGENCY DEPARTMENT,"1000 State, McCall, ID, 83638",-116.1100499,44.90904,17
1219,HOSPITAL,HOSPITAL5,2502,EMERGENCY PHYSICIANS,"1000 State, McCall, ID, 83638",-116.1100499,44.90904,3
1220,HOSPITAL,HOSPITAL5,2602,HOME CARE - MCCALL,"1000 State, McCall, ID, 83638",-116.1100499,44.90904,3
1221,HOSPITAL,HOSPITAL5,3001,MCCALL BEHAVIORAL HEALTH,"1000 State, McCall, ID, 83638",-116.1100499,44.90904,1
1222,HOSPITAL,HOSPITAL5,3301,PAYETTE LAKES MEDICAL CLINIC,"1000 State, McCall, ID, 83638",-116.1100499,44.90904,2
1223,HOSPITAL,HOSPITAL5,3401,INTERNAL MEDICINE,"1000 State, McCall, ID, 83638",-116.1100499,44.90904,2
1224,HOSPITAL,HOSPITAL5,3451,SL NEUROLOGY CLINIC,"1000 State, McCall, ID, 83638",-116.1100499,44.90904,1
1225,HOSPITAL,HOSPITAL5,3872,WOUNDCARE-MCCALL-STATE,"1000 State, McCall, ID, 83638",-116.1100499,44.90904,1
1226,HOSPITAL,HOSPITAL5,4001,RADIOLOGY,"1000 State, McCall, ID, 83638",-116.1100499,44.90904,12
1227,HOSPITAL,HOSPITAL5,4201,LABORATORY,"1000 State, McCall, ID, 83638",-116.1100499,44.90904,14
1228,HOSPITAL,HOSPITAL5,4301,RIGGINS REHABILITATION THERAPY,"1000 State, McCall, ID, 83638",-116.1100499,44.90904,1
1229,HOSPITAL,HOSPITAL5,4304,MCCALL OUTPATIENT THERAPY,"1000 State, McCall, ID, 83638",-116.1100499,44.90904,8
1230,HOSPITAL,HOSPITAL5,4812,CARDIOPULMONARY SERVICES,"1000 State, McCall, ID, 83638",-116.1100499,44.90904,8
1231,HOSPITAL,HOSPITAL5,4834,IV THERAPY,"1000 State, McCall, ID, 83638",-116.1100499,44.90904,2
1232,HOSPITAL,HOSPITAL5,5001,SOCIAL SERVICES,"1000 State, McCall, ID, 83638",-116.1100499,44.90904,3
1233,HOSPITAL,HOSPITAL5,5051,PHARMACY,"1000 State, McCall, ID, 83638",-116.1100499,44.90904,6
1234,HOSPITAL,HOSPITAL5,5151,CENTRAL STERILE PROCESSING,"1000 State, McCall, ID, 83638",-116.1100499,44.90904,2
1235,HOSPITAL,HOSPITAL5,5202,DISTRIBUTION-MM,"1000 State, McCall, ID, 83638",-116.1100499,44.90904,4
1236,HOSPITAL,HOSPITAL5,5251,FOOD & NUTRITION,"1000 State, McCall, ID, 83638",-116.1100499,44.90904,5
1237,HOSPITAL,HOSPITAL5,5302,ENVIRONMENTAL SERVICES,"1000 State, McCall, ID, 83638",-116.1100499,44.90904,17
1238,HOSPITAL,HOSPITAL5,5332,PLANT & MAINTENANCE,"1000 State, McCall, ID, 83638",-116.1100499,44.90904,5
1239,HOSPITAL,HOSPITAL5,5401,IHT INFRA & OPERATIONS,"1000 State, McCall, ID, 83638",-116.1100499,44.90904,1
1240,HOSPITAL,HOSPITAL5,6513,HEALTH INFO MGMT SERVICES,"1000 State, McCall, ID, 83638",-116.1100499,44.90904,8
1241,HOSPITAL,HOSPITAL5,6601,ADMINISTRATION,"1000 State, McCall, ID, 83638",-116.1100499,44.90904,10
1242,HOSPITAL,HOSPITAL5,6799,NURSING  ADMINISTRATION,"1000 State, McCall, ID, 83638",-116.1100499,44.90904,13
1243,HOSPITAL,HOSPITAL5,6811,CENTER FOR COMMUNITY HEALTH,"1000 State, McCall, ID, 83638",-116.1100499,44.90904,1
1244,HOSPITAL,HOSPITAL5,6901,HUMAN RESOURCES,"1000 State, McCall, ID, 83638",-116.1100499,44.90904,3
1245,HOSPITAL,HOSPITAL5,6915,EMPLOYEE HEALTH SOLUTIONS,"1000 State, McCall, ID, 83638",-116.1100499,44.90904,1
1246,HOSPITAL,HOSPITAL5,7002,MARKETING,"1000 State, McCall, ID, 83638",-116.1100499,44.90904,1
1247,HOSPITAL,HOSPITAL5,7004,DEVELOPMENT,"1000 State, McCall, ID, 83638",-116.1100499,44.90904,2
1248,HOSPITAL,HOSPITAL5,8501,PATIENT FINANCIAL SERVICES,"1000 State, McCall, ID, 83638",-116.1100499,44.90904,9
1249,HOSPITAL,HOSPITAL5,8507,PFS CHARGE CAPTURE,"1000 State, McCall, ID, 83638",-116.1100499,44.90904,1
1250,HOSPITAL,HOSPITAL5,8601,PATIENT REGISTRATION,"1000 State, McCall, ID, 83638",-116.1100499,44.90904,10
1251,HOSPITAL,HOSPITAL5,8602,FINANCIAL RESOURCE CENTER,"1000 State, McCall, ID, 83638",-116.1100499,44.90904,2
1252,HOSPITAL,HOSPITAL6,1201,MEDICAL / SURGICAL,"100 Hospital, Ketchum, ID, 83340",-114.3495026,43.6485462,31
1253,HOSPITAL,HOSPITAL6,1302,MOTHER / BABY,"100 Hospital, Ketchum, ID, 83340",-114.3495026,43.6485462,14
1254,HOSPITAL,HOSPITAL6,2001,SURGICAL SERVICES,"100 Hospital, Ketchum, ID, 83340",-114.3495026,43.6485462,29
1255,HOSPITAL,HOSPITAL6,2301,RECOVERY ROOM,"100 Hospital, Ketchum, ID, 83340",-114.3495026,43.6485462,19
1256,HOSPITAL,HOSPITAL6,2501,EMERGENCY DEPARTMENT,"100 Hospital, Ketchum, ID, 83340",-114.3495026,43.6485462,29
1257,HOSPITAL,HOSPITAL6,2603,HOME CARE - WOOD RIVER,"100 Hospital, Ketchum, ID, 83340",-114.3495026,43.6485462,4
1258,HOSPITAL,HOSPITAL6,2701,AIR ST LUKE'S,"100 Hospital, Ketchum, ID, 83340",-114.3495026,43.6485462,7
1259,HOSPITAL,HOSPITAL6,2702,AIR ST LUKE'S GROUND,"100 Hospital, Ketchum, ID, 83340",-114.3495026,43.6485462,8
1260,HOSPITAL,HOSPITAL6,3002,MENTAL HEALTH CLINIC,"100 Hospital, Ketchum, ID, 83340",-114.3495026,43.6485462,1
1261,HOSPITAL,HOSPITAL6,3253,WOOD RIVER ENT,"100 Hospital, Ketchum, ID, 83340",-114.3495026,43.6485462,1
1262,HOSPITAL,HOSPITAL6,3303,SL FAMILY MEDICINE CLINIC,"100 Hospital, Ketchum, ID, 83340",-114.3495026,43.6485462,3
1263,HOSPITAL,HOSPITAL6,3304,FAMILY PRACTICE ASSOCIATES,"100 Hospital, Ketchum, ID, 83340",-114.3495026,43.6485462,1
1264,HOSPITAL,HOSPITAL6,3401,INTERNAL MEDICINE,"100 Hospital, Ketchum, ID, 83340",-114.3495026,43.6485462,16
1265,HOSPITAL,HOSPITAL6,3431,PEDIATRIC ENDOCRINOLOGY,"100 Hospital, Ketchum, ID, 83340",-114.3495026,43.6485462,1
1266,HOSPITAL,HOSPITAL6,3570,SL REHAB ADULT-WR HOSPITAL DR,"100 Hospital, Ketchum, ID, 83340",-114.3495026,43.6485462,11
1267,HOSPITAL,HOSPITAL6,3681,WOOD RIVER ORTHOPAEDICS,"100 Hospital, Ketchum, ID, 83340",-114.3495026,43.6485462,3
1268,HOSPITAL,HOSPITAL6,3683,SAWTOOTH ORTHOPAEDICS & SPORT,"100 Hospital, Ketchum, ID, 83340",-114.3495026,43.6485462,2
1269,HOSPITAL,HOSPITAL6,3684,SUN VALLEY SPORTS MEDICINE,"100 Hospital, Ketchum, ID, 83340",-114.3495026,43.6485462,6
1270,HOSPITAL,HOSPITAL6,3802,OBGYN,"100 Hospital, Ketchum, ID, 83340",-114.3495026,43.6485462,7
1271,HOSPITAL,HOSPITAL6,3872,WOUNDCARE-WR HOSPITAL DR,"100 Hospital, Ketchum, ID, 83340",-114.3495026,43.6485462,3
1272,HOSPITAL,HOSPITAL6,3912,WOOD RIVER DERMATOLOGY,"100 Hospital, Ketchum, ID, 83340",-114.3495026,43.6485462,2
1273,HOSPITAL,HOSPITAL6,4001,RADIOLOGY,"100 Hospital, Ketchum, ID, 83340",-114.3495026,43.6485462,20
1274,HOSPITAL,HOSPITAL6,4041,ULTRASOUND,"100 Hospital, Ketchum, ID, 83340",-114.3495026,43.6485462,1
1275,HOSPITAL,HOSPITAL6,4061,DIAGNOSTIC BREAST IMAGING,"100 Hospital, Ketchum, ID, 83340",-114.3495026,43.6485462,3
1276,HOSPITAL,HOSPITAL6,4201,LABORATORY,"100 Hospital, Ketchum, ID, 83340",-114.3495026,43.6485462,22
1277,HOSPITAL,HOSPITAL6,4812,CARDIOPULMONARY SERVICES,"100 Hospital, Ketchum, ID, 83340",-114.3495026,43.6485462,7
1278,HOSPITAL,HOSPITAL6,4814,CARDIOVASCULAR SVCS,"100 Hospital, Ketchum, ID, 83340",-114.3495026,43.6485462,1
1279,HOSPITAL,HOSPITAL6,4834,INFUSION CENTER,"100 Hospital, Ketchum, ID, 83340",-114.3495026,43.6485462,3
1280,HOSPITAL,HOSPITAL6,5011,PATIENT RESOURCES,"100 Hospital, Ketchum, ID, 83340",-114.3495026,43.6485462,3
1281,HOSPITAL,HOSPITAL6,5051,PHARMACY,"100 Hospital, Ketchum, ID, 83340",-114.3495026,43.6485462,7
1282,HOSPITAL,HOSPITAL6,5111,COURIER SERVICES,"100 Hospital, Ketchum, ID, 83340",-114.3495026,43.6485462,1
1283,HOSPITAL,HOSPITAL6,5202,DISTRIBUTION-MM,"100 Hospital, Ketchum, ID, 83340",-114.3495026,43.6485462,3
1284,HOSPITAL,HOSPITAL6,5251,FOOD & NUTRITION,"100 Hospital, Ketchum, ID, 83340",-114.3495026,43.6485462,15
1285,HOSPITAL,HOSPITAL6,5261,CLINICAL NUTRITIONAL SERVICES,"100 Hospital, Ketchum, ID, 83340",-114.3495026,43.6485462,3
1286,HOSPITAL,HOSPITAL6,5302,ENVIRONMENTAL SERVICES,"100 Hospital, Ketchum, ID, 83340",-114.3495026,43.6485462,19
1287,HOSPITAL,HOSPITAL6,5331,CLINICAL ENGINEERING,"100 Hospital, Ketchum, ID, 83340",-114.3495026,43.6485462,1
1288,HOSPITAL,HOSPITAL6,5332,PLANT & MAINTENANCE,"100 Hospital, Ketchum, ID, 83340",-114.3495026,43.6485462,10
1289,HOSPITAL,HOSPITAL6,5401,IHT INFRA & OPERATIONS,"100 Hospital, Ketchum, ID, 83340",-114.3495026,43.6485462,2
1290,HOSPITAL,HOSPITAL6,6513,HEALTH INFO MGMT SERVICES,"100 Hospital, Ketchum, ID, 83340",-114.3495026,43.6485462,5
1291,HOSPITAL,HOSPITAL6,6553,QUALITY & PATIENT SAFETY,"100 Hospital, Ketchum, ID, 83340",-114.3495026,43.6485462,3
1292,HOSPITAL,HOSPITAL6,6601,ADMINISTRATION,"100 Hospital, Ketchum, ID, 83340",-114.3495026,43.6485462,8
1293,HOSPITAL,HOSPITAL6,6701,MEDICAL STAFF OFFICE,"100 Hospital, Ketchum, ID, 83340",-114.3495026,43.6485462,1
1294,HOSPITAL,HOSPITAL6,6799,NURSING  ADMINISTRATION,"100 Hospital, Ketchum, ID, 83340",-114.3495026,43.6485462,2
1295,HOSPITAL,HOSPITAL6,6811,CENTER FOR COMMUNITY HEALTH,"100 Hospital, Ketchum, ID, 83340",-114.3495026,43.6485462,1
1296,HOSPITAL,HOSPITAL6,6821,SCHOOL NURSE PROGRAM,"100 Hospital, Ketchum, ID, 83340",-114.3495026,43.6485462,1
1297,HOSPITAL,HOSPITAL6,6894,EDUCATION,"100 Hospital, Ketchum, ID, 83340",-114.3495026,43.6485462,2
1298,HOSPITAL,HOSPITAL6,6901,HUMAN RESOURCES,"100 Hospital, Ketchum, ID, 83340",-114.3495026,43.6485462,3
1299,HOSPITAL,HOSPITAL6,6915,EMPLOYEE HEALTH SOLUTIONS,"100 Hospital, Ketchum, ID, 83340",-114.3495026,43.6485462,1
1300,HOSPITAL,HOSPITAL6,7002,MARKETING,"100 Hospital, Ketchum, ID, 83340",-114.3495026,43.6485462,1
1301,HOSPITAL,HOSPITAL6,7004,DEVELOPMENT,"100 Hospital, Ketchum, ID, 83340",-114.3495026,43.6485462,4
1302,HOSPITAL,HOSPITAL6,8001,VOLUNTEERS,"100 Hospital, Ketchum, ID, 83340",-114.3495026,43.6485462,1
1303,HOSPITAL,HOSPITAL6,8005,INTERPRETATION,"100 Hospital, Ketchum, ID, 83340",-114.3495026,43.6485462,5
1304,HOSPITAL,HOSPITAL6,8507,PFS CHARGE CAPTURE,"100 Hospital, Ketchum, ID, 83340",-114.3495026,43.6485462,1
1305,HOSPITAL,HOSPITAL6,8601,PATIENT REGISTRATION,"100 Hospital, Ketchum, ID, 83340",-114.3495026,43.6485462,13
1306,HOSPITAL,HOSPITAL6,8602,FINANCIAL RESOURCE CENTER,"100 Hospital, Ketchum, ID, 83340",-114.3495026,43.6485462,3
1307,HOSPITAL,HOSPITAL6,8702,IHT ENTERPRISE DECISION SUPP,"100 Hospital, Ketchum, ID, 83340",-114.3495026,43.6485462,1
1308,HOSPITAL,HOSPITAL7,1201,MEDICAL / SURGICAL,"709 N Lincoln, Jerome, ID, 83338",-114.5192125,42.7299027,34
1309,HOSPITAL,HOSPITAL7,1303,LABOR AND DELIVERY,"709 N Lincoln, Jerome, ID, 83338",-114.5192125,42.7299027,5
1310,HOSPITAL,HOSPITAL7,2001,SURGICAL SERVICES,"709 N Lincoln, Jerome, ID, 83338",-114.5192125,42.7299027,5
1311,HOSPITAL,HOSPITAL7,2499,SURGICAL SERVICES ADMIN,"709 N Lincoln, Jerome, ID, 83338",-114.5192125,42.7299027,1
1312,HOSPITAL,HOSPITAL7,2501,EMERGENCY DEPARTMENT,"709 N Lincoln, Jerome, ID, 83338",-114.5192125,42.7299027,8
1313,HOSPITAL,HOSPITAL7,2502,ED PHYSICIANS,"709 N Lincoln, Jerome, ID, 83338",-114.5192125,42.7299027,3
1314,HOSPITAL,HOSPITAL7,3301,JEROME FAMILY CLINIC,"709 N Lincoln, Jerome, ID, 83338",-114.5192125,42.7299027,7
1315,HOSPITAL,HOSPITAL7,4001,RADIOLOGY,"709 N Lincoln, Jerome, ID, 83338",-114.5192125,42.7299027,6
1316,HOSPITAL,HOSPITAL7,4101,OCCUPATIONAL HEALTH,"709 N Lincoln, Jerome, ID, 83338",-114.5192125,42.7299027,1
1317,HOSPITAL,HOSPITAL7,4201,LABORATORY,"709 N Lincoln, Jerome, ID, 83338",-114.5192125,42.7299027,7
1318,HOSPITAL,HOSPITAL7,4401,RESPIRATORY THERAPY,"709 N Lincoln, Jerome, ID, 83338",-114.5192125,42.7299027,4
1319,HOSPITAL,HOSPITAL7,5021,SPIRITUAL CARE,"709 N Lincoln, Jerome, ID, 83338",-114.5192125,42.7299027,1
1320,HOSPITAL,HOSPITAL7,5051,PHARMACY,"709 N Lincoln, Jerome, ID, 83338",-114.5192125,42.7299027,4
1321,HOSPITAL,HOSPITAL7,5202,DISTRIBUTION-MM,"709 N Lincoln, Jerome, ID, 83338",-114.5192125,42.7299027,2
1322,HOSPITAL,HOSPITAL7,5251,FOOD & NUTRITION,"709 N Lincoln, Jerome, ID, 83338",-114.5192125,42.7299027,8
1323,HOSPITAL,HOSPITAL7,5302,HOUSEKEEPING,"709 N Lincoln, Jerome, ID, 83338",-114.5192125,42.7299027,6
1324,HOSPITAL,HOSPITAL7,5333,BUILDING SERVICES,"709 N Lincoln, Jerome, ID, 83338",-114.5192125,42.7299027,3
1325,HOSPITAL,HOSPITAL7,6499,GRANTS ADMINISTRATION,"709 N Lincoln, Jerome, ID, 83338",-114.5192125,42.7299027,1
1326,HOSPITAL,HOSPITAL7,6513,HEALTH INFO MGMT SERVICES,"709 N Lincoln, Jerome, ID, 83338",-114.5192125,42.7299027,6
1327,HOSPITAL,HOSPITAL7,6601,ADMINISTRATION,"709 N Lincoln, Jerome, ID, 83338",-114.5192125,42.7299027,2
1328,HOSPITAL,HOSPITAL7,6752,CLINICAL RESOURCE MGMT,"709 N Lincoln, Jerome, ID, 83338",-114.5192125,42.7299027,1
1329,HOSPITAL,HOSPITAL7,6799,NURSING  ADMINISTRATION,"709 N Lincoln, Jerome, ID, 83338",-114.5192125,42.7299027,5
1330,HOSPITAL,HOSPITAL7,6901,HUMAN RESOURCES,"709 N Lincoln, Jerome, ID, 83338",-114.5192125,42.7299027,1
1331,HOSPITAL,HOSPITAL7,6915,EMPLOYEE HEALTH SOLUTIONS,"709 N Lincoln, Jerome, ID, 83338",-114.5192125,42.7299027,1
1332,HOSPITAL,HOSPITAL7,8501,PATIENT FINANCIAL SERVICES,"709 N Lincoln, Jerome, ID, 83338",-114.5192125,42.7299027,8
1333,HOSPITAL,HOSPITAL7,8601,PATIENT ACCESS,"709 N Lincoln, Jerome, ID, 83338",-114.5192125,42.7299027,7
1334,HOSPITAL,HOSPITAL8,1151,SKILLED NURSING,"895 N 6th E, Mountain Home, ID, 83647",-115.6930234,43.1387856,34
1335,HOSPITAL,HOSPITAL8,1201,MEDICAL / SURGICAL,"895 N 6th E, Mountain Home, ID, 83647",-115.6930234,43.1387856,36
1336,HOSPITAL,HOSPITAL8,1201,MEDICAL / SURGICAL 5,"895 N 6th E, Mountain Home, ID, 83647",-115.6930234,43.1387856,1
1337,HOSPITAL,HOSPITAL8,2001,SURGICAL SERVICES,"895 N 6th E, Mountain Home, ID, 83647",-115.6930234,43.1387856,4
1338,HOSPITAL,HOSPITAL8,2006,SURGERY CENTER - RIVER ST,"895 N 6th E, Mountain Home, ID, 83647",-115.6930234,43.1387856,1
1339,HOSPITAL,HOSPITAL8,2501,EMERGENCY DEPARTMENT,"895 N 6th E, Mountain Home, ID, 83647",-115.6930234,43.1387856,16
1340,HOSPITAL,HOSPITAL8,2651,HOSPICE,"895 N 6th E, Mountain Home, ID, 83647",-115.6930234,43.1387856,1
1341,HOSPITAL,HOSPITAL8,2702,AMBULANCE SERVICES,"895 N 6th E, Mountain Home, ID, 83647",-115.6930234,43.1387856,4
1342,HOSPITAL,HOSPITAL8,3301,TRINITY MOUNTAIN MEDICAL CLINI,"895 N 6th E, Mountain Home, ID, 83647",-115.6930234,43.1387856,1
1343,HOSPITAL,HOSPITAL8,3651,ELMORE GENERAL SURGERY CLINIC,"895 N 6th E, Mountain Home, ID, 83647",-115.6930234,43.1387856,1
1344,HOSPITAL,HOSPITAL8,4001,RADIOLOGY,"895 N 6th E, Mountain Home, ID, 83647",-115.6930234,43.1387856,7
1345,HOSPITAL,HOSPITAL8,4021,CT SCAN,"895 N 6th E, Mountain Home, ID, 83647",-115.6930234,43.1387856,4
1346,HOSPITAL,HOSPITAL8,4041,ULTRASOUND,"895 N 6th E, Mountain Home, ID, 83647",-115.6930234,43.1387856,3
1347,HOSPITAL,HOSPITAL8,4201,LABORATORY,"895 N 6th E, Mountain Home, ID, 83647",-115.6930234,43.1387856,16
1348,HOSPITAL,HOSPITAL8,4401,RESPIRATORY THERAPY,"895 N 6th E, Mountain Home, ID, 83647",-115.6930234,43.1387856,1
1349,HOSPITAL,HOSPITAL8,4822,OUTPATIENT SERVICES,"895 N 6th E, Mountain Home, ID, 83647",-115.6930234,43.1387856,2
1350,HOSPITAL,HOSPITAL8,5051,PHARMACY,"895 N 6th E, Mountain Home, ID, 83647",-115.6930234,43.1387856,5
1351,HOSPITAL,HOSPITAL8,5151,CENTRAL STERILE PROCESSING,"895 N 6th E, Mountain Home, ID, 83647",-115.6930234,43.1387856,3
1352,HOSPITAL,HOSPITAL8,5251,FOOD & NUTRITION,"895 N 6th E, Mountain Home, ID, 83647",-115.6930234,43.1387856,12
1353,HOSPITAL,HOSPITAL8,5302,HOUSEKEEPING,"895 N 6th E, Mountain Home, ID, 83647",-115.6930234,43.1387856,14
1354,HOSPITAL,HOSPITAL8,5333,BUILDING SERVICES,"895 N 6th E, Mountain Home, ID, 83647",-115.6930234,43.1387856,5
1355,HOSPITAL,HOSPITAL8,5401,IHT INFRA & OPERATIONS,"895 N 6th E, Mountain Home, ID, 83647",-115.6930234,43.1387856,1
1356,HOSPITAL,HOSPITAL8,6513,HEALTH INFO MGMT SERVICES,"895 N 6th E, Mountain Home, ID, 83647",-115.6930234,43.1387856,6
1357,HOSPITAL,HOSPITAL8,6601,ADMINISTRATION,"895 N 6th E, Mountain Home, ID, 83647",-115.6930234,43.1387856,8
1358,HOSPITAL,HOSPITAL8,6799,NURSING  ADMINISTRATION,"895 N 6th E, Mountain Home, ID, 83647",-115.6930234,43.1387856,6
1359,HOSPITAL,HOSPITAL8,6894,EDUCATION,"895 N 6th E, Mountain Home, ID, 83647",-115.6930234,43.1387856,2
1360,HOSPITAL,HOSPITAL8,8001,VOLUNTEERS,"895 N 6th E, Mountain Home, ID, 83647",-115.6930234,43.1387856,1
1361,HOSPITAL,HOSPITAL8,8501,PATIENT FINANCIAL SERVICES,"895 N 6th E, Mountain Home, ID, 83647",-115.6930234,43.1387856,21
1362,LAUNDRY,LAUNDRY1,4221,MICROBIOLOGY,"3000 S Denver, Boise, ID, 83705",-116.195753,43.5747829,1
1363,LAUNDRY,LAUNDRY1,5201,PURCHASING,"3000 S Denver, Boise, ID, 83705",-116.195753,43.5747829,9
1364,LAUNDRY,LAUNDRY1,5204,SUPPLY CHAIN MANAGEMENT,"3000 S Denver, Boise, ID, 83705",-116.195753,43.5747829,28
1365,LAUNDRY,LAUNDRY1,5301,LAUNDRY,"3000 S Denver, Boise, ID, 83705",-116.195753,43.5747829,46
1366,LAUNDRY,LAUNDRY1,5302,ENVIRONMENTAL SERVICES,"3000 S Denver, Boise, ID, 83705",-116.195753,43.5747829,1
1367,LAUNDRY,LAUNDRY1,5401,IHT INFRA & OPERATIONS,"3000 S Denver, Boise, ID, 83705",-116.195753,43.5747829,1
1368,LAUNDRY,LAUNDRY1,5403,IHT CLINICAL SUPPORT SERVICES,"3000 S Denver, Boise, ID, 83705",-116.195753,43.5747829,1
1369,LAUNDRY,LAUNDRY1,6491,RESEARCH IRB OFFICE,"3000 S Denver, Boise, ID, 83705",-116.195753,43.5747829,2
1370,LAUNDRY,LAUNDRY1,6497,RESEARCH ADMINISTRATION,"3000 S Denver, Boise, ID, 83705",-116.195753,43.5747829,1
1371,LAUNDRY,LAUNDRY1,8705,ACCOUNTS PAYABLE,"3000 S Denver, Boise, ID, 83705",-116.195753,43.5747829,1
1372,OFFICE,OFFICE002,9504,IDAHO CYTOGENETICS LAB,"4355 Emerald, Boise, ID, 83706",-116.2357198,43.6109782,8
1373,OFFICE,OFFICE003,5001,SOCIAL SERVICES,"108 W Jefferson, Boise, ID, 83712",-116.1929216,43.6136892,3
1374,OFFICE,OFFICE003,6981,CONSUMER ENGAGEMENT & WELLNESS,"108 W Jefferson, Boise, ID, 83712",-116.1929216,43.6136892,2
1375,OFFICE,OFFICE004,3955,SPORTS MED CONCUSSION CLINIC,"111 W State, Boise, ID, 83702",-116.192994,43.61454,2
1376,OFFICE,OFFICE004,6601,ADMINISTRATION,"111 W State, Boise, ID, 83702",-116.192994,43.61454,1
1377,OFFICE,OFFICE004,6605,SL OUTPATIENT REHAB ADMIN,"111 W State, Boise, ID, 83702",-116.192994,43.61454,2
1378,OFFICE,OFFICE004,6801,CLINICAL EDUCATION,"111 W State, Boise, ID, 83702",-116.192994,43.61454,1
1379,OFFICE,OFFICE004,6894,EDUCATION,"111 W State, Boise, ID, 83702",-116.192994,43.61454,1
1380,OFFICE,OFFICE004,7509,ORTHO NEURO MSO SUPPORT,"111 W State, Boise, ID, 83702",-116.192994,43.61454,16
1381,OFFICE,OFFICE008,6892,ORGANIZATIONAL DEVELOPMENT,"148 E Jeffereson, Boise, ID, 83712",-116.1924159,43.6134323,1
1382,OFFICE,OFFICE008,6901,HUMAN RESOURCES,"148 E Jeffereson, Boise, ID, 83712",-116.1924159,43.6134323,37
1383,OFFICE,OFFICE008,6903,HR COMPENSATION,"148 E Jeffereson, Boise, ID, 83712",-116.1924159,43.6134323,5
1384,OFFICE,OFFICE008,6904,PHYSICIAN RECRUITING,"148 E Jeffereson, Boise, ID, 83712",-116.1924159,43.6134323,2
1385,OFFICE,OFFICE009,2499,SURGICAL SERVICES ADMIN,"1500 Shoreline, Boise, ID, 83702",-116.218107,43.615947,1
1386,OFFICE,OFFICE009,2601,HOME CARE,"1500 Shoreline, Boise, ID, 83702",-116.218107,43.615947,1
1387,OFFICE,OFFICE009,3351,SL TV PEDIATRICS-MERIDIAN,"1500 Shoreline, Boise, ID, 83702",-116.218107,43.615947,1
1388,OFFICE,OFFICE009,3402,SL INTERNAL MED-BOI PARK CTR,"1500 Shoreline, Boise, ID, 83702",-116.218107,43.615947,1
1389,OFFICE,OFFICE009,3403,SL INTERNAL MEDICINE-MERID,"1500 Shoreline, Boise, ID, 83702",-116.218107,43.615947,2
1390,OFFICE,OFFICE009,3441,SL RHEUMATOLOGY-BOISE,"1500 Shoreline, Boise, ID, 83702",-116.218107,43.615947,1
1391,OFFICE,OFFICE009,3442,SL RHEUMATOLOGY-MERIDIAN,"1500 Shoreline, Boise, ID, 83702",-116.218107,43.615947,1
1392,OFFICE,OFFICE009,3654,SL BOISE SURGICAL GROUP-MERID,"1500 Shoreline, Boise, ID, 83702",-116.218107,43.615947,1
1393,OFFICE,OFFICE009,3661,SL BARIATRICS & GEN SURGERY,"1500 Shoreline, Boise, ID, 83702",-116.218107,43.615947,1
1394,OFFICE,OFFICE009,3673,SL NW NEUROSURGERY ASSOC,"1500 Shoreline, Boise, ID, 83702",-116.218107,43.615947,1
1395,OFFICE,OFFICE009,3821,SL NURSE MIDWIVES,"1500 Shoreline, Boise, ID, 83702",-116.218107,43.615947,1
1396,OFFICE,OFFICE009,3851,SL HUMPHREYS DIABETES-BOI,"1500 Shoreline, Boise, ID, 83702",-116.218107,43.615947,3
1397,OFFICE,OFFICE009,3873,WOUNDCARE-LOUISE,"1500 Shoreline, Boise, ID, 83702",-116.218107,43.615947,1
1398,OFFICE,OFFICE009,4098,BREAST CARE SERVICES ADMIN,"1500 Shoreline, Boise, ID, 83702",-116.218107,43.615947,6
1399,OFFICE,OFFICE009,4101,OCC HEALTH SERVICES BOISE,"1500 Shoreline, Boise, ID, 83702",-116.218107,43.615947,1
1400,OFFICE,OFFICE009,5103,TRANSFER CENTER,"1500 Shoreline, Boise, ID, 83702",-116.218107,43.615947,15
1401,OFFICE,OFFICE009,5252,FOOD & NUTRITION - SHORELINE,"1500 Shoreline, Boise, ID, 83702",-116.218107,43.615947,5
1402,OFFICE,OFFICE009,5333,BUILDING SERVICES,"1500 Shoreline, Boise, ID, 83702",-116.218107,43.615947,1
1403,OFFICE,OFFICE009,5399,BUILDING SERVICES ADMIN,"1500 Shoreline, Boise, ID, 83702",-116.218107,43.615947,1
1404,OFFICE,OFFICE009,5401,IHT INFRA & OPERATIONS,"1500 Shoreline, Boise, ID, 83702",-116.218107,43.615947,2
1405,OFFICE,OFFICE009,5402,IHT ENTERPRISE AND BUS SERVICE,"1500 Shoreline, Boise, ID, 83702",-116.218107,43.615947,1
1406,OFFICE,OFFICE009,5404,IT ACUTE CARE SERVICES,"1500 Shoreline, Boise, ID, 83702",-116.218107,43.615947,1
1407,OFFICE,OFFICE009,5405,IHT EHR SERVICES,"1500 Shoreline, Boise, ID, 83702",-116.218107,43.615947,7
1408,OFFICE,OFFICE009,5451,MSTI BUSINESS OPERATIONS,"1500 Shoreline, Boise, ID, 83702",-116.218107,43.615947,1
1409,OFFICE,OFFICE009,5498,IHT HEALTH INFORMATICS,"1500 Shoreline, Boise, ID, 83702",-116.218107,43.615947,1
1410,OFFICE,OFFICE009,5499,IHT SHARED SERVICES,"1500 Shoreline, Boise, ID, 83702",-116.218107,43.615947,1
1411,OFFICE,OFFICE009,6501,MEDICAL TRANSCRIPTION,"1500 Shoreline, Boise, ID, 83702",-116.218107,43.615947,1
1412,OFFICE,OFFICE009,6513,HEALTH INFO MGMT SERVICES,"1500 Shoreline, Boise, ID, 83702",-116.218107,43.615947,9
1413,OFFICE,OFFICE009,6531,CLINICAL DOCUMENTATION IMPROV,"1500 Shoreline, Boise, ID, 83702",-116.218107,43.615947,2
1414,OFFICE,OFFICE009,6553,QUALITY & PATIENT SAFETY,"1500 Shoreline, Boise, ID, 83702",-116.218107,43.615947,2
1415,OFFICE,OFFICE009,6601,ADMINISTRATION,"1500 Shoreline, Boise, ID, 83702",-116.218107,43.615947,29
1416,OFFICE,OFFICE009,6601,EXECUTIVE OFFICE,"1500 Shoreline, Boise, ID, 83702",-116.218107,43.615947,1
1417,OFFICE,OFFICE009,6702,CENTRALIZED VERIFICATION ORG,"1500 Shoreline, Boise, ID, 83702",-116.218107,43.615947,1
1418,OFFICE,OFFICE009,6801,CLINICAL EDUCATION,"1500 Shoreline, Boise, ID, 83702",-116.218107,43.615947,6
1419,OFFICE,OFFICE009,6893,LEARNING SOLUTIONS,"1500 Shoreline, Boise, ID, 83702",-116.218107,43.615947,1
1420,OFFICE,OFFICE009,6894,EDUCATION,"1500 Shoreline, Boise, ID, 83702",-116.218107,43.615947,5
1421,OFFICE,OFFICE009,6901,HUMAN RESOURCES,"1500 Shoreline, Boise, ID, 83702",-116.218107,43.615947,1
1422,OFFICE,OFFICE009,6904,PHYSICIAN RECRUITING,"1500 Shoreline, Boise, ID, 83702",-116.218107,43.615947,3
1423,OFFICE,OFFICE009,6913,WORKERS COMPENSATION,"1500 Shoreline, Boise, ID, 83702",-116.218107,43.615947,8
1424,OFFICE,OFFICE009,7005,COMMUNITY CONNECT,"1500 Shoreline, Boise, ID, 83702",-116.218107,43.615947,1
1425,OFFICE,OFFICE009,8003,SWITCHBOARD,"1500 Shoreline, Boise, ID, 83702",-116.218107,43.615947,17
1426,OFFICE,OFFICE009,8004,ST LUKES CONNECT,"1500 Shoreline, Boise, ID, 83702",-116.218107,43.615947,91
1427,OFFICE,OFFICE009,8502,SBO CUSTOMER SERVICE,"1500 Shoreline, Boise, ID, 83702",-116.218107,43.615947,42
1428,OFFICE,OFFICE009,8503,CASH MANAGEMENT,"1500 Shoreline, Boise, ID, 83702",-116.218107,43.615947,30
1429,OFFICE,OFFICE009,8505,HB INSURANCE RECOVERY,"1500 Shoreline, Boise, ID, 83702",-116.218107,43.615947,37
1430,OFFICE,OFFICE009,8506,CENTRAL BILL'G OFF-PHYS SVCS,"1500 Shoreline, Boise, ID, 83702",-116.218107,43.615947,27
1431,OFFICE,OFFICE009,8506,HB BILLING,"1500 Shoreline, Boise, ID, 83702",-116.218107,43.615947,29
1432,OFFICE,OFFICE009,8507,PFS CHARGE CAPTURE,"1500 Shoreline, Boise, ID, 83702",-116.218107,43.615947,10
1433,OFFICE,OFFICE009,8508,PFS CDM MANAGEMENT,"1500 Shoreline, Boise, ID, 83702",-116.218107,43.615947,11
1434,OFFICE,OFFICE009,8513,PB BILLING/INS RECOVERY,"1500 Shoreline, Boise, ID, 83702",-116.218107,43.615947,47
1435,OFFICE,OFFICE009,8597,PAYOR REIMBURSEMENT MGMT,"1500 Shoreline, Boise, ID, 83702",-116.218107,43.615947,11
1436,OFFICE,OFFICE009,8598,PFS ADMINISTRATION,"1500 Shoreline, Boise, ID, 83702",-116.218107,43.615947,7
1437,OFFICE,OFFICE009,8601,PATIENT ACCESS,"1500 Shoreline, Boise, ID, 83702",-116.218107,43.615947,6
1438,OFFICE,OFFICE009,8601,PATIENT REGISTRATION,"1500 Shoreline, Boise, ID, 83702",-116.218107,43.615947,2
1439,OFFICE,OFFICE009,8602,FINANCIAL RESOURCE CENTER,"1500 Shoreline, Boise, ID, 83702",-116.218107,43.615947,28
1440,OFFICE,OFFICE009,8699,PATIENT ACCESS ADMINISTRATION,"1500 Shoreline, Boise, ID, 83702",-116.218107,43.615947,32
1441,OFFICE,OFFICE011,6771,ACCREDITATION,"166 W Jefferson, Boise, ID, 83702",-116.193424,43.614297,1
1442,OFFICE,OFFICE011,6791,CENTER FOR NURSING EXCELLENCE,"166 W Jefferson, Boise, ID, 83702",-116.193424,43.614297,3
1443,OFFICE,OFFICE011,7005,COMMUNITY CONNECT,"166 W Jefferson, Boise, ID, 83702",-116.193424,43.614297,1
1444,OFFICE,OFFICE013,6601,ADMINISTRATION,"190 W Jefferson, Boise, ID, 83702",-116.193742,43.614457,8
1445,OFFICE,OFFICE013,6601,EXECUTIVE OFFICE,"190 W Jefferson, Boise, ID, 83702",-116.193742,43.614457,1
1446,OFFICE,OFFICE013,6959,ANNUAL GIVING,"190 W Jefferson, Boise, ID, 83702",-116.193742,43.614457,1
1447,OFFICE,OFFICE013,6981,CONSUMER ENGAGEMENT & WELLNESS,"190 W Jefferson, Boise, ID, 83702",-116.193742,43.614457,1
1448,OFFICE,OFFICE015,4072,IMAGING CENTER,"214 E Jefferson, Boise, ID, 83702",-116.1948037,43.6146384,1
1449,OFFICE,OFFICE015,5371,REAL ESTATE SERVICES,"214 E Jefferson, Boise, ID, 83702",-116.1948037,43.6146384,1
1450,OFFICE,OFFICE015,5372,CONSTRUCTION,"214 E Jefferson, Boise, ID, 83702",-116.1948037,43.6146384,16
1451,OFFICE,OFFICE015,5398,CONSTRUCTION ADMINISTRATION,"214 E Jefferson, Boise, ID, 83702",-116.1948037,43.6146384,4
1452,OFFICE,OFFICE016,8702,IHT ENTERPRISE DECISION SUPP,"225 N 9th, Boise, ID, 83702",-116.2037827,43.6173671,14
1453,OFFICE,OFFICE018,6951,FITONE,"300 Main, Boise, ID, 83702",-116.1978657,43.6131156,5
1454,OFFICE,OFFICE019,7002,MARKETING,"305 W Fort, Boise, ID, 83702",-116.1938516,43.6171946,1
1455,OFFICE,OFFICE020,5071,ANTICOAGULATION CLINIC,"316 W Washington, Boise, ID, 83712",-116.1943123,43.61704,1
1456,OFFICE,OFFICE020,5401,IHT INFRA & OPERATIONS,"316 W Washington, Boise, ID, 83712",-116.1943123,43.61704,88
1457,OFFICE,OFFICE020,5402,IHT ENTERPRISE AND BUS SERVICE,"316 W Washington, Boise, ID, 83712",-116.1943123,43.61704,21
1458,OFFICE,OFFICE020,5403,IHT CLINICAL SUPPORT SERVICES,"316 W Washington, Boise, ID, 83712",-116.1943123,43.61704,4
1459,OFFICE,OFFICE020,5404,IT ACUTE CARE SERVICES,"316 W Washington, Boise, ID, 83712",-116.1943123,43.61704,8
1460,OFFICE,OFFICE020,5405,IHT EHR SERVICES,"316 W Washington, Boise, ID, 83712",-116.1943123,43.61704,5
1461,OFFICE,OFFICE020,5406,IHT CYBER SECURITY,"316 W Washington, Boise, ID, 83712",-116.1943123,43.61704,15
1462,OFFICE,OFFICE020,5499,IHT SHARED SERVICES,"316 W Washington, Boise, ID, 83712",-116.1943123,43.61704,5
1463,OFFICE,OFFICE020,6023,PCRC NCORP GRANT,"316 W Washington, Boise, ID, 83712",-116.1943123,43.61704,1
1464,OFFICE,OFFICE020,6554,OPERATIONS IMPROVEMENT,"316 W Washington, Boise, ID, 83712",-116.1943123,43.61704,1
1465,OFFICE,OFFICE020,6601,EXECUTIVE OFFICE,"316 W Washington, Boise, ID, 83712",-116.1943123,43.61704,1
1466,OFFICE,OFFICE020,8251,EPMO,"316 W Washington, Boise, ID, 83712",-116.1943123,43.61704,1
1467,OFFICE,OFFICE021,2201,PRE-ADMISSION TESTING,"325 E Bannock, Boise, ID, 83712",-116.1906974,43.6113807,1
1468,OFFICE,OFFICE021,2601,HOME CARE,"325 E Bannock, Boise, ID, 83712",-116.1906974,43.6113807,1
1469,OFFICE,OFFICE021,2651,HOSPICE,"325 E Bannock, Boise, ID, 83712",-116.1906974,43.6113807,19
1470,OFFICE,OFFICE022,2601,HOME CARE,"325 E Idaho, Boise, ID, 83712",-116.1926232,43.6110111,1
1471,OFFICE,OFFICE022,2651,HOSPICE,"325 E Idaho, Boise, ID, 83712",-116.1926232,43.6110111,7
1472,OFFICE,OFFICE022,3953,PALLIATIVE MEDICINE SVCS-MSTI,"325 E Idaho, Boise, ID, 83712",-116.1926232,43.6110111,1
1473,OFFICE,OFFICE022,5001,SOCIAL SERVICES,"325 E Idaho, Boise, ID, 83712",-116.1926232,43.6110111,1
1474,OFFICE,OFFICE023,2006,SURGERY CENTER - RIVER ST,"325 W Idaho, Boise, ID, 83702",-116.1980027,43.6136111,1
1475,OFFICE,OFFICE023,2601,HOME CARE,"325 W Idaho, Boise, ID, 83702",-116.1980027,43.6136111,65
1476,OFFICE,OFFICE023,2651,HOSPICE,"325 W Idaho, Boise, ID, 83702",-116.1980027,43.6136111,21
1477,OFFICE,OFFICE023,2699,HOME CARE / HOSPICE ADMIN,"325 W Idaho, Boise, ID, 83702",-116.1980027,43.6136111,2
1478,OFFICE,OFFICE023,3872,WOUNDCARE-ROBBINS,"325 W Idaho, Boise, ID, 83702",-116.1980027,43.6136111,1
1479,OFFICE,OFFICE023,3873,WOUNDCARE-LOUISE,"325 W Idaho, Boise, ID, 83702",-116.1980027,43.6136111,3
1480,OFFICE,OFFICE023,4301,REHABILITATION,"325 W Idaho, Boise, ID, 83702",-116.1980027,43.6136111,2
1481,OFFICE,OFFICE023,4321,CARDIAC REHABILITATION,"325 W Idaho, Boise, ID, 83702",-116.1980027,43.6136111,1
1482,OFFICE,OFFICE023,6551,CASE MANAGEMENT,"325 W Idaho, Boise, ID, 83702",-116.1980027,43.6136111,1
1483,OFFICE,OFFICE023,8502,SBO CUSTOMER SERVICE,"325 W Idaho, Boise, ID, 83702",-116.1980027,43.6136111,1
1484,OFFICE,OFFICE024,2798,AIR ST LUKE'S MEMBERSHIPS,"373 W Fort, Boise, ID, 83702",-116.194211,43.617492,1
1485,OFFICE,OFFICE024,3753,MOUNTAIN STATES UROLOGY-MERID,"373 W Fort, Boise, ID, 83702",-116.194211,43.617492,2
1486,OFFICE,OFFICE024,5401,IHT INFRA & OPERATIONS,"373 W Fort, Boise, ID, 83702",-116.194211,43.617492,9
1487,OFFICE,OFFICE024,5403,IHT CLINICAL SUPPORT SERVICES,"373 W Fort, Boise, ID, 83702",-116.194211,43.617492,2
1488,OFFICE,OFFICE024,5405,IHT EHR SERVICES,"373 W Fort, Boise, ID, 83702",-116.194211,43.617492,1
1489,OFFICE,OFFICE024,6499,GRANT ADMINISTRATION,"373 W Fort, Boise, ID, 83702",-116.194211,43.617492,3
1490,OFFICE,OFFICE024,6554,OPERATIONS IMPROVEMENT,"373 W Fort, Boise, ID, 83702",-116.194211,43.617492,1
1491,OFFICE,OFFICE024,8503,CASH MANAGEMENT,"373 W Fort, Boise, ID, 83702",-116.194211,43.617492,2
1492,OFFICE,OFFICE024,8508,PFS CDM MANAGEMENT,"373 W Fort, Boise, ID, 83702",-116.194211,43.617492,1
1493,OFFICE,OFFICE024,8598,PFS ADMINISTRATION,"373 W Fort, Boise, ID, 83702",-116.194211,43.617492,2
1494,OFFICE,OFFICE024,8701,FINANCE,"373 W Fort, Boise, ID, 83702",-116.194211,43.617492,21
1495,OFFICE,OFFICE024,8704,PAYROLL,"373 W Fort, Boise, ID, 83702",-116.194211,43.617492,5
1496,OFFICE,OFFICE024,8705,ACCOUNTS PAYABLE,"373 W Fort, Boise, ID, 83702",-116.194211,43.617492,7
1497,OFFICE,OFFICE025,1251,NICU,"414 N 1st, Boise, ID, 83702",-116.1923138,43.6141497,1
1498,OFFICE,OFFICE025,3804,SL WOMAN'S CLINIC-BOI,"414 N 1st, Boise, ID, 83702",-116.1923138,43.6141497,1
1499,OFFICE,OFFICE025,5022,SPIRITUAL CARE CPE,"414 N 1st, Boise, ID, 83702",-116.1923138,43.6141497,1
1500,OFFICE,OFFICE025,5302,ENVIRONMENTAL SERVICES,"414 N 1st, Boise, ID, 83702",-116.1923138,43.6141497,1
1501,OFFICE,OFFICE025,5398,CONSTRUCTION ADMINISTRATION,"414 N 1st, Boise, ID, 83702",-116.1923138,43.6141497,1
1502,OFFICE,OFFICE025,5401,IHT INFRA & OPERATIONS,"414 N 1st, Boise, ID, 83702",-116.1923138,43.6141497,9
1503,OFFICE,OFFICE025,6531,CLINICAL DOCUMENTATION IMPROV,"414 N 1st, Boise, ID, 83702",-116.1923138,43.6141497,2
1504,OFFICE,OFFICE025,6553,QUALITY & PATIENT SAFETY,"414 N 1st, Boise, ID, 83702",-116.1923138,43.6141497,14
1505,OFFICE,OFFICE025,6554,OPERATIONS IMPROVEMENT,"414 N 1st, Boise, ID, 83702",-116.1923138,43.6141497,4
1506,OFFICE,OFFICE025,6913,WORKERS COMPENSATION,"414 N 1st, Boise, ID, 83702",-116.1923138,43.6141497,1
1507,OFFICE,OFFICE025,6915,EMPLOYEE HEALTH SOLUTIONS,"414 N 1st, Boise, ID, 83702",-116.1923138,43.6141497,11
1508,OFFICE,OFFICE025,6981,CONSUMER ENGAGEMENT & WELLNESS,"414 N 1st, Boise, ID, 83702",-116.1923138,43.6141497,1
1509,OFFICE,OFFICE025,8005,CULTURAL AND LANGUAGE SERVICES,"414 N 1st, Boise, ID, 83702",-116.1923138,43.6141497,4
1510,OFFICE,OFFICE027,5401,IHT INFRA & OPERATIONS,"420 W Washington, Boise, ID, 83702",-116.1953502,43.6171926,2
1511,OFFICE,OFFICE027,5403,IHT CLINICAL SUPPORT SERVICES,"420 W Washington, Boise, ID, 83702",-116.1953502,43.6171926,4
1512,OFFICE,OFFICE027,6903,HR COMPENSATION,"420 W Washington, Boise, ID, 83702",-116.1953502,43.6171926,12
1513,OFFICE,OFFICE027,6912,BENEFITS-RETIREMENT-HRIS,"420 W Washington, Boise, ID, 83702",-116.1953502,43.6171926,22
1514,OFFICE,OFFICE028,5401,IHT INFRA & OPERATIONS,"422 W Washington, Boise, ID, 83702",-116.1953738,43.6172047,7
1515,OFFICE,OFFICE028,5402,IHT ENTERPRISE AND BUS SERVICE,"422 W Washington, Boise, ID, 83702",-116.1953738,43.6172047,4
1516,OFFICE,OFFICE028,5403,IHT CLINICAL SUPPORT SERVICES,"422 W Washington, Boise, ID, 83702",-116.1953738,43.6172047,13
1517,OFFICE,OFFICE028,5404,IT ACUTE CARE SERVICES,"422 W Washington, Boise, ID, 83702",-116.1953738,43.6172047,1
1518,OFFICE,OFFICE028,5405,IHT EHR SERVICES,"422 W Washington, Boise, ID, 83702",-116.1953738,43.6172047,6
1519,OFFICE,OFFICE028,7001,PUBLIC RELATIONS,"422 W Washington, Boise, ID, 83702",-116.1953738,43.6172047,2
1520,OFFICE,OFFICE028,7002,MARKETING,"422 W Washington, Boise, ID, 83702",-116.1953738,43.6172047,1
1521,OFFICE,OFFICE029,4225,OUTPATIENT DRAW SITES,"425 W Bannock, Boise, ID, 83702",-116.1983687,43.6149881,1
1522,OFFICE,OFFICE031,5401,IHT INFRA & OPERATIONS,"450 W Washington, Boise, ID, 83702",-116.1955629,43.6175165,1
1523,OFFICE,OFFICE031,5405,IHT EHR SERVICES,"450 W Washington, Boise, ID, 83702",-116.1955629,43.6175165,7
1524,OFFICE,OFFICE032,4211,ANATOMIC CYTOLOGY SERVICES,"701 Morrison Knudsen Drive, Boise, ID, 83702",-116.1929469,43.6077694,1
1525,OFFICE,OFFICE032,5204,SUPPLY CHAIN MANAGEMENT,"701 Morrison Knudsen Drive, Boise, ID, 83702",-116.1929469,43.6077694,2
1526,OFFICE,OFFICE032,5402,IHT ENTERPRISE AND BUS SERVICE,"701 Morrison Knudsen Drive, Boise, ID, 83702",-116.1929469,43.6077694,13
1527,OFFICE,OFFICE032,6011,SLR CHILDREN SPECIALTY STUDIES,"701 Morrison Knudsen Drive, Boise, ID, 83702",-116.1929469,43.6077694,1
1528,OFFICE,OFFICE032,6023,PCRC NCORP GRANT,"701 Morrison Knudsen Drive, Boise, ID, 83702",-116.1929469,43.6077694,2
1529,OFFICE,OFFICE032,6491,RESEARCH IRB OFFICE,"701 Morrison Knudsen Drive, Boise, ID, 83702",-116.1929469,43.6077694,1
1530,OFFICE,OFFICE032,6493,MSTI RESEARCH ADMINISTRATION,"701 Morrison Knudsen Drive, Boise, ID, 83702",-116.1929469,43.6077694,3
1531,OFFICE,OFFICE032,6494,RESEARCH CLINICAL OPERATIONS,"701 Morrison Knudsen Drive, Boise, ID, 83702",-116.1929469,43.6077694,3
1532,OFFICE,OFFICE032,6495,RESEARCH NON CLINICAL OPS,"701 Morrison Knudsen Drive, Boise, ID, 83702",-116.1929469,43.6077694,6
1533,OFFICE,OFFICE032,6496,ST LUKES APPLIED RESEARCH,"701 Morrison Knudsen Drive, Boise, ID, 83702",-116.1929469,43.6077694,3
1534,OFFICE,OFFICE032,6497,RESEARCH ADMINISTRATION,"701 Morrison Knudsen Drive, Boise, ID, 83702",-116.1929469,43.6077694,1
1535,OFFICE,OFFICE032,6499,GRANT ADMINISTRATION,"701 Morrison Knudsen Drive, Boise, ID, 83702",-116.1929469,43.6077694,2
1536,OFFICE,OFFICE032,6554,OPERATIONS IMPROVEMENT,"701 Morrison Knudsen Drive, Boise, ID, 83702",-116.1929469,43.6077694,12
1537,OFFICE,OFFICE032,6751,MSTI CLINICAL SUPPORT SERVICES,"701 Morrison Knudsen Drive, Boise, ID, 83702",-116.1929469,43.6077694,1
1538,OFFICE,OFFICE032,6893,LEARNING SOLUTIONS,"701 Morrison Knudsen Drive, Boise, ID, 83702",-116.1929469,43.6077694,5
1539,OFFICE,OFFICE032,6912,BENEFITS-RETIREMENT-HRIS,"701 Morrison Knudsen Drive, Boise, ID, 83702",-116.1929469,43.6077694,1
1540,OFFICE,OFFICE032,8251,EPMO,"701 Morrison Knudsen Drive, Boise, ID, 83702",-116.1929469,43.6077694,5
1541,OFFICE,OFFICE032,8701,FINANCE,"701 Morrison Knudsen Drive, Boise, ID, 83702",-116.1929469,43.6077694,6
1542,OFFICE,OFFICE032,8702,IHT ENTERPRISE DECISION SUPP,"701 Morrison Knudsen Drive, Boise, ID, 83702",-116.1929469,43.6077694,1
1543,OFFICE,OFFICE032,8703,FINANCIAL PLANNING,"701 Morrison Knudsen Drive, Boise, ID, 83702",-116.1929469,43.6077694,30
1544,OFFICE,OFFICE032,8704,PAYROLL,"701 Morrison Knudsen Drive, Boise, ID, 83702",-116.1929469,43.6077694,3
1545,OFFICE,OFFICE032,8705,ACCOUNTS PAYABLE,"701 Morrison Knudsen Drive, Boise, ID, 83702",-116.1929469,43.6077694,15
1546,OFFICE,OFFICE033,6494,RESEARCH CLINICAL OPERATIONS,"115 W State, Boise, ID, 83702",-116.193149,43.614619,1
1547,OFFICE,OFFICE033,6551,CASE MANAGEMENT,"115 W State, Boise, ID, 83702",-116.193149,43.614619,8
1548,OFFICE,OFFICE033,6553,QUALITY & PATIENT SAFETY,"115 W State, Boise, ID, 83702",-116.193149,43.614619,5
1549,OFFICE,OFFICE033,6701,MEDICAL STAFF OFFICE,"115 W State, Boise, ID, 83702",-116.193149,43.614619,3
1550,OFFICE,OFFICE034,1303,LABOR AND DELIVERY,"102 W Jefferson, Boise, ID, 83702",-116.193061,43.614112,1
1551,OFFICE,OFFICE034,6601,ADMINISTRATION,"102 W Jefferson, Boise, ID, 83702",-116.193061,43.614112,1
1552,OFFICE,OFFICE034,6612,SLHP ADMIN,"102 W Jefferson, Boise, ID, 83702",-116.193061,43.614112,2
1553,OFFICE,OFFICE034,6981,CONSUMER ENGAGEMENT & WELLNESS,"102 W Jefferson, Boise, ID, 83702",-116.193061,43.614112,9
1554,OFFICE,OFFICE036,6501,MEDICAL TRANSCRIPTION,"1471 W Shoreline Dr, Boise, ID, 83702",-116.2200473,43.6150783,11
1555,OFFICE,OFFICE036,6513,HEALTH INFO MGMT SERVICES,"1471 W Shoreline Dr, Boise, ID, 83702",-116.2200473,43.6150783,36
1556,OFFICE,OFFICE037,3603,SL REHAB CHILDREN'S - LOUISE,"3525 E.Louise, Meridian, ID, 83642",-116.3499193,43.6017684,1
1557,OFFICE,OFFICE037,5405,IHT EHR SERVICES,"3525 E.Louise, Meridian, ID, 83642",-116.3499193,43.6017684,5
1558,OFFICE,OFFICE037,5453,IT-EPIC PROJECT,"3525 E.Louise, Meridian, ID, 83642",-116.3499193,43.6017684,1
1559,OFFICE,OFFICE038,6601,EXECUTIVE OFFICE,"815 E Park Blvd, Boise, ID, 83712",-116.190538,43.60283,22
1560,OFFICE,OFFICE038,6622,LEGAL,"815 E Park Blvd, Boise, ID, 83712",-116.190538,43.60283,14
1561,OFFICE,OFFICE038,6623,COMPLIANCE,"815 E Park Blvd, Boise, ID, 83712",-116.190538,43.60283,19
1562,OFFICE,OFFICE038,6627,INTERNAL AUDIT,"815 E Park Blvd, Boise, ID, 83712",-116.190538,43.60283,3
1563,OFFICE,OFFICE038,6628,BOARD SUPPORT,"815 E Park Blvd, Boise, ID, 83712",-116.190538,43.60283,3
1564,OFFICE,OFFICE038,7001,PUBLIC RELATIONS,"815 E Park Blvd, Boise, ID, 83712",-116.190538,43.60283,8
1565,OFFICE,OFFICE038,7002,MARKETING,"815 E Park Blvd, Boise, ID, 83712",-116.190538,43.60283,12
1566,OFFICE,OFFICE038,8599,RISK MANAGEMENT,"815 E Park Blvd, Boise, ID, 83712",-116.190538,43.60283,4
1567,OFFICE,OFFICE039,1241,SL INTERNAL MED HOSPITALISTS,"805 W Franklin, Boise, ID, 83702",-116.1995302,43.620148,1
1568,OFFICE,OFFICE039,5405,IHT EHR SERVICES,"805 W Franklin, Boise, ID, 83702",-116.1995302,43.620148,2
1569,OFFICE,OFFICE039,6612,SLHP ADMIN,"805 W Franklin, Boise, ID, 83702",-116.1995302,43.620148,30
1570,OFFICE,OFFICE039,6621,CLINICAL INTEGRATION,"805 W Franklin, Boise, ID, 83702",-116.1995302,43.620148,2
1571,OFFICE,OFFICE039,6624,PAYOR & PROVIDER RELATIONS,"805 W Franklin, Boise, ID, 83702",-116.1995302,43.620148,1
1572,OFFICE,OFFICE201,2701,AIR ST LUKE'S,"793 S Worth, Meridian, ID, 83642",-116.3469388,43.6008946,1
1573,OFFICE,OFFICE201,2702,AIR SL GROUND TRANSPORT,"793 S Worth, Meridian, ID, 83642",-116.3469388,43.6008946,21
1574,OFFICE,OFFICE202,3654,SL BOISE SURGICAL GROUP-MERID,"3399 E Louise, Meridian, ID, 83642",-116.3525247,43.6014835,18
1575,OFFICE,OFFICE202,3661,SL BARIATRICS & GEN SURGERY,"3399 E Louise, Meridian, ID, 83642",-116.3525247,43.6014835,1
1576,OFFICE,OFFICE202,3664,SL ADVANCED LAPAROSCOPIC SURG,"3399 E Louise, Meridian, ID, 83642",-116.3525247,43.6014835,1
1577,OFFICE,OFFICE202,5399,BUILDING SERVICES ADMIN,"3399 E Louise, Meridian, ID, 83642",-116.3525247,43.6014835,1
1578,OFFICE,OFFICE202,5402,IHT ENTERPRISE AND BUS SERVICE,"3399 E Louise, Meridian, ID, 83642",-116.3525247,43.6014835,3
1579,OFFICE,OFFICE202,5405,IHT EHR SERVICES,"3399 E Louise, Meridian, ID, 83642",-116.3525247,43.6014835,15
1580,OFFICE,OFFICE202,5406,IHT CYBER SECURITY,"3399 E Louise, Meridian, ID, 83642",-116.3525247,43.6014835,1
1581,OFFICE,OFFICE202,6601,ADMINISTRATION,"3399 E Louise, Meridian, ID, 83642",-116.3525247,43.6014835,1
1582,OFFICE,OFFICE401,1302,MOTHER / BABY,"121 Aspenwood, Twin Falls, ID, 83301",-114.435507,42.548802,1
1583,OFFICE,OFFICE401,2702,PARAMEDIC SERVICES,"121 Aspenwood, Twin Falls, ID, 83301",-114.435507,42.548802,6
1584,OFFICE,OFFICE402,3001,SL BEHAVIORAL HEALTH,"212 3rd Ave S, Twin Falls, ID, 83301",-114.470524,42.553074,1
1585,OFFICE,OFFICE402,6511,PHYSICIAN SVCS CODING,"212 3rd Ave S, Twin Falls, ID, 83301",-114.470524,42.553074,21
1586,OFFICE,OFFICE402,6513,HEALTH INFO MGMT SERVICES,"212 3rd Ave S, Twin Falls, ID, 83301",-114.470524,42.553074,6
1587,OFFICE,OFFICE402,6601,ADMINISTRATION,"212 3rd Ave S, Twin Falls, ID, 83301",-114.470524,42.553074,1
1588,OFFICE,OFFICE402,6799,NURSING  ADMINISTRATION,"212 3rd Ave S, Twin Falls, ID, 83301",-114.470524,42.553074,1
1589,OFFICE,OFFICE402,8501,PATIENT FINANCIAL SERVICES-MV,"212 3rd Ave S, Twin Falls, ID, 83301",-114.470524,42.553074,57
1590,OFFICE,OFFICE402,8503,CASH MANAGEMENT,"212 3rd Ave S, Twin Falls, ID, 83301",-114.470524,42.553074,3
1591,OFFICE,OFFICE402,8506,HB BILLING,"212 3rd Ave S, Twin Falls, ID, 83301",-114.470524,42.553074,1
1592,OFFICE,OFFICE402,8597,PAYOR REIMBURSEMENT MGMT,"212 3rd Ave S, Twin Falls, ID, 83301",-114.470524,42.553074,1
1593,OFFICE,OFFICE402,8602,PRE-ACCESS SERVICES,"212 3rd Ave S, Twin Falls, ID, 83301",-114.470524,42.553074,7
1594,OFFICE,OFFICE403,2702,PARAMEDIC SERVICES,"285 Martin, Twin Falls, ID, 83301",-114.492732,42.567298,16
1595,OFFICE,OFFICE404,2702,PARAMEDIC SERVICES,"708 Shoshone E, Twin Falls, ID, 83301",-114.464109,42.559921,17
1596,OFFICE,OFFICE405,5372,CONSTRUCTION,"851 Pole Line Road West, Twin Falls, ID, 83301",-114.4982864,42.5913589,1
1597,OFFICE,OFFICE405,8507,PFS CHARGE CAPTURE,"851 Pole Line Road West, Twin Falls, ID, 83301",-114.4982864,42.5913589,1
1598,OFFICE,OFFICE501,2602,HOME CARE - MCCALL,"301 Deinhard, McCall, ID, 83638",-116.0994983,44.897929,4
1599,OFFICE,OFFICE501,2651,HOSPICE - MCCALL,"301 Deinhard, McCall, ID, 83638",-116.0994983,44.897929,4
1600,OFFICE,OFFICE501,3001,MCCALL BEHAVIORAL HEALTH,"301 Deinhard, McCall, ID, 83638",-116.0994983,44.897929,2
1601,OFFICE,OFFICE501,3301,PAYETTE LAKES MEDICAL CLINIC,"301 Deinhard, McCall, ID, 83638",-116.0994983,44.897929,1
1602,OFFICE,OFFICE503,3303,SL FAMILY MEDICINE CLINIC,"1 Niece, Stanley, ID, 83278",-114.939508,44.214074,1
1603,OFFICE,OFFICE800,2001,SURGICAL SERVICES,"2259 E 8th N, Mountain Home, ID, 83647",-115.6728861,43.1375015,1
1604,OFFICE,OFFICE800,2501,EMERGENCY DEPARTMENT,"2259 E 8th N, Mountain Home, ID, 83647",-115.6728861,43.1375015,1
1605,OFFICE,OFFICE800,2702,AMBULANCE SERVICES,"2259 E 8th N, Mountain Home, ID, 83647",-115.6728861,43.1375015,39
1606,OFFICE,OFFICE900,4098,BREAST CARE SERVICES ADMIN,"909 NW 16th, Fruitland, ID, 83619",-116.9257762,44.0260333,1
1607,OTHER,OTHER100,5203,LOGISTICS OPERATIONS,"512 S 11th, Boise, ID, 83702",-116.21092,43.6133071,1
1608,OTHER,OTHER101,5032,PATIENT HOUSING - MSTI,"121 W Jefferson, Boise, ID, 83712",-116.1927811,43.6135852,1
1609,REFLAB,REFLAB1,2701,AIR ST LUKE'S,"3176 S Denver, Boise, ID, 83705",-116.195638,43.573906,15
1610,REFLAB,REFLAB1,2798,AIR ST LUKE'S MEMBERSHIPS,"3176 S Denver, Boise, ID, 83705",-116.195638,43.573906,2
1611,REFLAB,REFLAB1,2799,AIR ST LUKE'S ADMINISTRATION,"3176 S Denver, Boise, ID, 83705",-116.195638,43.573906,13
1612,REFLAB,REFLAB1,3301,CAPITAL CITY FAMILY MEDICINE,"3176 S Denver, Boise, ID, 83705",-116.195638,43.573906,1
1613,REFLAB,REFLAB1,3456,SL REHAB NEURO ADLT-CLDWELL BL,"3176 S Denver, Boise, ID, 83705",-116.195638,43.573906,1
1614,REFLAB,REFLAB1,4201,LABORATORY,"3176 S Denver, Boise, ID, 83705",-116.195638,43.573906,6
1615,REFLAB,REFLAB1,4211,ANATOMIC CYTOLOGY SERVICES,"3176 S Denver, Boise, ID, 83705",-116.195638,43.573906,1
1616,REFLAB,REFLAB1,4221,MICROBIOLOGY,"3176 S Denver, Boise, ID, 83705",-116.195638,43.573906,21
1617,REFLAB,REFLAB1,4223,CORE AREA,"3176 S Denver, Boise, ID, 83705",-116.195638,43.573906,17
1618,REFLAB,REFLAB1,4224,LAB PROCESSING,"3176 S Denver, Boise, ID, 83705",-116.195638,43.573906,26
1619,REFLAB,REFLAB1,4225,OUTPATIENT DRAW SITES,"3176 S Denver, Boise, ID, 83705",-116.195638,43.573906,7
1620,REFLAB,REFLAB1,4299,LAB ADMINISTRATION,"3176 S Denver, Boise, ID, 83705",-116.195638,43.573906,9
1621,REFLAB,REFLAB1,5103,TRANSFER CENTER,"3176 S Denver, Boise, ID, 83705",-116.195638,43.573906,1
1622,REFLAB,REFLAB1,5202,DISTRIBUTION-MM,"3176 S Denver, Boise, ID, 83705",-116.195638,43.573906,1
1623,REFLAB,REFLAB1,5405,IHT EHR SERVICES,"3176 S Denver, Boise, ID, 83705",-116.195638,43.573906,4
1624,REFLAB,REFLAB1,5451,MSTI BUSINESS OPERATIONS,"3176 S Denver, Boise, ID, 83705",-116.195638,43.573906,1
1625,REFLAB,REFLAB1,6011,SLR CHILDREN SPECIALTY STUDIES,"3176 S Denver, Boise, ID, 83705",-116.195638,43.573906,1
1626,REFLAB,REFLAB1,6601,ADMINISTRATION,"3176 S Denver, Boise, ID, 83705",-116.195638,43.573906,2
1627,REFLAB,REFLAB1,6702,CENTRALIZED VERIFICATION ORG,"3176 S Denver, Boise, ID, 83705",-116.195638,43.573906,11
1628,REFLAB,REFLAB1,6801,CLINICAL EDUCATION,"3176 S Denver, Boise, ID, 83705",-116.195638,43.573906,1
1629,REFLAB,REFLAB1,8597,PAYOR REIMBURSEMENT MGMT,"3176 S Denver, Boise, ID, 83705",-116.195638,43.573906,1
1630,REFLAB,REFLAB1,8699,PATIENT ACCESS ADMINISTRATION,"3176 S Denver, Boise, ID, 83705",-116.195638,43.573906,2
1631,REMOTE,REMOTE,5498,IHT HEALTH INFORMATICS,"190 E Bannock St, Boise, ID, 83712",-116.1924344,43.6125798,1
1632,REMOTE,REMOTE,6501,MEDICAL TRANSCRIPTION,"190 E Bannock St, Boise, ID, 83712",-116.1924344,43.6125798,45
1633,REMOTE,REMOTE,6513,HEALTH INFO MGMT SERVICES,"190 E Bannock St, Boise, ID, 83712",-116.1924344,43.6125798,25
1634,REMOTE,REMOTE,6516,TUMOR REGISTRY / MED RECORDS,"190 E Bannock St, Boise, ID, 83712",-116.1924344,43.6125798,3
1635,REMOTE,REMOTE,8004,ST LUKES CONNECT,"190 E Bannock St, Boise, ID, 83712",-116.1924344,43.6125798,1
1636,REMOTE,REMOTE,8506,CENTRAL BILL'G OFF-PHYS SVCS,"190 E Bannock St, Boise, ID, 83712",-116.1924344,43.6125798,12
1637,REMOTE,REMOTE,9504,IDAHO CYTOGENETICS LAB,"190 E Bannock St, Boise, ID, 83712",-116.1924344,43.6125798,2